"Longitude (x)","Latitude (y)","Station Name","Climate ID","Date/Time","Year","Month","Day","Time","Temp (°C)","Temp Flag","Dew Point Temp (°C)","Dew Point Temp Flag","Rel Hum (%)","Rel Hum Flag","Wind Dir (10s deg)","Wind Dir Flag","Wind Spd (km/h)","Wind Spd Flag","Visibility (km)","Visibility Flag","Stn Press (kPa)","Stn Press Flag","Hmdx","Hmdx Flag","Wind Chill","Wind Chill Flag","Weather"
"-79.42","46.36","NORTH BAY A","6085680","2017-01-01 00:00","2017","01","01","00:00","-9.4","","-10.5","","92","","28","","15","","16.1","","95.78","","","","-16","","Snow"
"-79.42","46.36","NORTH BAY A","6085680","2017-01-01 01:00","2017","01","01","01:00","-10.6","","-11.8","","91","","27","","18","","16.1","","95.97","","","","-18","","Snow"
"-79.42","46.36","NORTH BAY A","6085680","2017-01-01 02:00","2017","01","01","02:00","-12.4","","-13.7","","90","","27","","13","","16.1","","96.18","","","","-19","","Snow"
"-79.42","46.36","NORTH BAY A","6085680","2017-01-01 03:00","2017","01","01","03:00","-12.9","","-14.4","","89","","27","","11","","16.1","","96.36","","","","-19","","NA"
"-79.42","46.36","NORTH BAY A","6085680","2017-01-01 04:00","2017","01","01","04:00","-14.0","","-15.4","","89","","26","","11","","16.1","","96.52","","","","-20","","NA"
"-79.42","46.36","NORTH BAY A","6085680","2017-01-01 05:00","2017","01","01","05:00","-13.5","","-14.9","","89","","26","","17","","16.1","","96.68","","","","-22","","NA"
"-79.42","46.36","NORTH BAY A","6085680","2017-01-01 06:00","2017","01","01","06:00","-13.0","","-14.5","","89","","26","","9","","16.1","","96.74","","","","-18","","NA"
"-79.42","46.36","NORTH BAY A","6085680","2017-01-01 07:00","2017","01","01","07:00","-12.8","","-14.4","","88","","","M","4","","16.1","","96.81","","","","-15","","NA"
"-79.42","46.36","NORTH BAY A","6085680","2017-01-01 08:00","2017","01","01","08:00","-12.0","","-13.3","","90","","21","","9","","16.1","","96.95","","","","-17","","NA"
"-79.42","46.36","NORTH BAY A","6085680","2017-01-01 09:00","2017","01","01","09:00","-11.3","","-12.6","","90","","12","","8","","16.1","","97.00","","","","-16","","NA"
"-79.42","46.36","NORTH BAY A","6085680","2017-01-01 10:00","2017","01","01","10:00","-10.6","","-12.4","","87","","13","","9","","16.1","","97.10","","","","-16","","NA"
"-79.42","46.36","NORTH BAY A","6085680","2017-01-01 11:00","2017","01","01","11:00","-8.1","","-11.0","","80","","15","","8","","16.1","","97.15","","","","-12","","NA"
"-79.42","46.36","NORTH BAY A","6085680","2017-01-01 12:00","2017","01","01","12:00","-5.7","","-7.8","","85","","17","","9","","16.1","","97.15","","","","-10","","NA"
"-79.42","46.36","NORTH BAY A","6085680","2017-01-01 13:00","2017","01","01","13:00","-4.8","","-5.9","","92","","17","","11","","4.0","","97.16","","","","-9","","Snow"
"-79.42","46.36","NORTH BAY A","6085680","2017-01-01 14:00","2017","01","01","14:00","-3.5","","-4.5","","93","","18","","15","","16.1","","97.13","","","","-9","","NA"
"-79.42","46.36","NORTH BAY A","6085680","2017-01-01 15:00","2017","01","01","15:00","-2.3","","-4.3","","86","","20","","18","","16.1","","97.21","","","","-8","","NA"
"-79.42","46.36","NORTH BAY A","6085680","2017-01-01 16:00","2017","01","01","16:00","-1.4","","-3.3","","87","","20","","21","","16.1","","97.28","","","","-7","","NA"
"-79.42","46.36","NORTH BAY A","6085680","2017-01-01 17:00","2017","01","01","17:00","-1.2","","-3.1","","87","","21","","22","","16.1","","97.39","","","","-7","","Snow"
"-79.42","46.36","NORTH BAY A","6085680","2017-01-01 18:00","2017","01","01","18:00","-1.2","","-3.1","","87","","22","","24","","16.1","","97.52","","","","-7","","Snow"
"-79.42","46.36","NORTH BAY A","6085680","2017-01-01 19:00","2017","01","01","19:00","-1.4","","-3.0","","89","","23","","17","","16.1","","97.63","","","","-7","","Snow"
"-79.42","46.36","NORTH BAY A","6085680","2017-01-01 20:00","2017","01","01","20:00","-1.5","","-3.1","","89","","23","","13","","16.1","","97.71","","","","-6","","NA"
"-79.42","46.36","NORTH BAY A","6085680","2017-01-01 21:00","2017","01","01","21:00","-1.6","","-2.9","","91","","23","","9","","16.1","","97.78","","","","-5","","NA"
"-79.42","46.36","NORTH BAY A","6085680","2017-01-01 22:00","2017","01","01","22:00","-1.6","","-3.5","","87","","27","","9","","16.1","","97.87","","","","-5","","NA"
"-79.42","46.36","NORTH BAY A","6085680","2017-01-01 23:00","2017","01","01","23:00","-4.7","","-5.7","","93","","25","","8","","16.1","","97.91","","","","-8","","NA"
"-79.42","46.36","NORTH BAY A","6085680","2017-01-02 00:00","2017","01","02","00:00","-4.3","","-4.8","","96","","","M","4","","16.1","","98.00","","","","-6","","NA"
"-79.42","46.36","NORTH BAY A","6085680","2017-01-02 01:00","2017","01","02","01:00","-4.2","","-5.2","","93","","","","0","","16.1","","98.04","","","","","","NA"
"-79.42","46.36","NORTH BAY A","6085680","2017-01-02 02:00","2017","01","02","02:00","-4.1","","-5.1","","93","","","","0","","16.1","","98.14","","","","","","NA"
"-79.42","46.36","NORTH BAY A","6085680","2017-01-02 03:00","2017","01","02","03:00","-3.8","","-5.2","","90","","17","","5","","16.1","","98.20","","","","-6","","NA"
"-79.42","46.36","NORTH BAY A","6085680","2017-01-02 04:00","2017","01","02","04:00","-4.2","","-4.9","","95","","","M","4","","16.1","","98.19","","","","-6","","NA"
"-79.42","46.36","NORTH BAY A","6085680","2017-01-02 05:00","2017","01","02","05:00","-3.5","","-4.6","","92","","10","","5","","16.1","","98.27","","","","-6","","NA"
"-79.42","46.36","NORTH BAY A","6085680","2017-01-02 06:00","2017","01","02","06:00","-3.1","","-4.1","","93","","8","","9","","16.1","","98.24","","","","-7","","NA"
"-79.42","46.36","NORTH BAY A","6085680","2017-01-02 07:00","2017","01","02","07:00","-2.9","","-4.1","","92","","7","","13","","16.1","","98.24","","","","-8","","NA"
"-79.42","46.36","NORTH BAY A","6085680","2017-01-02 08:00","2017","01","02","08:00","-3.1","","-4.1","","93","","5","","13","","16.1","","98.30","","","","-8","","NA"
"-79.42","46.36","NORTH BAY A","6085680","2017-01-02 09:00","2017","01","02","09:00","-3.0","","-4.0","","93","","7","","13","","16.1","","98.37","","","","-8","","NA"
"-79.42","46.36","NORTH BAY A","6085680","2017-01-02 10:00","2017","01","02","10:00","-2.5","","-4.1","","89","","7","","13","","16.1","","98.42","","","","-7","","NA"
"-79.42","46.36","NORTH BAY A","6085680","2017-01-02 11:00","2017","01","02","11:00","-1.4","","-3.9","","83","","8","","18","","16.1","","98.43","","","","-7","","NA"
"-79.42","46.36","NORTH BAY A","6085680","2017-01-02 12:00","2017","01","02","12:00","-0.4","","-3.6","","79","","9","","17","","16.1","","98.35","","","","-5","","NA"
"-79.42","46.36","NORTH BAY A","6085680","2017-01-02 13:00","2017","01","02","13:00","0.6","","-3.7","","73","","7","","17","","16.1","","98.28","","","","","","NA"
"-79.42","46.36","NORTH BAY A","6085680","2017-01-02 14:00","2017","01","02","14:00","0.9","","-3.4","","73","","8","","18","","16.1","","98.24","","","","","","NA"
"-79.42","46.36","NORTH BAY A","6085680","2017-01-02 15:00","2017","01","02","15:00","1.0","","-3.5","","72","","8","","22","","16.1","","98.17","","","","","","NA"
"-79.42","46.36","NORTH BAY A","6085680","2017-01-02 16:00","2017","01","02","16:00","0.3","","-3.5","","76","","7","","18","","16.1","","98.11","","","","","","NA"
"-79.42","46.36","NORTH BAY A","6085680","2017-01-02 17:00","2017","01","02","17:00","-0.9","","-3.6","","82","","7","","15","","16.1","","98.08","","","","-6","","NA"
"-79.42","46.36","NORTH BAY A","6085680","2017-01-02 18:00","2017","01","02","18:00","-1.3","","-3.8","","83","","7","","21","","16.1","","98.00","","","","-7","","NA"
"-79.42","46.36","NORTH BAY A","6085680","2017-01-02 19:00","2017","01","02","19:00","-1.7","","-4.8","","79","","8","","26","","16.1","","97.97","","","","-8","","NA"
"-79.42","46.36","NORTH BAY A","6085680","2017-01-02 20:00","2017","01","02","20:00","-1.9","","-5.2","","78","","9","","30","","16.1","","97.95","","","","-9","","NA"
"-79.42","46.36","NORTH BAY A","6085680","2017-01-02 21:00","2017","01","02","21:00","-2.0","","-4.4","","84","","9","","26","","16.1","","97.83","","","","-9","","NA"
"-79.42","46.36","NORTH BAY A","6085680","2017-01-02 22:00","2017","01","02","22:00","-1.8","","-4.3","","83","","9","","30","","16.1","","97.78","","","","-9","","NA"
"-79.42","46.36","NORTH BAY A","6085680","2017-01-02 23:00","2017","01","02","23:00","-1.9","","-4.7","","81","","8","","30","","16.1","","97.67","","","","-9","","NA"
"-79.42","46.36","NORTH BAY A","6085680","2017-01-03 00:00","2017","01","03","00:00","-2.1","","-4.8","","82","","9","","26","","16.1","","97.57","","","","-9","","NA"
"-79.42","46.36","NORTH BAY A","6085680","2017-01-03 01:00","2017","01","03","01:00","-2.3","","-4.8","","83","","9","","26","","16.1","","97.49","","","","-9","","NA"
"-79.42","46.36","NORTH BAY A","6085680","2017-01-03 02:00","2017","01","03","02:00","-2.4","","-3.9","","89","","9","","28","","3.6","","97.40","","","","-9","","Snow"
"-79.42","46.36","NORTH BAY A","6085680","2017-01-03 03:00","2017","01","03","03:00","-2.6","","-3.6","","93","","8","","21","","1.6","","97.35","","","","-9","","Snow"
"-79.42","46.36","NORTH BAY A","6085680","2017-01-03 04:00","2017","01","03","04:00","-2.9","","-3.7","","94","","8","","22","","1.6","","97.25","","","","-9","","Snow"
"-79.42","46.36","NORTH BAY A","6085680","2017-01-03 05:00","2017","01","03","05:00","-2.9","","-3.9","","93","","9","","28","","3.6","","97.06","","","","-10","","Snow"
"-79.42","46.36","NORTH BAY A","6085680","2017-01-03 06:00","2017","01","03","06:00","-2.9","","-4.0","","92","","8","","28","","16.1","","96.97","","","","-10","","Snow"
"-79.42","46.36","NORTH BAY A","6085680","2017-01-03 07:00","2017","01","03","07:00","-2.9","","-4.3","","90","","8","","26","","16.1","","96.92","","","","-10","","NA"
"-79.42","46.36","NORTH BAY A","6085680","2017-01-03 08:00","2017","01","03","08:00","-3.0","","-4.3","","91","","8","","26","","16.1","","96.84","","","","-10","","NA"
"-79.42","46.36","NORTH BAY A","6085680","2017-01-03 09:00","2017","01","03","09:00","-2.9","","-4.2","","91","","8","","17","","16.1","","96.81","","","","-8","","NA"
"-79.42","46.36","NORTH BAY A","6085680","2017-01-03 10:00","2017","01","03","10:00","-2.8","","-3.6","","94","","9","","22","","3.6","","96.78","","","","-9","","Fog"
"-79.42","46.36","NORTH BAY A","6085680","2017-01-03 11:00","2017","01","03","11:00","-2.5","","-3.3","","94","","9","","24","","4.0","","96.66","","","","-9","","Fog"
"-79.42","46.36","NORTH BAY A","6085680","2017-01-03 12:00","2017","01","03","12:00","-2.0","","-2.8","","94","","9","","22","","11.3","","96.51","","","","-8","","NA"
"-79.42","46.36","NORTH BAY A","6085680","2017-01-03 13:00","2017","01","03","13:00","-1.8","","-2.6","","94","","7","","17","","11.3","","96.40","","","","-7","","NA"
"-79.42","46.36","NORTH BAY A","6085680","2017-01-03 14:00","2017","01","03","14:00","-1.7","","-2.5","","94","","5","","13","","4.8","","96.35","","","","-6","","Fog"
"-79.42","46.36","NORTH BAY A","6085680","2017-01-03 15:00","2017","01","03","15:00","-1.7","","-2.4","","95","","7","","18","","2.8","","96.25","","","","-7","","Fog"
"-79.42","46.36","NORTH BAY A","6085680","2017-01-03 16:00","2017","01","03","16:00","-1.7","","-2.3","","96","","9","","21","","6.4","","96.15","","","","-8","","Fog"
"-79.42","46.36","NORTH BAY A","6085680","2017-01-03 17:00","2017","01","03","17:00","-1.8","","-2.4","","96","","7","","18","","2.8","","96.05","","","","-7","","Fog"
"-79.42","46.36","NORTH BAY A","6085680","2017-01-03 18:00","2017","01","03","18:00","-2.1","","-2.7","","96","","8","","22","","14.5","","95.97","","","","-8","","NA"
"-79.42","46.36","NORTH BAY A","6085680","2017-01-03 19:00","2017","01","03","19:00","-2.1","","-2.5","","97","","9","","17","","16.1","","95.87","","","","-7","","NA"
"-79.42","46.36","NORTH BAY A","6085680","2017-01-03 20:00","2017","01","03","20:00","-2.0","","-2.6","","96","","9","","17","","16.1","","95.77","","","","-7","","NA"
"-79.42","46.36","NORTH BAY A","6085680","2017-01-03 21:00","2017","01","03","21:00","-1.9","","-2.5","","96","","9","","18","","14.5","","95.62","","","","-7","","Snow"
"-79.42","46.36","NORTH BAY A","6085680","2017-01-03 22:00","2017","01","03","22:00","-1.8","","-2.4","","96","","9","","17","","4.8","","95.49","","","","-7","","Freezing Rain,Snow"
"-79.42","46.36","NORTH BAY A","6085680","2017-01-03 23:00","2017","01","03","23:00","-1.7","","-2.3","","96","","8","","13","","2.8","","95.37","","","","-6","","Snow"
"-79.42","46.36","NORTH BAY A","6085680","2017-01-04 00:00","2017","01","04","00:00","-1.7","","-2.1","","97","","9","","11","","2.4","","95.27","","","","-6","","Freezing Rain,Snow"
"-79.42","46.36","NORTH BAY A","6085680","2017-01-04 01:00","2017","01","04","01:00","-1.9","","-2.3","","97","","10","","5","","1.6","","95.15","","","","-4","","Snow"
"-79.42","46.36","NORTH BAY A","6085680","2017-01-04 02:00","2017","01","04","02:00","-2.1","","-2.5","","97","","12","","5","","1.6","","95.05","","","","-4","","Snow"
"-79.42","46.36","NORTH BAY A","6085680","2017-01-04 03:00","2017","01","04","03:00","-2.1","","-2.5","","97","","14","","9","","2.0","","94.99","","","","-6","","Snow"
"-79.42","46.36","NORTH BAY A","6085680","2017-01-04 04:00","2017","01","04","04:00","-2.2","","-2.6","","97","","19","","8","","6.4","","94.89","","","","-5","","Snow"
"-79.42","46.36","NORTH BAY A","6085680","2017-01-04 05:00","2017","01","04","05:00","-2.2","","-2.5","","98","","25","","11","","2.4","","94.79","","","","-6","","Snow"
"-79.42","46.36","NORTH BAY A","6085680","2017-01-04 06:00","2017","01","04","06:00","-2.4","","-2.8","","97","","25","","18","","2.4","","94.75","","","","-8","","Snow"
"-79.42","46.36","NORTH BAY A","6085680","2017-01-04 07:00","2017","01","04","07:00","-3.3","","-4.0","","95","","25","","18","","2.4","","94.73","","","","-9","","Snow"
"-79.42","46.36","NORTH BAY A","6085680","2017-01-04 08:00","2017","01","04","08:00","-3.8","","-4.5","","95","","26","","17","","2.4","","94.69","","","","-10","","Snow"
"-79.42","46.36","NORTH BAY A","6085680","2017-01-04 09:00","2017","01","04","09:00","-4.3","","-5.1","","94","","25","","22","","1.6","","94.73","","","","-11","","Snow"
"-79.42","46.36","NORTH BAY A","6085680","2017-01-04 10:00","2017","01","04","10:00","-4.7","","-5.8","","92","","26","","22","","2.4","","94.75","","","","-12","","Snow"
"-79.42","46.36","NORTH BAY A","6085680","2017-01-04 11:00","2017","01","04","11:00","-5.1","","-6.2","","92","","27","","17","","4.8","","94.76","","","","-11","","Fog"
"-79.42","46.36","NORTH BAY A","6085680","2017-01-04 12:00","2017","01","04","12:00","-5.3","","-6.7","","90","","25","","22","","16.1","","94.70","","","","-12","","NA"
"-79.42","46.36","NORTH BAY A","6085680","2017-01-04 13:00","2017","01","04","13:00","-5.0","","-6.1","","92","","26","","26","","6.4","","94.65","","","","-12","","Snow"
"-79.42","46.36","NORTH BAY A","6085680","2017-01-04 14:00","2017","01","04","14:00","-4.4","","-6.0","","89","","25","","21","","14.5","","94.64","","","","-11","","Snow"
"-79.42","46.36","NORTH BAY A","6085680","2017-01-04 15:00","2017","01","04","15:00","-5.5","","-6.8","","90","","24","","24","","3.2","","94.65","","","","-13","","Snow"
"-79.42","46.36","NORTH BAY A","6085680","2017-01-04 16:00","2017","01","04","16:00","-6.0","","-7.5","","89","","25","","32","","2.8","","94.69","","","","-15","","Snow"
"-79.42","46.36","NORTH BAY A","6085680","2017-01-04 17:00","2017","01","04","17:00","-7.4","","-8.9","","89","","29","","32","","0.4","","94.77","","","","-16","","Heavy Snow"
"-79.42","46.36","NORTH BAY A","6085680","2017-01-04 18:00","2017","01","04","18:00","-9.7","","-12.0","","84","","29","","28","","11.3","","94.89","","","","-19","","Snow"
"-79.42","46.36","NORTH BAY A","6085680","2017-01-04 19:00","2017","01","04","19:00","-11.3","","-13.8","","82","","30","","24","","8.1","","94.95","","","","-20","","Snow"
"-79.42","46.36","NORTH BAY A","6085680","2017-01-04 20:00","2017","01","04","20:00","-12.8","","-15.3","","82","","30","","30","","2.8","","95.04","","","","-23","","Snow"
"-79.42","46.36","NORTH BAY A","6085680","2017-01-04 21:00","2017","01","04","21:00","-14.1","","-16.5","","82","","30","","22","","2.0","","95.11","","","","-23","","Snow"
"-79.42","46.36","NORTH BAY A","6085680","2017-01-04 22:00","2017","01","04","22:00","-15.4","","-18.3","","79","","29","","30","","4.0","","95.21","","","","-27","","Snow"
"-79.42","46.36","NORTH BAY A","6085680","2017-01-04 23:00","2017","01","04","23:00","-16.1","","-18.5","","82","","27","","17","","3.6","","95.32","","","","-25","","Snow"
"-79.42","46.36","NORTH BAY A","6085680","2017-01-05 00:00","2017","01","05","00:00","-16.5","","-19.3","","79","","30","","18","","8.1","","95.39","","","","-26","","Snow"
"-79.42","46.36","NORTH BAY A","6085680","2017-01-05 01:00","2017","01","05","01:00","-17.4","","-20.1","","80","","28","","17","","8.1","","95.45","","","","-26","","Snow"
"-79.42","46.36","NORTH BAY A","6085680","2017-01-05 02:00","2017","01","05","02:00","-17.4","","-19.6","","83","","28","","17","","8.1","","95.52","","","","-26","","Snow"
"-79.42","46.36","NORTH BAY A","6085680","2017-01-05 03:00","2017","01","05","03:00","-17.7","","-20.1","","82","","28","","11","","12.9","","95.61","","","","-25","","Snow"
"-79.42","46.36","NORTH BAY A","6085680","2017-01-05 04:00","2017","01","05","04:00","-17.8","","-20.5","","80","","26","","15","","16.1","","95.68","","","","-26","","NA"
"-79.42","46.36","NORTH BAY A","6085680","2017-01-05 05:00","2017","01","05","05:00","-17.6","","-20.3","","80","","27","","18","","16.1","","95.70","","","","-27","","Snow"
"-79.42","46.36","NORTH BAY A","6085680","2017-01-05 06:00","2017","01","05","06:00","-17.9","","-20.1","","83","","27","","15","","4.8","","95.78","","","","-26","","Snow"
"-79.42","46.36","NORTH BAY A","6085680","2017-01-05 07:00","2017","01","05","07:00","-18.6","","-20.7","","84","","26","","15","","16.1","","95.87","","","","-27","","Snow"
"-79.42","46.36","NORTH BAY A","6085680","2017-01-05 08:00","2017","01","05","08:00","-19.4","","-21.5","","84","","24","","17","","16.1","","95.92","","","","-29","","NA"
"-79.42","46.36","NORTH BAY A","6085680","2017-01-05 09:00","2017","01","05","09:00","-19.3","","-21.5","","83","","26","","15","","16.1","","95.95","","","","-28","","NA"
"-79.42","46.36","NORTH BAY A","6085680","2017-01-05 10:00","2017","01","05","10:00","-18.2","","-20.9","","80","","26","","17","","16.1","","95.99","","","","-27","","NA"
"-79.42","46.36","NORTH BAY A","6085680","2017-01-05 11:00","2017","01","05","11:00","-17.4","","-20.5","","77","","23","","21","","16.1","","96.04","","","","-27","","NA"
"-79.42","46.36","NORTH BAY A","6085680","2017-01-05 12:00","2017","01","05","12:00","-15.9","","-19.5","","74","","28","","15","","16.1","","96.01","","","","-24","","NA"
"-79.42","46.36","NORTH BAY A","6085680","2017-01-05 13:00","2017","01","05","13:00","-15.2","","-19.0","","73","","21","","17","","16.1","","95.99","","","","-24","","NA"
"-79.42","46.36","NORTH BAY A","6085680","2017-01-05 14:00","2017","01","05","14:00","-15.4","","-18.9","","75","","22","","18","","16.1","","96.01","","","","-24","","NA"
"-79.42","46.36","NORTH BAY A","6085680","2017-01-05 15:00","2017","01","05","15:00","-14.3","","-18.1","","73","","23","","21","","16.1","","96.04","","","","-24","","NA"
"-79.42","46.36","NORTH BAY A","6085680","2017-01-05 16:00","2017","01","05","16:00","-14.3","","-18.5","","71","","24","","15","","16.1","","96.07","","","","-22","","NA"
"-79.42","46.36","NORTH BAY A","6085680","2017-01-05 17:00","2017","01","05","17:00","-15.0","","-18.3","","76","","26","","8","","16.1","","96.10","","","","-20","","NA"
"-79.42","46.36","NORTH BAY A","6085680","2017-01-05 18:00","2017","01","05","18:00","-17.0","","-19.4","","82","","27","","8","","16.1","","96.14","","","","-23","","NA"
"-79.42","46.36","NORTH BAY A","6085680","2017-01-05 19:00","2017","01","05","19:00","-19.0","","-21.4","","82","","22","","5","","16.1","","96.18","","","","-23","","NA"
"-79.42","46.36","NORTH BAY A","6085680","2017-01-05 20:00","2017","01","05","20:00","-16.8","","-19.2","","82","","28","","5","","16.1","","96.23","","","","-21","","NA"
"-79.42","46.36","NORTH BAY A","6085680","2017-01-05 21:00","2017","01","05","21:00","-18.0","","-19.7","","87","","32","","4","","16.1","","96.26","","","","-21","","NA"
"-79.42","46.36","NORTH BAY A","6085680","2017-01-05 22:00","2017","01","05","22:00","-18.7","","-20.3","","88","","32","","4","","8.1","","96.33","","","","-22","","Snow"
"-79.42","46.36","NORTH BAY A","6085680","2017-01-05 23:00","2017","01","05","23:00","-20.1","","-22.1","","85","","35","","11","","2.4","","96.38","","","","-28","","Snow"
"-79.42","46.36","NORTH BAY A","6085680","2017-01-06 00:00","2017","01","06","00:00","-16.2","","-18.0","","86","","35","","9","","9.7","","96.41","","","","-22","","Snow"
"-79.42","46.36","NORTH BAY A","6085680","2017-01-06 01:00","2017","01","06","01:00","-18.7","","-20.2","","88","","35","","9","","8.1","","96.44","","","","-25","","Snow"
"-79.42","46.36","NORTH BAY A","6085680","2017-01-06 02:00","2017","01","06","02:00","-21.7","","-24.3","","80","","36","","5","","16.1","","96.48","","","","-26","","NA"
"-79.42","46.36","NORTH BAY A","6085680","2017-01-06 03:00","2017","01","06","03:00","-21.4","","-24.3","","78","","","","0","","16.1","","96.57","","","","","","NA"
"-79.42","46.36","NORTH BAY A","6085680","2017-01-06 04:00","2017","01","06","04:00","-24.9","","-27.4","","80","","","","0","","16.1","","96.60","","","","","","NA"
"-79.42","46.36","NORTH BAY A","6085680","2017-01-06 05:00","2017","01","06","05:00","-21.4","","-23.2","","85","","13","","4","","16.1","","96.60","","","","-25","","NA"
"-79.42","46.36","NORTH BAY A","6085680","2017-01-06 06:00","2017","01","06","06:00","-23.8","","-26.1","","82","","34","","4","","16.1","","96.68","","","","-28","","NA"
"-79.42","46.36","NORTH BAY A","6085680","2017-01-06 07:00","2017","01","06","07:00","-24.5","","-27.0","","80","","","","0","","16.1","","96.77","","","","","","NA"
"-79.42","46.36","NORTH BAY A","6085680","2017-01-06 08:00","2017","01","06","08:00","-23.7","","-25.7","","84","","1","","4","","16.1","","96.83","","","","-28","","NA"
"-79.42","46.36","NORTH BAY A","6085680","2017-01-06 09:00","2017","01","06","09:00","-23.7","","-26.7","","77","","33","","4","","12.9","","96.90","","","","-28","","NA"
"-79.42","46.36","NORTH BAY A","6085680","2017-01-06 10:00","2017","01","06","10:00","-17.6","","-19.6","","85","","29","","8","","16.1","","96.98","","","","-23","","NA"
"-79.42","46.36","NORTH BAY A","6085680","2017-01-06 11:00","2017","01","06","11:00","-16.8","","-19.0","","83","","21","","5","","16.1","","97.06","","","","-21","","NA"
"-79.42","46.36","NORTH BAY A","6085680","2017-01-06 12:00","2017","01","06","12:00","-15.6","","-18.5","","79","","22","","13","","16.1","","97.05","","","","-23","","NA"
"-79.42","46.36","NORTH BAY A","6085680","2017-01-06 13:00","2017","01","06","13:00","-15.4","","-19.7","","70","","20","","11","","16.1","","97.09","","","","-22","","NA"
"-79.42","46.36","NORTH BAY A","6085680","2017-01-06 14:00","2017","01","06","14:00","-15.7","","-20.2","","69","","22","","15","","16.1","","97.12","","","","-24","","NA"
"-79.42","46.36","NORTH BAY A","6085680","2017-01-06 15:00","2017","01","06","15:00","-15.5","","-20.1","","68","","21","","11","","16.1","","97.19","","","","-22","","NA"
"-79.42","46.36","NORTH BAY A","6085680","2017-01-06 16:00","2017","01","06","16:00","-16.8","","-21.3","","68","","23","","13","","16.1","","97.26","","","","-25","","NA"
"-79.42","46.36","NORTH BAY A","6085680","2017-01-06 17:00","2017","01","06","17:00","-18.0","","-20.8","","79","","27","","4","","16.1","","97.31","","","","-21","","NA"
"-79.42","46.36","NORTH BAY A","6085680","2017-01-06 18:00","2017","01","06","18:00","-18.5","","-21.0","","81","","22","","5","","16.1","","97.37","","","","-23","","NA"
"-79.42","46.36","NORTH BAY A","6085680","2017-01-06 19:00","2017","01","06","19:00","-18.4","","-20.9","","81","","26","","8","","16.1","","97.45","","","","-24","","NA"
"-79.42","46.36","NORTH BAY A","6085680","2017-01-06 20:00","2017","01","06","20:00","-19.4","","-21.7","","82","","35","","8","","16.1","","97.54","","","","-26","","NA"
"-79.42","46.36","NORTH BAY A","6085680","2017-01-06 21:00","2017","01","06","21:00","-19.8","","-22.2","","82","","36","","13","","16.1","","97.58","","","","-28","","NA"
"-79.42","46.36","NORTH BAY A","6085680","2017-01-06 22:00","2017","01","06","22:00","-22.6","","-25.2","","80","","2","","9","","16.1","","97.63","","","","-30","","NA"
"-79.42","46.36","NORTH BAY A","6085680","2017-01-06 23:00","2017","01","06","23:00","-26.3","","-29.4","","76","","35","","5","","16.1","","97.71","","","","-31","","NA"
"-79.42","46.36","NORTH BAY A","6085680","2017-01-07 00:00","2017","01","07","00:00","-26.0","","-28.4","","81","","36","","8","","16.1","","97.72","","","","-33","","NA"
"-79.42","46.36","NORTH BAY A","6085680","2017-01-07 01:00","2017","01","07","01:00","-24.6","","-26.1","","88","","","M","4","","16.1","","97.71","","","","-29","","NA"
"-79.42","46.36","NORTH BAY A","6085680","2017-01-07 02:00","2017","01","07","02:00","-25.9","","-28.3","","81","","","","0","","16.1","","97.75","","","","","","NA"
"-79.42","46.36","NORTH BAY A","6085680","2017-01-07 03:00","2017","01","07","03:00","-21.5","","-23.7","","83","","10","","11","","16.1","","97.83","","","","-29","","NA"
"-79.42","46.36","NORTH BAY A","6085680","2017-01-07 04:00","2017","01","07","04:00","-21.5","","-23.7","","83","","10","","15","","16.1","","97.83","","","","-31","","NA"
"-79.42","46.36","NORTH BAY A","6085680","2017-01-07 05:00","2017","01","07","05:00","-19.1","","-21.4","","82","","11","","11","","16.1","","97.86","","","","-27","","NA"
"-79.42","46.36","NORTH BAY A","6085680","2017-01-07 06:00","2017","01","07","06:00","-18.4","","-20.9","","81","","10","","13","","16.1","","97.85","","","","-26","","NA"
"-79.42","46.36","NORTH BAY A","6085680","2017-01-07 07:00","2017","01","07","07:00","-19.2","","-21.8","","80","","8","","8","","16.1","","97.84","","","","-25","","NA"
"-79.42","46.36","NORTH BAY A","6085680","2017-01-07 08:00","2017","01","07","08:00","-18.9","","-21.3","","82","","10","","13","","16.1","","97.83","","","","-27","","NA"
"-79.42","46.36","NORTH BAY A","6085680","2017-01-07 09:00","2017","01","07","09:00","-17.5","","-20.3","","79","","10","","17","","16.1","","97.77","","","","-27","","NA"
"-79.42","46.36","NORTH BAY A","6085680","2017-01-07 10:00","2017","01","07","10:00","-17.2","","-19.9","","80","","11","","13","","16.1","","97.81","","","","-25","","NA"
"-79.42","46.36","NORTH BAY A","6085680","2017-01-07 11:00","2017","01","07","11:00","-14.7","","-19.0","","70","","12","","11","","16.1","","97.78","","","","-21","","NA"
"-79.42","46.36","NORTH BAY A","6085680","2017-01-07 12:00","2017","01","07","12:00","-12.6","","-15.8","","77","","11","","15","","16.1","","97.68","","","","-20","","Snow"
"-79.42","46.36","NORTH BAY A","6085680","2017-01-07 13:00","2017","01","07","13:00","-12.3","","-14.5","","84","","10","","15","","3.2","","97.61","","","","-20","","Snow"
"-79.42","46.36","NORTH BAY A","6085680","2017-01-07 14:00","2017","01","07","14:00","-12.3","","-14.3","","85","","8","","9","","1.2","","97.56","","","","-18","","Snow"
"-79.42","46.36","NORTH BAY A","6085680","2017-01-07 15:00","2017","01","07","15:00","-11.3","","-13.2","","86","","14","","9","","8.1","","97.51","","","","-16","","Snow"
"-79.42","46.36","NORTH BAY A","6085680","2017-01-07 16:00","2017","01","07","16:00","-11.4","","-13.0","","88","","12","","8","","4.0","","97.49","","","","-16","","Snow"
"-79.42","46.36","NORTH BAY A","6085680","2017-01-07 17:00","2017","01","07","17:00","-11.3","","-12.9","","88","","36","","8","","1.6","","97.48","","","","-16","","Snow"
"-79.42","46.36","NORTH BAY A","6085680","2017-01-07 18:00","2017","01","07","18:00","-11.8","","-13.4","","88","","1","","9","","2.4","","97.46","","","","-17","","Snow"
"-79.42","46.36","NORTH BAY A","6085680","2017-01-07 19:00","2017","01","07","19:00","-12.1","","-13.8","","87","","35","","8","","2.4","","97.46","","","","-17","","Snow"
"-79.42","46.36","NORTH BAY A","6085680","2017-01-07 20:00","2017","01","07","20:00","-12.9","","-14.5","","88","","33","","5","","3.6","","97.47","","","","-16","","Snow"
"-79.42","46.36","NORTH BAY A","6085680","2017-01-07 21:00","2017","01","07","21:00","-13.8","","-15.4","","88","","35","","8","","4.8","","97.45","","","","-19","","Snow"
"-79.42","46.36","NORTH BAY A","6085680","2017-01-07 22:00","2017","01","07","22:00","-14.2","","-15.9","","87","","34","","8","","4.8","","97.43","","","","-19","","Snow"
"-79.42","46.36","NORTH BAY A","6085680","2017-01-07 23:00","2017","01","07","23:00","-15.2","","-16.9","","87","","1","","5","","16.1","","97.41","","","","-19","","NA"
"-79.42","46.36","NORTH BAY A","6085680","2017-01-08 00:00","2017","01","08","00:00","-17.4","","-19.3","","85","","36","","9","","16.1","","97.39","","","","-24","","NA"
"-79.42","46.36","NORTH BAY A","6085680","2017-01-08 01:00","2017","01","08","01:00","-16.9","","-18.7","","86","","36","","13","","16.1","","97.37","","","","-25","","Snow"
"-79.42","46.36","NORTH BAY A","6085680","2017-01-08 02:00","2017","01","08","02:00","-16.3","","-18.3","","85","","36","","13","","9.7","","97.45","","","","-24","","Snow"
"-79.42","46.36","NORTH BAY A","6085680","2017-01-08 03:00","2017","01","08","03:00","-16.5","","-18.8","","83","","35","","24","","3.6","","97.53","","","","-27","","Snow"
"-79.42","46.36","NORTH BAY A","6085680","2017-01-08 04:00","2017","01","08","04:00","-16.8","","-19.5","","80","","36","","22","","3.2","","97.61","","","","-27","","Snow"
"-79.42","46.36","NORTH BAY A","6085680","2017-01-08 05:00","2017","01","08","05:00","-17.7","","-20.5","","79","","1","","24","","8.1","","97.69","","","","-28","","Snow"
"-79.42","46.36","NORTH BAY A","6085680","2017-01-08 06:00","2017","01","08","06:00","-19.3","","-22.2","","78","","36","","21","","16.1","","97.86","","","","-30","","Snow"
"-79.42","46.36","NORTH BAY A","6085680","2017-01-08 07:00","2017","01","08","07:00","-20.1","","-23.0","","78","","36","","21","","16.1","","98.00","","","","-31","","NA"
"-79.42","46.36","NORTH BAY A","6085680","2017-01-08 08:00","2017","01","08","08:00","-21.0","","-24.0","","77","","35","","17","","16.1","","98.11","","","","-31","","NA"
"-79.42","46.36","NORTH BAY A","6085680","2017-01-08 09:00","2017","01","08","09:00","-21.2","","-24.1","","78","","36","","21","","16.1","","98.20","","","","-32","","NA"
"-79.42","46.36","NORTH BAY A","6085680","2017-01-08 10:00","2017","01","08","10:00","-20.8","","-24.1","","75","","36","","18","","16.1","","98.31","","","","-31","","NA"
"-79.42","46.36","NORTH BAY A","6085680","2017-01-08 11:00","2017","01","08","11:00","-20.0","","-23.8","","72","","35","","18","","16.1","","98.38","","","","-30","","NA"
"-79.42","46.36","NORTH BAY A","6085680","2017-01-08 12:00","2017","01","08","12:00","-19.4","","-23.7","","70","","34","","13","","16.1","","98.38","","","","-28","","NA"
"-79.42","46.36","NORTH BAY A","6085680","2017-01-08 13:00","2017","01","08","13:00","-18.9","","-23.6","","67","","28","","13","","16.1","","98.36","","","","-27","","NA"
"-79.42","46.36","NORTH BAY A","6085680","2017-01-08 14:00","2017","01","08","14:00","-19.0","","-23.7","","67","","31","","11","","16.1","","98.38","","","","-26","","NA"
"-79.42","46.36","NORTH BAY A","6085680","2017-01-08 15:00","2017","01","08","15:00","-19.5","","-22.9","","75","","23","","18","","6.4","","98.40","","","","-29","","Haze"
"-79.42","46.36","NORTH BAY A","6085680","2017-01-08 16:00","2017","01","08","16:00","-19.6","","-23.5","","72","","25","","15","","16.1","","98.45","","","","-29","","NA"
"-79.42","46.36","NORTH BAY A","6085680","2017-01-08 17:00","2017","01","08","17:00","-21.0","","-24.5","","74","","25","","13","","16.1","","98.46","","","","-30","","NA"
"-79.42","46.36","NORTH BAY A","6085680","2017-01-08 18:00","2017","01","08","18:00","-22.4","","-25.3","","78","","27","","8","","16.1","","98.50","","","","-29","","NA"
"-79.42","46.36","NORTH BAY A","6085680","2017-01-08 19:00","2017","01","08","19:00","-21.9","","-25.3","","74","","27","","9","","16.1","","98.53","","","","-29","","NA"
"-79.42","46.36","NORTH BAY A","6085680","2017-01-08 20:00","2017","01","08","20:00","-22.8","","-25.8","","77","","26","","8","","16.1","","98.54","","","","-30","","NA"
"-79.42","46.36","NORTH BAY A","6085680","2017-01-08 21:00","2017","01","08","21:00","-23.9","","-26.8","","78","","23","","9","","16.1","","98.55","","","","-31","","NA"
"-79.42","46.36","NORTH BAY A","6085680","2017-01-08 22:00","2017","01","08","22:00","-22.3","","-24.9","","80","","","","0","","16.1","","98.49","","","","","","NA"
"-79.42","46.36","NORTH BAY A","6085680","2017-01-08 23:00","2017","01","08","23:00","-22.0","","-24.6","","80","","15","","8","","16.1","","98.44","","","","-29","","NA"
"-79.42","46.36","NORTH BAY A","6085680","2017-01-09 00:00","2017","01","09","00:00","-21.4","","-24.3","","78","","8","","13","","16.1","","98.31","","","","-30","","NA"
"-79.42","46.36","NORTH BAY A","6085680","2017-01-09 01:00","2017","01","09","01:00","-19.9","","-23.0","","77","","13","","11","","16.1","","98.28","","","","-28","","NA"
"-79.42","46.36","NORTH BAY A","6085680","2017-01-09 02:00","2017","01","09","02:00","-19.1","","-22.6","","74","","13","","13","","16.1","","98.26","","","","-27","","Snow"
"-79.42","46.36","NORTH BAY A","6085680","2017-01-09 03:00","2017","01","09","03:00","-18.6","","-21.1","","81","","14","","15","","8.1","","98.22","","","","-27","","Snow"
"-79.42","46.36","NORTH BAY A","6085680","2017-01-09 04:00","2017","01","09","04:00","-17.7","","-19.9","","83","","14","","15","","16.1","","98.15","","","","-26","","Snow"
"-79.42","46.36","NORTH BAY A","6085680","2017-01-09 05:00","2017","01","09","05:00","-16.9","","-19.0","","84","","14","","15","","6.4","","98.03","","","","-25","","Snow"
"-79.42","46.36","NORTH BAY A","6085680","2017-01-09 06:00","2017","01","09","06:00","-15.7","","-17.4","","87","","14","","15","","16.1","","97.96","","","","-24","","Snow"
"-79.42","46.36","NORTH BAY A","6085680","2017-01-09 07:00","2017","01","09","07:00","-13.2","","-14.8","","88","","17","","22","","12.9","","97.88","","","","-22","","Snow"
"-79.42","46.36","NORTH BAY A","6085680","2017-01-09 08:00","2017","01","09","08:00","-11.8","","-13.8","","85","","18","","30","","16.1","","97.75","","","","-22","","NA"
"-79.42","46.36","NORTH BAY A","6085680","2017-01-09 09:00","2017","01","09","09:00","-11.3","","-13.5","","84","","18","","28","","16.1","","97.73","","","","-21","","Snow"
"-79.42","46.36","NORTH BAY A","6085680","2017-01-09 10:00","2017","01","09","10:00","-10.8","","-13.1","","83","","18","","26","","16.1","","97.72","","","","-20","","Snow"
"-79.42","46.36","NORTH BAY A","6085680","2017-01-09 11:00","2017","01","09","11:00","-9.6","","-12.0","","83","","18","","22","","16.1","","97.65","","","","-18","","NA"
"-79.42","46.36","NORTH BAY A","6085680","2017-01-09 12:00","2017","01","09","12:00","-8.6","","-11.2","","82","","19","","32","","16.1","","97.54","","","","-18","","Snow"
"-79.42","46.36","NORTH BAY A","6085680","2017-01-09 13:00","2017","01","09","13:00","-7.9","","-9.7","","87","","20","","26","","1.6","","97.51","","","","-16","","Snow"
"-79.42","46.36","NORTH BAY A","6085680","2017-01-09 14:00","2017","01","09","14:00","-7.9","","-8.8","","93","","22","","21","","1.2","","97.50","","","","-15","","Snow"
"-79.42","46.36","NORTH BAY A","6085680","2017-01-09 15:00","2017","01","09","15:00","-7.4","","-8.6","","91","","21","","17","","16.1","","97.54","","","","-14","","Snow"
"-79.42","46.36","NORTH BAY A","6085680","2017-01-09 16:00","2017","01","09","16:00","-7.8","","-9.0","","91","","22","","13","","16.1","","97.58","","","","-14","","Snow"
"-79.42","46.36","NORTH BAY A","6085680","2017-01-09 17:00","2017","01","09","17:00","-7.2","","-9.8","","82","","25","","15","","16.1","","97.68","","","","-13","","NA"
"-79.42","46.36","NORTH BAY A","6085680","2017-01-09 18:00","2017","01","09","18:00","-8.4","","-10.2","","87","","26","","11","","16.1","","97.73","","","","-14","","NA"
"-79.42","46.36","NORTH BAY A","6085680","2017-01-09 19:00","2017","01","09","19:00","-10.5","","-11.4","","93","","22","","11","","11.3","","97.78","","","","-16","","NA"
"-79.42","46.36","NORTH BAY A","6085680","2017-01-09 20:00","2017","01","09","20:00","-9.4","","-10.3","","93","","23","","11","","16.1","","97.82","","","","-15","","NA"
"-79.42","46.36","NORTH BAY A","6085680","2017-01-09 21:00","2017","01","09","21:00","-9.1","","-10.8","","88","","26","","8","","16.1","","97.85","","","","-13","","NA"
"-79.42","46.36","NORTH BAY A","6085680","2017-01-09 22:00","2017","01","09","22:00","-9.0","","-10.8","","87","","20","","9","","16.1","","97.86","","","","-14","","NA"
"-79.42","46.36","NORTH BAY A","6085680","2017-01-09 23:00","2017","01","09","23:00","-8.5","","-10.6","","85","","17","","9","","16.1","","97.84","","","","-13","","Snow"
"-79.42","46.36","NORTH BAY A","6085680","2017-01-10 00:00","2017","01","10","00:00","-8.4","","-10.2","","87","","12","","9","","16.1","","97.79","","","","-13","","Snow"
"-79.42","46.36","NORTH BAY A","6085680","2017-01-10 01:00","2017","01","10","01:00","-7.9","","-9.4","","89","","14","","11","","16.1","","97.77","","","","-13","","Snow"
"-79.42","46.36","NORTH BAY A","6085680","2017-01-10 02:00","2017","01","10","02:00","-7.4","","-8.5","","92","","14","","15","","16.1","","97.76","","","","-14","","Snow"
"-79.42","46.36","NORTH BAY A","6085680","2017-01-10 03:00","2017","01","10","03:00","-6.8","","-7.8","","93","","15","","13","","9.7","","97.74","","","","-12","","Fog"
"-79.42","46.36","NORTH BAY A","6085680","2017-01-10 04:00","2017","01","10","04:00","-6.7","","-8.2","","89","","16","","17","","16.1","","97.70","","","","-13","","NA"
"-79.42","46.36","NORTH BAY A","6085680","2017-01-10 05:00","2017","01","10","05:00","-6.8","","-8.5","","88","","15","","18","","16.1","","97.59","","","","-13","","Snow"
"-79.42","46.36","NORTH BAY A","6085680","2017-01-10 06:00","2017","01","10","06:00","-6.8","","-8.4","","89","","14","","17","","14.5","","97.51","","","","-13","","Snow"
"-79.42","46.36","NORTH BAY A","6085680","2017-01-10 07:00","2017","01","10","07:00","-6.8","","-8.2","","90","","13","","21","","14.5","","97.41","","","","-14","","Snow"
"-79.42","46.36","NORTH BAY A","6085680","2017-01-10 08:00","2017","01","10","08:00","-6.9","","-8.1","","91","","13","","21","","8.1","","97.39","","","","-14","","Snow"
"-79.42","46.36","NORTH BAY A","6085680","2017-01-10 09:00","2017","01","10","09:00","-6.7","","-7.8","","92","","12","","22","","4.8","","97.29","","","","-14","","Snow"
"-79.42","46.36","NORTH BAY A","6085680","2017-01-10 10:00","2017","01","10","10:00","-6.0","","-7.2","","91","","12","","28","","4.0","","97.19","","","","-14","","Snow"
"-79.42","46.36","NORTH BAY A","6085680","2017-01-10 11:00","2017","01","10","11:00","-5.4","","-6.5","","92","","13","","24","","4.8","","97.07","","","","-13","","Snow"
"-79.42","46.36","NORTH BAY A","6085680","2017-01-10 12:00","2017","01","10","12:00","-5.0","","-6.3","","91","","12","","26","","6.4","","96.85","","","","-12","","Snow"
"-79.42","46.36","NORTH BAY A","6085680","2017-01-10 13:00","2017","01","10","13:00","-4.4","","-5.5","","92","","13","","22","","4.0","","96.63","","","","-11","","Snow"
"-79.42","46.36","NORTH BAY A","6085680","2017-01-10 14:00","2017","01","10","14:00","-3.8","","-4.6","","94","","14","","26","","1.6","","96.45","","","","-11","","Snow"
"-79.42","46.36","NORTH BAY A","6085680","2017-01-10 15:00","2017","01","10","15:00","-3.8","","-4.6","","94","","13","","28","","16.1","","96.25","","","","-11","","Snow"
"-79.42","46.36","NORTH BAY A","6085680","2017-01-10 16:00","2017","01","10","16:00","-3.7","","-4.5","","94","","13","","30","","1.6","","96.02","","","","-11","","Snow"
"-79.42","46.36","NORTH BAY A","6085680","2017-01-10 17:00","2017","01","10","17:00","-3.6","","-4.3","","95","","14","","28","","4.0","","95.85","","","","-11","","Snow"
"-79.42","46.36","NORTH BAY A","6085680","2017-01-10 18:00","2017","01","10","18:00","-3.5","","-4.2","","95","","14","","35","","4.8","","95.57","","","","-12","","Snow"
"-79.42","46.36","NORTH BAY A","6085680","2017-01-10 19:00","2017","01","10","19:00","-3.0","","-4.0","","93","","13","","32","","11.3","","95.38","","","","-11","","Snow"
"-79.42","46.36","NORTH BAY A","6085680","2017-01-10 20:00","2017","01","10","20:00","-2.1","","-2.8","","95","","13","","28","","8.1","","95.13","","","","-9","","Snow"
"-79.42","46.36","NORTH BAY A","6085680","2017-01-10 21:00","2017","01","10","21:00","-0.1","","-1.0","","94","","15","","26","","16.1","","94.91","","","","-6","","Freezing Rain"
"-79.42","46.36","NORTH BAY A","6085680","2017-01-10 22:00","2017","01","10","22:00","1.4","","0.5","","94","","16","","34","","16.1","","94.68","","","","","","Freezing Rain"
"-79.42","46.36","NORTH BAY A","6085680","2017-01-10 23:00","2017","01","10","23:00","2.1","","1.1","","93","","17","","35","","16.1","","94.56","","","","","","Rain"
"-79.42","46.36","NORTH BAY A","6085680","2017-01-11 00:00","2017","01","11","00:00","2.5","","1.6","","94","","18","","34","","16.1","","94.55","","","","","","Rain"
"-79.42","46.36","NORTH BAY A","6085680","2017-01-11 01:00","2017","01","11","01:00","2.9","","2.0","","94","","21","","35","","12.9","","94.53","","","","","","Rain"
"-79.42","46.36","NORTH BAY A","6085680","2017-01-11 02:00","2017","01","11","02:00","1.4","","0.5","","94","","23","","41","","16.1","","94.71","","","","","","Rain"
"-79.42","46.36","NORTH BAY A","6085680","2017-01-11 03:00","2017","01","11","03:00","0.0","","-1.1","","92","","24","","41","","4.8","","94.96","","","","-7","","Snow"
"-79.42","46.36","NORTH BAY A","6085680","2017-01-11 04:00","2017","01","11","04:00","-0.7","","-2.1","","90","","24","","46","","8.1","","95.22","","","","-9","","Snow"
"-79.42","46.36","NORTH BAY A","6085680","2017-01-11 05:00","2017","01","11","05:00","-1.8","","-3.1","","91","","25","","45","","1.2","","95.53","","","","-10","","Snow"
"-79.42","46.36","NORTH BAY A","6085680","2017-01-11 06:00","2017","01","11","06:00","-2.0","","-4.2","","85","","26","","43","","11.3","","95.81","","","","-10","","Snow"
"-79.42","46.36","NORTH BAY A","6085680","2017-01-11 07:00","2017","01","11","07:00","-2.5","","-5.2","","82","","25","","34","","16.1","","96.08","","","","-10","","Snow"
"-79.42","46.36","NORTH BAY A","6085680","2017-01-11 08:00","2017","01","11","08:00","-2.8","","-5.6","","81","","26","","30","","16.1","","96.38","","","","-10","","NA"
"-79.42","46.36","NORTH BAY A","6085680","2017-01-11 09:00","2017","01","11","09:00","-3.5","","-7.1","","76","","24","","35","","16.1","","96.62","","","","-12","","NA"
"-79.42","46.36","NORTH BAY A","6085680","2017-01-11 10:00","2017","01","11","10:00","-3.5","","-6.2","","82","","23","","26","","16.1","","96.73","","","","-11","","NA"
"-79.42","46.36","NORTH BAY A","6085680","2017-01-11 11:00","2017","01","11","11:00","-3.0","","-5.8","","81","","23","","24","","16.1","","96.77","","","","-10","","NA"
"-79.42","46.36","NORTH BAY A","6085680","2017-01-11 12:00","2017","01","11","12:00","-2.2","","-5.5","","78","","22","","34","","16.1","","96.68","","","","-10","","NA"
"-79.42","46.36","NORTH BAY A","6085680","2017-01-11 13:00","2017","01","11","13:00","-1.7","","-5.1","","78","","20","","26","","16.1","","96.64","","","","-8","","NA"
"-79.42","46.36","NORTH BAY A","6085680","2017-01-11 14:00","2017","01","11","14:00","-1.0","","-4.4","","78","","19","","22","","16.1","","96.63","","","","-7","","NA"
"-79.42","46.36","NORTH BAY A","6085680","2017-01-11 15:00","2017","01","11","15:00","-0.7","","-4.0","","79","","20","","24","","16.1","","96.64","","","","-7","","NA"
"-79.42","46.36","NORTH BAY A","6085680","2017-01-11 16:00","2017","01","11","16:00","-0.4","","-4.4","","75","","17","","21","","16.1","","96.45","","","","-6","","NA"
"-79.42","46.36","NORTH BAY A","6085680","2017-01-11 17:00","2017","01","11","17:00","0.2","","-5.3","","67","","18","","28","","16.1","","96.36","","","","","","NA"
"-79.42","46.36","NORTH BAY A","6085680","2017-01-11 18:00","2017","01","11","18:00","0.9","","-4.6","","67","","20","","18","","16.1","","96.33","","","","","","NA"
"-79.42","46.36","NORTH BAY A","6085680","2017-01-11 19:00","2017","01","11","19:00","0.2","","-2.0","","86","","22","","30","","3.2","","96.42","","","","","","Snow"
"-79.42","46.36","NORTH BAY A","6085680","2017-01-11 20:00","2017","01","11","20:00","-0.2","","-1.8","","89","","19","","24","","4.0","","96.36","","","","-6","","Snow"
"-79.42","46.36","NORTH BAY A","6085680","2017-01-11 21:00","2017","01","11","21:00","-0.3","","-0.7","","97","","21","","15","","2.4","","96.30","","","","-5","","Snow"
"-79.42","46.36","NORTH BAY A","6085680","2017-01-11 22:00","2017","01","11","22:00","0.1","","-0.3","","97","","22","","17","","3.6","","96.31","","","","","","Snow"
"-79.42","46.36","NORTH BAY A","6085680","2017-01-11 23:00","2017","01","11","23:00","0.4","","0.0","","97","","23","","13","","4.8","","96.28","","","","","","Snow"
"-79.42","46.36","NORTH BAY A","6085680","2017-01-12 00:00","2017","01","12","00:00","0.4","","-0.2","","96","","26","","9","","3.2","","96.25","","","","","","Snow"
"-79.42","46.36","NORTH BAY A","6085680","2017-01-12 01:00","2017","01","12","01:00","-0.1","","-0.5","","97","","33","","9","","1.2","","96.20","","","","-3","","Snow"
"-79.42","46.36","NORTH BAY A","6085680","2017-01-12 02:00","2017","01","12","02:00","-1.0","","-1.4","","97","","35","","17","","1.2","","96.20","","","","-6","","Snow"
"-79.42","46.36","NORTH BAY A","6085680","2017-01-12 03:00","2017","01","12","03:00","-1.4","","-2.1","","95","","36","","18","","2.8","","96.24","","","","-7","","Snow"
"-79.42","46.36","NORTH BAY A","6085680","2017-01-12 04:00","2017","01","12","04:00","-4.8","","-6.0","","91","","1","","22","","2.4","","96.30","","","","-12","","Snow"
"-79.42","46.36","NORTH BAY A","6085680","2017-01-12 05:00","2017","01","12","05:00","-5.9","","-7.3","","90","","1","","26","","2.0","","96.36","","","","-14","","Snow"
"-79.42","46.36","NORTH BAY A","6085680","2017-01-12 06:00","2017","01","12","06:00","-6.4","","-7.9","","89","","2","","21","","3.2","","96.45","","","","-13","","Snow"
"-79.42","46.36","NORTH BAY A","6085680","2017-01-12 07:00","2017","01","12","07:00","-7.2","","-8.9","","88","","3","","18","","16.1","","96.48","","","","-14","","Snow"
"-79.42","46.36","NORTH BAY A","6085680","2017-01-12 08:00","2017","01","12","08:00","-7.9","","-9.9","","86","","2","","11","","16.1","","96.62","","","","-13","","Snow"
"-79.42","46.36","NORTH BAY A","6085680","2017-01-12 09:00","2017","01","12","09:00","-8.9","","-11.3","","83","","2","","22","","16.1","","96.64","","","","-17","","NA"
"-79.42","46.36","NORTH BAY A","6085680","2017-01-12 10:00","2017","01","12","10:00","-9.0","","-11.3","","83","","3","","18","","16.1","","96.62","","","","-16","","NA"
"-79.42","46.36","NORTH BAY A","6085680","2017-01-12 11:00","2017","01","12","11:00","-8.9","","-11.6","","81","","","M","13","","16.1","","96.79","","","","-15","","NA"
"-79.42","46.36","NORTH BAY A","6085680","2017-01-12 12:00","2017","01","12","12:00","-8.6","","-11.1","","82","","5","","8","","16.1","","96.83","","","","-13","","Snow"
"-79.42","46.36","NORTH BAY A","6085680","2017-01-12 13:00","2017","01","12","13:00","-8.5","","-10.6","","85","","1","","9","","16.1","","96.74","","","","-13","","Snow"
"-79.42","46.36","NORTH BAY A","6085680","2017-01-12 14:00","2017","01","12","14:00","-8.8","","-11.2","","83","","2","","9","","16.1","","96.66","","","","-13","","NA"
"-79.42","46.36","NORTH BAY A","6085680","2017-01-12 15:00","2017","01","12","15:00","-9.0","","-11.1","","85","","33","","9","","16.1","","96.72","","","","-14","","NA"
"-79.42","46.36","NORTH BAY A","6085680","2017-01-12 16:00","2017","01","12","16:00","-9.3","","-11.4","","85","","33","","11","","16.1","","96.80","","","","-15","","Snow"
"-79.42","46.36","NORTH BAY A","6085680","2017-01-12 17:00","2017","01","12","17:00","-9.8","","-11.7","","86","","33","","9","","16.1","","96.85","","","","-15","","NA"
"-79.42","46.36","NORTH BAY A","6085680","2017-01-12 18:00","2017","01","12","18:00","-10.4","","-12.2","","87","","33","","8","","16.1","","96.92","","","","-15","","NA"
"-79.42","46.36","NORTH BAY A","6085680","2017-01-12 19:00","2017","01","12","19:00","-10.5","","-12.0","","89","","26","","9","","16.1","","97.00","","","","-15","","NA"
"-79.42","46.36","NORTH BAY A","6085680","2017-01-12 20:00","2017","01","12","20:00","-11.3","","-12.5","","91","","24","","13","","4.8","","97.07","","","","-18","","Snow"
"-79.42","46.36","NORTH BAY A","6085680","2017-01-12 21:00","2017","01","12","21:00","-11.8","","-13.2","","90","","24","","15","","16.1","","97.14","","","","-19","","Snow"
"-79.42","46.36","NORTH BAY A","6085680","2017-01-12 22:00","2017","01","12","22:00","-12.4","","-13.4","","93","","23","","13","","16.1","","97.19","","","","-19","","Snow"
"-79.42","46.36","NORTH BAY A","6085680","2017-01-12 23:00","2017","01","12","23:00","-11.3","","-12.5","","91","","22","","13","","11.3","","97.22","","","","-18","","Snow"
"-79.42","46.36","NORTH BAY A","6085680","2017-01-13 00:00","2017","01","13","00:00","-10.1","","-11.3","","91","","25","","28","","4.8","","97.27","","","","-19","","Snow"
"-79.42","46.36","NORTH BAY A","6085680","2017-01-13 01:00","2017","01","13","01:00","-10.0","","-12.4","","83","","27","","22","","16.1","","97.39","","","","-18","","Snow"
"-79.42","46.36","NORTH BAY A","6085680","2017-01-13 02:00","2017","01","13","02:00","-10.1","","-12.9","","80","","26","","24","","16.1","","97.56","","","","-19","","NA"
"-79.42","46.36","NORTH BAY A","6085680","2017-01-13 03:00","2017","01","13","03:00","-10.8","","-13.6","","80","","26","","32","","16.1","","97.76","","","","-21","","NA"
"-79.42","46.36","NORTH BAY A","6085680","2017-01-13 04:00","2017","01","13","04:00","-11.7","","-14.0","","83","","26","","28","","16.1","","97.95","","","","-21","","NA"
"-79.42","46.36","NORTH BAY A","6085680","2017-01-13 05:00","2017","01","13","05:00","-12.1","","-14.9","","80","","27","","22","","16.1","","98.14","","","","-21","","NA"
"-79.42","46.36","NORTH BAY A","6085680","2017-01-13 06:00","2017","01","13","06:00","-13.0","","-16.1","","78","","28","","21","","16.1","","98.31","","","","-22","","NA"
"-79.42","46.36","NORTH BAY A","6085680","2017-01-13 07:00","2017","01","13","07:00","-13.5","","-15.7","","84","","32","","22","","4.8","","98.49","","","","-23","","Snow"
"-79.42","46.36","NORTH BAY A","6085680","2017-01-13 08:00","2017","01","13","08:00","-16.2","","-19.7","","75","","31","","26","","16.1","","98.69","","","","-27","","NA"
"-79.42","46.36","NORTH BAY A","6085680","2017-01-13 09:00","2017","01","13","09:00","-17.4","","-21.8","","69","","32","","21","","16.1","","98.91","","","","-27","","Snow"
"-79.42","46.36","NORTH BAY A","6085680","2017-01-13 10:00","2017","01","13","10:00","-17.3","","-21.9","","68","","32","","21","","16.1","","99.06","","","","-27","","Snow"
"-79.42","46.36","NORTH BAY A","6085680","2017-01-13 11:00","2017","01","13","11:00","-17.1","","-22.5","","63","","35","","18","","16.1","","99.18","","","","-26","","Snow"
"-79.42","46.36","NORTH BAY A","6085680","2017-01-13 12:00","2017","01","13","12:00","-16.4","","-21.6","","65","","30","","15","","16.1","","99.22","","","","-25","","NA"
"-79.42","46.36","NORTH BAY A","6085680","2017-01-13 13:00","2017","01","13","13:00","-15.7","","-21.2","","63","","32","","13","","16.1","","99.23","","","","-23","","NA"
"-79.42","46.36","NORTH BAY A","6085680","2017-01-13 14:00","2017","01","13","14:00","-15.3","","-21.0","","62","","28","","13","","16.1","","99.28","","","","-23","","Snow"
"-79.42","46.36","NORTH BAY A","6085680","2017-01-13 15:00","2017","01","13","15:00","-15.9","","-20.6","","68","","23","","15","","16.1","","99.34","","","","-24","","NA"
"-79.42","46.36","NORTH BAY A","6085680","2017-01-13 16:00","2017","01","13","16:00","-16.3","","-20.9","","68","","25","","13","","16.1","","99.41","","","","-24","","NA"
"-79.42","46.36","NORTH BAY A","6085680","2017-01-13 17:00","2017","01","13","17:00","-17.3","","-21.0","","73","","25","","8","","16.1","","99.45","","","","-23","","NA"
"-79.42","46.36","NORTH BAY A","6085680","2017-01-13 18:00","2017","01","13","18:00","-19.2","","-21.7","","81","","27","","5","","16.1","","99.48","","","","-23","","NA"
"-79.42","46.36","NORTH BAY A","6085680","2017-01-13 19:00","2017","01","13","19:00","-21.3","","-23.9","","80","","28","","5","","16.1","","99.53","","","","-26","","NA"
"-79.42","46.36","NORTH BAY A","6085680","2017-01-13 20:00","2017","01","13","20:00","-21.1","","-23.3","","83","","29","","5","","16.1","","99.53","","","","-26","","NA"
"-79.42","46.36","NORTH BAY A","6085680","2017-01-13 21:00","2017","01","13","21:00","-22.5","","-24.6","","83","","29","","4","","16.1","","99.51","","","","-26","","NA"
"-79.42","46.36","NORTH BAY A","6085680","2017-01-13 22:00","2017","01","13","22:00","-22.4","","-24.4","","84","","","","0","","16.1","","99.49","","","","","","NA"
"-79.42","46.36","NORTH BAY A","6085680","2017-01-13 23:00","2017","01","13","23:00","-23.2","","-25.3","","83","","","M","4","","16.1","","99.45","","","","-27","","NA"
"-79.42","46.36","NORTH BAY A","6085680","2017-01-14 00:00","2017","01","14","00:00","-22.8","","-25.3","","80","","11","","5","","16.1","","99.39","","","","-27","","NA"
"-79.42","46.36","NORTH BAY A","6085680","2017-01-14 01:00","2017","01","14","01:00","-21.9","","-24.1","","83","","11","","8","","16.1","","99.31","","","","-28","","NA"
"-79.42","46.36","NORTH BAY A","6085680","2017-01-14 02:00","2017","01","14","02:00","-22.6","","-25.2","","80","","12","","5","","16.1","","99.27","","","","-27","","NA"
"-79.42","46.36","NORTH BAY A","6085680","2017-01-14 03:00","2017","01","14","03:00","-21.9","","-24.6","","79","","11","","11","","16.1","","99.13","","","","-30","","NA"
"-79.42","46.36","NORTH BAY A","6085680","2017-01-14 04:00","2017","01","14","04:00","-21.8","","-24.7","","78","","","M","4","","16.1","","99.12","","","","-25","","NA"
"-79.42","46.36","NORTH BAY A","6085680","2017-01-14 05:00","2017","01","14","05:00","-19.5","","-22.6","","77","","11","","9","","16.1","","99.06","","","","-26","","NA"
"-79.42","46.36","NORTH BAY A","6085680","2017-01-14 06:00","2017","01","14","06:00","-18.3","","-21.4","","77","","12","","11","","16.1","","98.95","","","","-26","","NA"
"-79.42","46.36","NORTH BAY A","6085680","2017-01-14 07:00","2017","01","14","07:00","-18.7","","-22.1","","75","","12","","15","","16.1","","98.83","","","","-27","","NA"
"-79.42","46.36","NORTH BAY A","6085680","2017-01-14 08:00","2017","01","14","08:00","-18.3","","-21.9","","74","","16","","11","","16.1","","98.77","","","","-26","","NA"
"-79.42","46.36","NORTH BAY A","6085680","2017-01-14 09:00","2017","01","14","09:00","-17.4","","-21.5","","71","","17","","17","","16.1","","98.66","","","","-26","","Snow"
"-79.42","46.36","NORTH BAY A","6085680","2017-01-14 10:00","2017","01","14","10:00","-16.4","","-20.2","","73","","17","","18","","16.1","","98.55","","","","-25","","Snow"
"-79.42","46.36","NORTH BAY A","6085680","2017-01-14 11:00","2017","01","14","11:00","-15.2","","-17.9","","80","","18","","17","","8.1","","98.42","","","","-24","","Snow"
"-79.42","46.36","NORTH BAY A","6085680","2017-01-14 12:00","2017","01","14","12:00","-13.5","","-15.7","","84","","20","","17","","16.1","","98.24","","","","-22","","Snow"
"-79.42","46.36","NORTH BAY A","6085680","2017-01-14 13:00","2017","01","14","13:00","-11.0","","-12.8","","87","","22","","24","","16.1","","98.08","","","","-20","","Snow"
"-79.42","46.36","NORTH BAY A","6085680","2017-01-14 14:00","2017","01","14","14:00","-9.9","","-11.7","","87","","21","","21","","16.1","","97.95","","","","-18","","Snow"
"-79.42","46.36","NORTH BAY A","6085680","2017-01-14 15:00","2017","01","14","15:00","-8.9","","-10.5","","88","","21","","21","","16.1","","97.86","","","","-17","","NA"
"-79.42","46.36","NORTH BAY A","6085680","2017-01-14 16:00","2017","01","14","16:00","-7.7","","-9.2","","89","","22","","18","","16.1","","97.79","","","","-15","","NA"
"-79.42","46.36","NORTH BAY A","6085680","2017-01-14 17:00","2017","01","14","17:00","-8.1","","-9.2","","92","","23","","13","","16.1","","97.77","","","","-14","","NA"
"-79.42","46.36","NORTH BAY A","6085680","2017-01-14 18:00","2017","01","14","18:00","-6.4","","-8.4","","86","","27","","13","","16.1","","97.81","","","","-12","","NA"
"-79.42","46.36","NORTH BAY A","6085680","2017-01-14 19:00","2017","01","14","19:00","-6.2","","-9.1","","80","","26","","18","","16.1","","97.82","","","","-13","","Snow"
"-79.42","46.36","NORTH BAY A","6085680","2017-01-14 20:00","2017","01","14","20:00","-6.6","","-8.7","","85","","26","","17","","16.1","","97.78","","","","-13","","NA"
"-79.42","46.36","NORTH BAY A","6085680","2017-01-14 21:00","2017","01","14","21:00","-6.4","","-8.8","","83","","27","","18","","16.1","","97.79","","","","-13","","Snow"
"-79.42","46.36","NORTH BAY A","6085680","2017-01-14 22:00","2017","01","14","22:00","-7.1","","-9.3","","85","","26","","18","","16.1","","97.82","","","","-14","","NA"
"-79.42","46.36","NORTH BAY A","6085680","2017-01-14 23:00","2017","01","14","23:00","-7.7","","-10.0","","84","","27","","15","","16.1","","97.85","","","","-14","","NA"
"-79.42","46.36","NORTH BAY A","6085680","2017-01-15 00:00","2017","01","15","00:00","-8.3","","-10.2","","86","","28","","15","","16.1","","97.86","","","","-15","","NA"
"-79.42","46.36","NORTH BAY A","6085680","2017-01-15 01:00","2017","01","15","01:00","-9.8","","-11.3","","89","","28","","9","","16.1","","97.89","","","","-15","","NA"
"-79.42","46.36","NORTH BAY A","6085680","2017-01-15 02:00","2017","01","15","02:00","-10.9","","-12.0","","92","","28","","5","","16.1","","97.94","","","","-14","","NA"
"-79.42","46.36","NORTH BAY A","6085680","2017-01-15 03:00","2017","01","15","03:00","-12.6","","-13.8","","91","","30","","5","","16.1","","97.99","","","","-16","","NA"
"-79.42","46.36","NORTH BAY A","6085680","2017-01-15 04:00","2017","01","15","04:00","-11.7","","-12.9","","91","","28","","9","","16.1","","98.07","","","","-17","","Snow"
"-79.42","46.36","NORTH BAY A","6085680","2017-01-15 05:00","2017","01","15","05:00","-11.9","","-13.2","","90","","33","","5","","6.4","","98.12","","","","-15","","Snow"
"-79.42","46.36","NORTH BAY A","6085680","2017-01-15 06:00","2017","01","15","06:00","-12.0","","-13.3","","90","","1","","5","","9.7","","98.17","","","","-15","","Snow"
"-79.42","46.36","NORTH BAY A","6085680","2017-01-15 07:00","2017","01","15","07:00","-14.1","","-15.5","","89","","5","","8","","16.1","","98.22","","","","-19","","Snow"
"-79.42","46.36","NORTH BAY A","6085680","2017-01-15 08:00","2017","01","15","08:00","-13.8","","-15.4","","88","","5","","13","","16.1","","98.26","","","","-21","","NA"
"-79.42","46.36","NORTH BAY A","6085680","2017-01-15 09:00","2017","01","15","09:00","-13.5","","-15.1","","88","","6","","15","","16.1","","98.28","","","","-21","","NA"
"-79.42","46.36","NORTH BAY A","6085680","2017-01-15 10:00","2017","01","15","10:00","-14.1","","-16.2","","84","","13","","5","","16.1","","98.31","","","","-18","","NA"
"-79.42","46.36","NORTH BAY A","6085680","2017-01-15 11:00","2017","01","15","11:00","-12.4","","-15.2","","80","","16","","9","","16.1","","98.30","","","","-18","","NA"
"-79.42","46.36","NORTH BAY A","6085680","2017-01-15 12:00","2017","01","15","12:00","-11.1","","-14.3","","78","","16","","11","","16.1","","98.22","","","","-17","","NA"
"-79.42","46.36","NORTH BAY A","6085680","2017-01-15 13:00","2017","01","15","13:00","-9.6","","-13.0","","76","","21","","13","","16.1","","98.15","","","","-16","","NA"
"-79.42","46.36","NORTH BAY A","6085680","2017-01-15 14:00","2017","01","15","14:00","-9.0","","-12.7","","75","","23","","15","","16.1","","98.10","","","","-16","","NA"
"-79.42","46.36","NORTH BAY A","6085680","2017-01-15 15:00","2017","01","15","15:00","-8.5","","-11.8","","77","","22","","13","","16.1","","98.09","","","","-14","","NA"
"-79.42","46.36","NORTH BAY A","6085680","2017-01-15 16:00","2017","01","15","16:00","-8.1","","-11.0","","80","","22","","15","","16.1","","98.08","","","","-14","","Snow"
"-79.42","46.36","NORTH BAY A","6085680","2017-01-15 17:00","2017","01","15","17:00","-7.9","","-10.6","","81","","20","","5","","16.1","","98.03","","","","-11","","NA"
"-79.42","46.36","NORTH BAY A","6085680","2017-01-15 18:00","2017","01","15","18:00","-7.4","","-9.7","","84","","18","","11","","16.1","","97.99","","","","-12","","NA"
"-79.42","46.36","NORTH BAY A","6085680","2017-01-15 19:00","2017","01","15","19:00","-6.7","","-9.1","","83","","18","","13","","16.1","","97.93","","","","-12","","NA"
"-79.42","46.36","NORTH BAY A","6085680","2017-01-15 20:00","2017","01","15","20:00","-6.3","","-8.6","","84","","20","","11","","16.1","","97.93","","","","-11","","NA"
"-79.42","46.36","NORTH BAY A","6085680","2017-01-15 21:00","2017","01","15","21:00","-5.9","","-8.2","","84","","19","","13","","16.1","","97.88","","","","-11","","NA"
"-79.42","46.36","NORTH BAY A","6085680","2017-01-15 22:00","2017","01","15","22:00","-5.1","","-7.1","","86","","20","","18","","16.1","","97.86","","","","-11","","NA"
"-79.42","46.36","NORTH BAY A","6085680","2017-01-15 23:00","2017","01","15","23:00","-5.0","","-6.7","","88","","22","","18","","16.1","","97.80","","","","-11","","NA"
"-79.42","46.36","NORTH BAY A","6085680","2017-01-16 00:00","2017","01","16","00:00","-4.6","","-6.3","","88","","22","","22","","16.1","","97.77","","","","-11","","NA"
"-79.42","46.36","NORTH BAY A","6085680","2017-01-16 01:00","2017","01","16","01:00","-4.5","","-5.9","","90","","21","","24","","16.1","","97.73","","","","-12","","NA"
"-79.42","46.36","NORTH BAY A","6085680","2017-01-16 02:00","2017","01","16","02:00","-4.3","","-5.9","","89","","21","","24","","16.1","","97.70","","","","-11","","NA"
"-79.42","46.36","NORTH BAY A","6085680","2017-01-16 03:00","2017","01","16","03:00","-4.1","","-5.5","","90","","22","","24","","16.1","","97.72","","","","-11","","NA"
"-79.42","46.36","NORTH BAY A","6085680","2017-01-16 04:00","2017","01","16","04:00","-5.3","","-6.3","","93","","22","","22","","16.1","","97.67","","","","-12","","NA"
"-79.42","46.36","NORTH BAY A","6085680","2017-01-16 05:00","2017","01","16","05:00","-5.7","","-6.4","","95","","22","","17","","16.1","","97.64","","","","-12","","NA"
"-79.42","46.36","NORTH BAY A","6085680","2017-01-16 06:00","2017","01","16","06:00","-5.0","","-5.5","","96","","22","","22","","12.9","","97.61","","","","-12","","NA"
"-79.42","46.36","NORTH BAY A","6085680","2017-01-16 07:00","2017","01","16","07:00","-4.5","","-5.0","","96","","22","","24","","9.7","","97.59","","","","-12","","Fog"
"-79.42","46.36","NORTH BAY A","6085680","2017-01-16 08:00","2017","01","16","08:00","-4.0","","-4.7","","95","","24","","21","","9.7","","97.61","","","","-10","","Fog"
"-79.42","46.36","NORTH BAY A","6085680","2017-01-16 09:00","2017","01","16","09:00","-3.2","","-4.2","","93","","24","","22","","11.3","","97.64","","","","-10","","NA"
"-79.42","46.36","NORTH BAY A","6085680","2017-01-16 10:00","2017","01","16","10:00","-2.3","","-3.4","","92","","23","","28","","11.3","","97.67","","","","-9","","NA"
"-79.42","46.36","NORTH BAY A","6085680","2017-01-16 11:00","2017","01","16","11:00","-1.0","","-3.1","","86","","24","","22","","16.1","","97.71","","","","-7","","Snow"
"-79.42","46.36","NORTH BAY A","6085680","2017-01-16 12:00","2017","01","16","12:00","0.1","","-3.3","","78","","25","","21","","16.1","","97.65","","","","","","Snow"
"-79.42","46.36","NORTH BAY A","6085680","2017-01-16 13:00","2017","01","16","13:00","0.9","","-3.7","","71","","26","","17","","16.1","","97.63","","","","","","NA"
"-79.42","46.36","NORTH BAY A","6085680","2017-01-16 14:00","2017","01","16","14:00","1.0","","-4.0","","69","","24","","22","","16.1","","97.57","","","","","","NA"
"-79.42","46.36","NORTH BAY A","6085680","2017-01-16 15:00","2017","01","16","15:00","1.0","","-4.3","","68","","24","","21","","16.1","","97.56","","","","","","NA"
"-79.42","46.36","NORTH BAY A","6085680","2017-01-16 16:00","2017","01","16","16:00","0.6","","-4.8","","67","","26","","13","","16.1","","97.59","","","","","","NA"
"-79.42","46.36","NORTH BAY A","6085680","2017-01-16 17:00","2017","01","16","17:00","-1.0","","-4.9","","75","","27","","9","","16.1","","97.63","","","","-4","","NA"
"-79.42","46.36","NORTH BAY A","6085680","2017-01-16 18:00","2017","01","16","18:00","-1.2","","-5.1","","75","","26","","15","","16.1","","97.67","","","","-6","","NA"
"-79.42","46.36","NORTH BAY A","6085680","2017-01-16 19:00","2017","01","16","19:00","-2.1","","-5.1","","80","","27","","8","","16.1","","97.70","","","","-5","","NA"
"-79.42","46.36","NORTH BAY A","6085680","2017-01-16 20:00","2017","01","16","20:00","-5.1","","-6.6","","89","","23","","9","","16.1","","97.73","","","","-9","","NA"
"-79.42","46.36","NORTH BAY A","6085680","2017-01-16 21:00","2017","01","16","21:00","-4.2","","-5.3","","92","","","","0","","16.1","","97.73","","","","","","NA"
"-79.42","46.36","NORTH BAY A","6085680","2017-01-16 22:00","2017","01","16","22:00","-4.8","","-5.3","","96","","","","0","","16.1","","97.73","","","","","","NA"
"-79.42","46.36","NORTH BAY A","6085680","2017-01-16 23:00","2017","01","16","23:00","-5.0","","-5.5","","96","","","M","4","","16.1","","97.72","","","","-7","","NA"
"-79.42","46.36","NORTH BAY A","6085680","2017-01-17 00:00","2017","01","17","00:00","-7.7","","-8.5","","94","","","","0","","8.1","","97.70","","","","","","Fog"
"-79.42","46.36","NORTH BAY A","6085680","2017-01-17 01:00","2017","01","17","01:00","-7.7","","-8.5","","94","","5","","9","","9.7","","97.66","","","","-12","","Fog"
"-79.42","46.36","NORTH BAY A","6085680","2017-01-17 02:00","2017","01","17","02:00","-5.6","","-6.1","","96","","8","","13","","12.9","","97.63","","","","-11","","NA"
"-79.42","46.36","NORTH BAY A","6085680","2017-01-17 03:00","2017","01","17","03:00","-6.3","","-7.0","","95","","12","","11","","8.1","","97.65","","","","-11","","Fog"
"-79.42","46.36","NORTH BAY A","6085680","2017-01-17 04:00","2017","01","17","04:00","-6.3","","-7.0","","95","","11","","11","","11.3","","97.59","","","","-11","","NA"
"-79.42","46.36","NORTH BAY A","6085680","2017-01-17 05:00","2017","01","17","05:00","-6.8","","-7.6","","94","","12","","13","","14.5","","97.60","","","","-12","","NA"
"-79.42","46.36","NORTH BAY A","6085680","2017-01-17 06:00","2017","01","17","06:00","-7.5","","-8.3","","94","","8","","13","","8.1","","97.55","","","","-13","","Fog"
"-79.42","46.36","NORTH BAY A","6085680","2017-01-17 07:00","2017","01","17","07:00","-5.2","","-5.9","","95","","8","","18","","14.5","","97.49","","","","-11","","NA"
"-79.42","46.36","NORTH BAY A","6085680","2017-01-17 08:00","2017","01","17","08:00","-5.0","","-5.7","","95","","10","","24","","16.1","","97.44","","","","-12","","NA"
"-79.42","46.36","NORTH BAY A","6085680","2017-01-17 09:00","2017","01","17","09:00","-4.6","","-5.3","","95","","9","","26","","16.1","","97.41","","","","-12","","NA"
"-79.42","46.36","NORTH BAY A","6085680","2017-01-17 10:00","2017","01","17","10:00","-4.1","","-4.8","","95","","11","","24","","16.1","","97.35","","","","-11","","NA"
"-79.42","46.36","NORTH BAY A","6085680","2017-01-17 11:00","2017","01","17","11:00","-3.2","","-4.2","","93","","10","","30","","16.1","","97.24","","","","-11","","NA"
"-79.42","46.36","NORTH BAY A","6085680","2017-01-17 12:00","2017","01","17","12:00","-2.3","","-4.2","","87","","11","","32","","16.1","","97.13","","","","-10","","NA"
"-79.42","46.36","NORTH BAY A","6085680","2017-01-17 13:00","2017","01","17","13:00","-2.0","","-4.2","","85","","10","","35","","16.1","","96.97","","","","-10","","NA"
"-79.42","46.36","NORTH BAY A","6085680","2017-01-17 14:00","2017","01","17","14:00","-1.8","","-4.3","","83","","9","","34","","16.1","","96.90","","","","-9","","NA"
"-79.42","46.36","NORTH BAY A","6085680","2017-01-17 15:00","2017","01","17","15:00","-1.9","","-4.6","","82","","10","","32","","16.1","","96.88","","","","-9","","NA"
"-79.42","46.36","NORTH BAY A","6085680","2017-01-17 16:00","2017","01","17","16:00","-2.0","","-4.4","","84","","9","","26","","16.1","","96.86","","","","-9","","Snow"
"-79.42","46.36","NORTH BAY A","6085680","2017-01-17 17:00","2017","01","17","17:00","-2.4","","-4.3","","87","","7","","21","","12.9","","96.89","","","","-8","","Snow"
"-79.42","46.36","NORTH BAY A","6085680","2017-01-17 18:00","2017","01","17","18:00","-2.4","","-4.6","","85","","8","","22","","16.1","","96.84","","","","-9","","Snow"
"-79.42","46.36","NORTH BAY A","6085680","2017-01-17 19:00","2017","01","17","19:00","-2.6","","-3.9","","91","","9","","26","","9.7","","96.81","","","","-9","","Snow"
"-79.42","46.36","NORTH BAY A","6085680","2017-01-17 20:00","2017","01","17","20:00","-2.5","","-3.8","","91","","9","","28","","6.4","","96.76","","","","-10","","Freezing Rain,Snow"
"-79.42","46.36","NORTH BAY A","6085680","2017-01-17 21:00","2017","01","17","21:00","-2.7","","-3.9","","91","","7","","15","","16.1","","96.73","","","","-8","","Freezing Rain"
"-79.42","46.36","NORTH BAY A","6085680","2017-01-17 22:00","2017","01","17","22:00","-2.7","","-4.1","","90","","9","","22","","16.1","","96.68","","","","-9","","NA"
"-79.42","46.36","NORTH BAY A","6085680","2017-01-17 23:00","2017","01","17","23:00","-2.8","","-4.4","","89","","10","","22","","16.1","","96.64","","","","-9","","NA"
"-79.42","46.36","NORTH BAY A","6085680","2017-01-18 00:00","2017","01","18","00:00","-2.9","","-4.3","","90","","9","","15","","16.1","","96.65","","","","-8","","NA"
"-79.42","46.36","NORTH BAY A","6085680","2017-01-18 01:00","2017","01","18","01:00","-3.0","","-4.1","","92","","8","","11","","16.1","","96.65","","","","-7","","NA"
"-79.42","46.36","NORTH BAY A","6085680","2017-01-18 02:00","2017","01","18","02:00","-3.1","","-3.8","","95","","9","","13","","3.6","","96.64","","","","-8","","Snow"
"-79.42","46.36","NORTH BAY A","6085680","2017-01-18 03:00","2017","01","18","03:00","-3.2","","-3.8","","96","","8","","11","","4.8","","96.67","","","","-7","","Fog"
"-79.42","46.36","NORTH BAY A","6085680","2017-01-18 04:00","2017","01","18","04:00","-3.3","","-3.7","","97","","8","","5","","4.0","","96.68","","","","-5","","Fog"
"-79.42","46.36","NORTH BAY A","6085680","2017-01-18 05:00","2017","01","18","05:00","-3.3","","-3.7","","97","","9","","9","","3.2","","96.67","","","","-7","","Fog"
"-79.42","46.36","NORTH BAY A","6085680","2017-01-18 06:00","2017","01","18","06:00","-3.3","","-3.7","","97","","11","","4","","2.0","","96.70","","","","-5","","Fog"
"-79.42","46.36","NORTH BAY A","6085680","2017-01-18 07:00","2017","01","18","07:00","-3.3","","-3.6","","98","","12","","4","","1.6","","96.71","","","","-5","","Fog"
"-79.42","46.36","NORTH BAY A","6085680","2017-01-18 08:00","2017","01","18","08:00","-3.3","","-3.7","","97","","","M","4","","1.2","","96.82","","","","-5","","Fog"
"-79.42","46.36","NORTH BAY A","6085680","2017-01-18 09:00","2017","01","18","09:00","-3.2","","-3.6","","97","","20","","5","","0.8","","96.78","","","","-5","","Freezing Fog"
"-79.42","46.36","NORTH BAY A","6085680","2017-01-18 10:00","2017","01","18","10:00","-3.0","","-3.4","","97","","26","","11","","1.0","","96.86","","","","-7","","Fog"
"-79.42","46.36","NORTH BAY A","6085680","2017-01-18 11:00","2017","01","18","11:00","-2.8","","-3.2","","97","","23","","11","","2.0","","96.81","","","","-7","","Fog"
"-79.42","46.36","NORTH BAY A","6085680","2017-01-18 12:00","2017","01","18","12:00","-2.5","","-2.9","","97","","24","","11","","16.1","","96.75","","","","-7","","NA"
"-79.42","46.36","NORTH BAY A","6085680","2017-01-18 13:00","2017","01","18","13:00","-2.1","","-2.7","","96","","24","","18","","12.9","","96.73","","","","-8","","NA"
"-79.42","46.36","NORTH BAY A","6085680","2017-01-18 14:00","2017","01","18","14:00","-2.0","","-2.4","","97","","23","","17","","0.8","","96.75","","","","-7","","Freezing Fog"
"-79.42","46.36","NORTH BAY A","6085680","2017-01-18 15:00","2017","01","18","15:00","-1.7","","-2.0","","98","","23","","21","","0.4","","96.75","","","","-8","","Freezing Fog"
"-79.42","46.36","NORTH BAY A","6085680","2017-01-18 16:00","2017","01","18","16:00","-1.5","","-1.8","","98","","20","","17","","0.2","","96.67","","","","-7","","Freezing Fog"
"-79.42","46.36","NORTH BAY A","6085680","2017-01-18 17:00","2017","01","18","17:00","-1.3","","-1.6","","98","","22","","18","","0.2","","96.71","","","","-7","","Freezing Fog"
"-79.42","46.36","NORTH BAY A","6085680","2017-01-18 18:00","2017","01","18","18:00","-1.1","","-1.4","","98","","24","","18","","6.4","","96.75","","","","-6","","Fog"
"-79.42","46.36","NORTH BAY A","6085680","2017-01-18 19:00","2017","01","18","19:00","-1.1","","-1.4","","98","","21","","17","","0.6","","96.70","","","","-6","","Freezing Fog"
"-79.42","46.36","NORTH BAY A","6085680","2017-01-18 20:00","2017","01","18","20:00","-0.8","","-1.1","","98","","22","","22","","0.2","","96.68","","","","-7","","Freezing Fog"
"-79.42","46.36","NORTH BAY A","6085680","2017-01-18 21:00","2017","01","18","21:00","-0.5","","-0.8","","98","","24","","18","","0.4","","96.72","","","","-6","","Freezing Fog"
"-79.42","46.36","NORTH BAY A","6085680","2017-01-18 22:00","2017","01","18","22:00","-0.2","","-0.5","","98","","25","","17","","0.4","","96.78","","","","-5","","Freezing Rain,Freezing Fog"
"-79.42","46.36","NORTH BAY A","6085680","2017-01-18 23:00","2017","01","18","23:00","-0.2","","-0.5","","98","","25","","9","","2.8","","96.76","","","","-3","","Snow"
"-79.42","46.36","NORTH BAY A","6085680","2017-01-19 00:00","2017","01","19","00:00","-0.3","","-0.6","","98","","24","","9","","2.4","","96.73","","","","-3","","Snow"
"-79.42","46.36","NORTH BAY A","6085680","2017-01-19 01:00","2017","01","19","01:00","-0.3","","-0.6","","98","","26","","8","","0.8","","96.81","","","","-3","","Freezing Fog"
"-79.42","46.36","NORTH BAY A","6085680","2017-01-19 02:00","2017","01","19","02:00","-0.4","","-0.7","","98","","27","","11","","0.4","","96.83","","","","-4","","Freezing Fog"
"-79.42","46.36","NORTH BAY A","6085680","2017-01-19 03:00","2017","01","19","03:00","-0.4","","-0.7","","98","","28","","4","","0.4","","96.87","","","","-2","","Freezing Fog"
"-79.42","46.36","NORTH BAY A","6085680","2017-01-19 04:00","2017","01","19","04:00","-0.4","","-0.7","","98","","31","","8","","12.9","","96.89","","","","-3","","NA"
"-79.42","46.36","NORTH BAY A","6085680","2017-01-19 05:00","2017","01","19","05:00","-0.4","","-0.7","","98","","31","","8","","6.4","","96.91","","","","-3","","Fog"
"-79.42","46.36","NORTH BAY A","6085680","2017-01-19 06:00","2017","01","19","06:00","-0.5","","-0.8","","98","","","","0","","1.6","","96.96","","","","","","Fog"
"-79.42","46.36","NORTH BAY A","6085680","2017-01-19 07:00","2017","01","19","07:00","-0.6","","-0.9","","98","","23","","4","","0.6","","97.01","","","","-2","","Freezing Fog"
"-79.42","46.36","NORTH BAY A","6085680","2017-01-19 08:00","2017","01","19","08:00","-0.6","","-0.9","","98","","23","","5","","0.4","","97.09","","","","-2","","Freezing Fog"
"-79.42","46.36","NORTH BAY A","6085680","2017-01-19 09:00","2017","01","19","09:00","-0.6","","-0.9","","98","","","","0","","16.1","","97.14","","","","","","NA"
"-79.42","46.36","NORTH BAY A","6085680","2017-01-19 10:00","2017","01","19","10:00","-0.4","","-0.7","","98","","","M","4","","9.7","","97.14","","","","-2","","Fog"
"-79.42","46.36","NORTH BAY A","6085680","2017-01-19 11:00","2017","01","19","11:00","-0.3","","-0.6","","98","","20","","8","","6.4","","97.13","","","","-3","","Fog"
"-79.42","46.36","NORTH BAY A","6085680","2017-01-19 12:00","2017","01","19","12:00","-0.2","","-0.6","","97","","23","","5","","6.4","","97.11","","","","-2","","Fog"
"-79.42","46.36","NORTH BAY A","6085680","2017-01-19 13:00","2017","01","19","13:00","-0.3","","-0.7","","97","","22","","11","","4.8","","97.05","","","","-4","","Fog"
"-79.42","46.36","NORTH BAY A","6085680","2017-01-19 14:00","2017","01","19","14:00","-0.4","","-0.8","","97","","20","","11","","8.1","","97.05","","","","-4","","Fog"
"-79.42","46.36","NORTH BAY A","6085680","2017-01-19 15:00","2017","01","19","15:00","-0.4","","-0.8","","97","","20","","11","","6.4","","96.98","","","","-4","","Fog"
"-79.42","46.36","NORTH BAY A","6085680","2017-01-19 16:00","2017","01","19","16:00","-0.5","","-1.1","","96","","22","","9","","8.1","","96.95","","","","-4","","Fog"
"-79.42","46.36","NORTH BAY A","6085680","2017-01-19 17:00","2017","01","19","17:00","-0.4","","-0.8","","97","","23","","13","","6.4","","97.03","","","","-5","","Fog"
"-79.42","46.36","NORTH BAY A","6085680","2017-01-19 18:00","2017","01","19","18:00","-0.3","","-0.7","","97","","23","","8","","6.4","","97.08","","","","-3","","Fog"
"-79.42","46.36","NORTH BAY A","6085680","2017-01-19 19:00","2017","01","19","19:00","-0.2","","-0.5","","98","","22","","9","","1.2","","97.09","","","","-3","","Fog"
"-79.42","46.36","NORTH BAY A","6085680","2017-01-19 20:00","2017","01","19","20:00","0.0","","-0.3","","98","","23","","11","","0.8","","97.13","","","","-4","","Fog"
"-79.42","46.36","NORTH BAY A","6085680","2017-01-19 21:00","2017","01","19","21:00","0.0","","-0.3","","98","","20","","5","","0.4","","97.02","","","","-2","","Fog"
"-79.42","46.36","NORTH BAY A","6085680","2017-01-19 22:00","2017","01","19","22:00","0.0","","-0.3","","98","","18","","11","","0.4","","96.92","","","","-4","","Fog"
"-79.42","46.36","NORTH BAY A","6085680","2017-01-19 23:00","2017","01","19","23:00","-0.2","","-0.5","","98","","20","","11","","3.6","","96.91","","","","-4","","Fog"
"-79.42","46.36","NORTH BAY A","6085680","2017-01-20 00:00","2017","01","20","00:00","-0.3","","-0.6","","98","","21","","11","","4.8","","96.89","","","","-4","","Fog"
"-79.42","46.36","NORTH BAY A","6085680","2017-01-20 01:00","2017","01","20","01:00","-0.3","","-0.6","","98","","19","","17","","1.6","","96.88","","","","-5","","Freezing Rain,Snow"
"-79.42","46.36","NORTH BAY A","6085680","2017-01-20 02:00","2017","01","20","02:00","-0.4","","-0.7","","98","","21","","15","","0.6","","96.89","","","","-5","","Freezing Rain,Freezing Fog"
"-79.42","46.36","NORTH BAY A","6085680","2017-01-20 03:00","2017","01","20","03:00","-0.6","","-0.9","","98","","21","","11","","1.0","","96.86","","","","-4","","Freezing Rain,Fog"
"-79.42","46.36","NORTH BAY A","6085680","2017-01-20 04:00","2017","01","20","04:00","-0.7","","-1.0","","98","","20","","13","","4.8","","96.78","","","","-5","","Fog"
"-79.42","46.36","NORTH BAY A","6085680","2017-01-20 05:00","2017","01","20","05:00","-0.9","","-1.2","","98","","20","","13","","9.7","","96.71","","","","-5","","Freezing Rain,Fog"
"-79.42","46.36","NORTH BAY A","6085680","2017-01-20 06:00","2017","01","20","06:00","-1.0","","-1.3","","98","","18","","9","","4.8","","96.64","","","","-4","","Snow"
"-79.42","46.36","NORTH BAY A","6085680","2017-01-20 07:00","2017","01","20","07:00","-1.0","","-1.3","","98","","17","","8","","16.1","","96.61","","","","-4","","NA"
"-79.42","46.36","NORTH BAY A","6085680","2017-01-20 08:00","2017","01","20","08:00","-0.9","","-1.5","","96","","16","","11","","16.1","","96.61","","","","-5","","NA"
"-79.42","46.36","NORTH BAY A","6085680","2017-01-20 09:00","2017","01","20","09:00","-0.9","","-1.5","","96","","12","","9","","16.1","","96.58","","","","-4","","Snow"
"-79.42","46.36","NORTH BAY A","6085680","2017-01-20 10:00","2017","01","20","10:00","-0.9","","-1.3","","97","","13","","11","","16.1","","96.61","","","","-5","","Snow"
"-79.42","46.36","NORTH BAY A","6085680","2017-01-20 11:00","2017","01","20","11:00","-0.8","","-1.7","","94","","15","","11","","16.1","","96.58","","","","-5","","NA"
"-79.42","46.36","NORTH BAY A","6085680","2017-01-20 12:00","2017","01","20","12:00","-0.8","","-1.7","","94","","15","","11","","16.1","","96.49","","","","-5","","NA"
"-79.42","46.36","NORTH BAY A","6085680","2017-01-20 13:00","2017","01","20","13:00","-0.6","","-1.5","","94","","17","","11","","16.1","","96.43","","","","-4","","NA"
"-79.42","46.36","NORTH BAY A","6085680","2017-01-20 14:00","2017","01","20","14:00","-0.3","","-1.0","","95","","14","","8","","14.5","","96.36","","","","-3","","NA"
"-79.42","46.36","NORTH BAY A","6085680","2017-01-20 15:00","2017","01","20","15:00","-0.2","","-1.2","","93","","17","","8","","16.1","","96.34","","","","-3","","NA"
"-79.42","46.36","NORTH BAY A","6085680","2017-01-20 16:00","2017","01","20","16:00","-0.4","","-1.3","","94","","10","","15","","16.1","","96.30","","","","-5","","NA"
"-79.42","46.36","NORTH BAY A","6085680","2017-01-20 17:00","2017","01","20","17:00","-0.4","","-1.1","","95","","13","","15","","16.1","","96.31","","","","-5","","NA"
"-79.42","46.36","NORTH BAY A","6085680","2017-01-20 18:00","2017","01","20","18:00","-0.3","","-1.0","","95","","13","","9","","16.1","","96.33","","","","-3","","NA"
"-79.42","46.36","NORTH BAY A","6085680","2017-01-20 19:00","2017","01","20","19:00","-0.3","","-0.9","","96","","14","","9","","16.1","","96.35","","","","-3","","NA"
"-79.42","46.36","NORTH BAY A","6085680","2017-01-20 20:00","2017","01","20","20:00","-0.3","","-0.9","","96","","16","","13","","16.1","","96.33","","","","-4","","NA"
"-79.42","46.36","NORTH BAY A","6085680","2017-01-20 21:00","2017","01","20","21:00","-0.4","","-0.8","","97","","19","","13","","16.1","","96.35","","","","-5","","NA"
"-79.42","46.36","NORTH BAY A","6085680","2017-01-20 22:00","2017","01","20","22:00","-0.4","","-0.8","","97","","17","","5","","8.1","","96.35","","","","-2","","Fog"
"-79.42","46.36","NORTH BAY A","6085680","2017-01-20 23:00","2017","01","20","23:00","-0.3","","-0.6","","98","","16","","11","","1.6","","96.33","","","","-4","","Fog"
"-79.42","46.36","NORTH BAY A","6085680","2017-01-21 00:00","2017","01","21","00:00","-0.3","","-0.6","","98","","20","","9","","1.0","","96.31","","","","-3","","Freezing Rain,Fog"
"-79.42","46.36","NORTH BAY A","6085680","2017-01-21 01:00","2017","01","21","01:00","-0.2","","-0.5","","98","","23","","4","","0.6","","96.29","","","","-1","","Freezing Fog"
"-79.42","46.36","NORTH BAY A","6085680","2017-01-21 02:00","2017","01","21","02:00","-0.2","","-0.5","","98","","","M","4","","0.6","","96.32","","","","-1","","Freezing Fog"
"-79.42","46.36","NORTH BAY A","6085680","2017-01-21 03:00","2017","01","21","03:00","-0.2","","-0.5","","98","","16","","4","","0.6","","96.34","","","","-1","","Freezing Fog"
"-79.42","46.36","NORTH BAY A","6085680","2017-01-21 04:00","2017","01","21","04:00","-0.2","","-0.5","","98","","9","","5","","0.6","","96.31","","","","-2","","Moderate Snow"
"-79.42","46.36","NORTH BAY A","6085680","2017-01-21 05:00","2017","01","21","05:00","-0.1","","-0.4","","98","","12","","8","","1.6","","96.28","","","","-3","","Freezing Rain,Fog"
"-79.42","46.36","NORTH BAY A","6085680","2017-01-21 06:00","2017","01","21","06:00","-0.1","","-0.4","","98","","11","","8","","0.8","","96.26","","","","-3","","Freezing Fog"
"-79.42","46.36","NORTH BAY A","6085680","2017-01-21 07:00","2017","01","21","07:00","-0.2","","-0.5","","98","","13","","9","","0.6","","96.27","","","","-3","","Freezing Fog"
"-79.42","46.36","NORTH BAY A","6085680","2017-01-21 08:00","2017","01","21","08:00","0.0","","-0.3","","98","","16","","9","","0.2","","96.29","","","","-3","","Fog"
"-79.42","46.36","NORTH BAY A","6085680","2017-01-21 09:00","2017","01","21","09:00","0.0","","-0.3","","98","","16","","8","","0.0","","96.31","","","","-3","","Fog"
"-79.42","46.36","NORTH BAY A","6085680","2017-01-21 10:00","2017","01","21","10:00","0.1","","-0.2","","98","","14","","4","","0.0","","96.29","","","","","","Fog"
"-79.42","46.36","NORTH BAY A","6085680","2017-01-21 11:00","2017","01","21","11:00","0.4","","0.1","","98","","17","","5","","0.2","","96.30","","","","","","Fog"
"-79.42","46.36","NORTH BAY A","6085680","2017-01-21 12:00","2017","01","21","12:00","0.6","","0.3","","98","","11","","4","","0.0","","96.20","","","","","","Fog"
"-79.42","46.36","NORTH BAY A","6085680","2017-01-21 13:00","2017","01","21","13:00","1.1","","0.8","","98","","23","","8","","0.0","","96.21","","","","","","Fog"
"-79.42","46.36","NORTH BAY A","6085680","2017-01-21 14:00","2017","01","21","14:00","1.5","","1.2","","98","","23","","4","","0.0","","96.17","","","","","","Fog"
"-79.42","46.36","NORTH BAY A","6085680","2017-01-21 15:00","2017","01","21","15:00","1.4","","1.1","","98","","19","","9","","0.0","","96.19","","","","","","Fog"
"-79.42","46.36","NORTH BAY A","6085680","2017-01-21 16:00","2017","01","21","16:00","1.3","","1.0","","98","","17","","8","","0.2","","96.24","","","","","","Fog"
"-79.42","46.36","NORTH BAY A","6085680","2017-01-21 17:00","2017","01","21","17:00","0.8","","0.5","","98","","","M","4","","0.2","","96.28","","","","","","Fog"
"-79.42","46.36","NORTH BAY A","6085680","2017-01-21 18:00","2017","01","21","18:00","1.0","","0.7","","98","","6","","4","","0.2","","96.27","","","","","","Fog"
"-79.42","46.36","NORTH BAY A","6085680","2017-01-21 19:00","2017","01","21","19:00","1.0","","0.7","","98","","10","","15","","0.2","","96.22","","","","","","Rain,Fog"
"-79.42","46.36","NORTH BAY A","6085680","2017-01-21 20:00","2017","01","21","20:00","1.2","","0.9","","98","","5","","8","","0.4","","96.25","","","","","","Fog"
"-79.42","46.36","NORTH BAY A","6085680","2017-01-21 21:00","2017","01","21","21:00","1.1","","0.8","","98","","8","","13","","0.4","","96.24","","","","","","Fog"
"-79.42","46.36","NORTH BAY A","6085680","2017-01-21 22:00","2017","01","21","22:00","1.1","","0.8","","98","","9","","18","","2.0","","96.23","","","","","","Fog"
"-79.42","46.36","NORTH BAY A","6085680","2017-01-21 23:00","2017","01","21","23:00","1.0","","0.7","","98","","9","","17","","4.0","","96.26","","","","","","Fog"
"-79.42","46.36","NORTH BAY A","6085680","2017-01-22 00:00","2017","01","22","00:00","1.2","","0.9","","98","","10","","17","","16.1","","96.23","","","","","","NA"
"-79.42","46.36","NORTH BAY A","6085680","2017-01-22 01:00","2017","01","22","01:00","1.4","","1.1","","98","","7","","15","","16.1","","96.16","","","","","","NA"
"-79.42","46.36","NORTH BAY A","6085680","2017-01-22 02:00","2017","01","22","02:00","1.5","","1.2","","98","","10","","13","","3.6","","96.23","","","","","","Rain,Fog"
"-79.42","46.36","NORTH BAY A","6085680","2017-01-22 03:00","2017","01","22","03:00","1.4","","1.1","","98","","8","","17","","2.0","","96.27","","","","","","Fog"
"-79.42","46.36","NORTH BAY A","6085680","2017-01-22 04:00","2017","01","22","04:00","1.4","","1.1","","98","","9","","15","","1.6","","96.28","","","","","","Fog"
"-79.42","46.36","NORTH BAY A","6085680","2017-01-22 05:00","2017","01","22","05:00","1.5","","1.2","","98","","7","","18","","2.0","","96.23","","","","","","Rain,Fog"
"-79.42","46.36","NORTH BAY A","6085680","2017-01-22 06:00","2017","01","22","06:00","1.6","","1.3","","98","","7","","18","","4.0","","96.23","","","","","","Fog"
"-79.42","46.36","NORTH BAY A","6085680","2017-01-22 07:00","2017","01","22","07:00","1.4","","1.1","","98","","9","","22","","8.1","","96.25","","","","","","Fog"
"-79.42","46.36","NORTH BAY A","6085680","2017-01-22 08:00","2017","01","22","08:00","1.6","","1.3","","98","","8","","22","","9.7","","96.25","","","","","","Fog"
"-79.42","46.36","NORTH BAY A","6085680","2017-01-22 09:00","2017","01","22","09:00","1.5","","1.2","","98","","9","","28","","16.1","","96.27","","","","","","NA"
"-79.42","46.36","NORTH BAY A","6085680","2017-01-22 10:00","2017","01","22","10:00","1.7","","1.4","","98","","10","","24","","16.1","","96.38","","","","","","NA"
"-79.42","46.36","NORTH BAY A","6085680","2017-01-22 11:00","2017","01","22","11:00","1.6","","1.2","","97","","10","","22","","16.1","","96.47","","","","","","NA"
"-79.42","46.36","NORTH BAY A","6085680","2017-01-22 12:00","2017","01","22","12:00","1.6","","1.2","","97","","9","","28","","16.1","","96.43","","","","","","NA"
"-79.42","46.36","NORTH BAY A","6085680","2017-01-22 13:00","2017","01","22","13:00","1.7","","1.0","","95","","8","","30","","16.1","","96.38","","","","","","NA"
"-79.42","46.36","NORTH BAY A","6085680","2017-01-22 14:00","2017","01","22","14:00","1.6","","0.9","","95","","9","","34","","16.1","","96.38","","","","","","NA"
"-79.42","46.36","NORTH BAY A","6085680","2017-01-22 15:00","2017","01","22","15:00","1.2","","0.6","","96","","9","","32","","16.1","","96.39","","","","","","NA"
"-79.42","46.36","NORTH BAY A","6085680","2017-01-22 16:00","2017","01","22","16:00","1.3","","0.4","","94","","9","","34","","16.1","","96.41","","","","","","NA"
"-79.42","46.36","NORTH BAY A","6085680","2017-01-22 17:00","2017","01","22","17:00","1.2","","0.2","","93","","10","","32","","16.1","","96.44","","","","","","NA"
"-79.42","46.36","NORTH BAY A","6085680","2017-01-22 18:00","2017","01","22","18:00","1.1","","-0.1","","92","","9","","34","","16.1","","96.47","","","","","","NA"
"-79.42","46.36","NORTH BAY A","6085680","2017-01-22 19:00","2017","01","22","19:00","0.9","","-0.3","","92","","10","","39","","16.1","","96.50","","","","","","NA"
"-79.42","46.36","NORTH BAY A","6085680","2017-01-22 20:00","2017","01","22","20:00","0.6","","-0.3","","94","","10","","37","","16.1","","96.51","","","","","","Rain"
"-79.42","46.36","NORTH BAY A","6085680","2017-01-22 21:00","2017","01","22","21:00","0.5","","-0.7","","92","","10","","34","","16.1","","96.51","","","","","","NA"
"-79.42","46.36","NORTH BAY A","6085680","2017-01-22 22:00","2017","01","22","22:00","0.4","","-0.6","","93","","10","","35","","16.1","","96.55","","","","","","NA"
"-79.42","46.36","NORTH BAY A","6085680","2017-01-22 23:00","2017","01","22","23:00","0.2","","-0.7","","94","","10","","34","","16.1","","96.58","","","","","","NA"
"-79.42","46.36","NORTH BAY A","6085680","2017-01-23 00:00","2017","01","23","00:00","0.0","","-1.0","","93","","11","","28","","16.1","","96.61","","","","-6","","NA"
"-79.42","46.36","NORTH BAY A","6085680","2017-01-23 01:00","2017","01","23","01:00","-0.2","","-1.5","","91","","11","","28","","16.1","","96.60","","","","-7","","NA"
"-79.42","46.36","NORTH BAY A","6085680","2017-01-23 02:00","2017","01","23","02:00","-0.4","","-1.7","","91","","10","","30","","16.1","","96.63","","","","-7","","NA"
"-79.42","46.36","NORTH BAY A","6085680","2017-01-23 03:00","2017","01","23","03:00","-0.8","","-2.4","","89","","10","","37","","16.1","","96.64","","","","-8","","NA"
"-79.42","46.36","NORTH BAY A","6085680","2017-01-23 04:00","2017","01","23","04:00","-1.0","","-2.6","","89","","10","","28","","16.1","","96.66","","","","-8","","NA"
"-79.42","46.36","NORTH BAY A","6085680","2017-01-23 05:00","2017","01","23","05:00","-1.3","","-3.0","","88","","9","","32","","16.1","","96.63","","","","-8","","NA"
"-79.42","46.36","NORTH BAY A","6085680","2017-01-23 06:00","2017","01","23","06:00","-1.5","","-3.4","","87","","11","","26","","16.1","","96.70","","","","-8","","NA"
"-79.42","46.36","NORTH BAY A","6085680","2017-01-23 07:00","2017","01","23","07:00","-1.7","","-3.6","","87","","10","","22","","16.1","","96.69","","","","-8","","NA"
"-79.42","46.36","NORTH BAY A","6085680","2017-01-23 08:00","2017","01","23","08:00","-1.6","","-3.3","","88","","9","","26","","16.1","","96.72","","","","-8","","NA"
"-79.42","46.36","NORTH BAY A","6085680","2017-01-23 09:00","2017","01","23","09:00","-1.3","","-2.9","","89","","9","","30","","16.1","","96.70","","","","-8","","NA"
"-79.42","46.36","NORTH BAY A","6085680","2017-01-23 10:00","2017","01","23","10:00","-1.4","","-2.8","","90","","9","","24","","16.1","","96.78","","","","-8","","NA"
"-79.42","46.36","NORTH BAY A","6085680","2017-01-23 11:00","2017","01","23","11:00","-1.3","","-2.4","","92","","9","","24","","16.1","","96.84","","","","-7","","NA"
"-79.42","46.36","NORTH BAY A","6085680","2017-01-23 12:00","2017","01","23","12:00","-0.9","","-2.3","","90","","9","","26","","16.1","","96.75","","","","-7","","NA"
"-79.42","46.36","NORTH BAY A","6085680","2017-01-23 13:00","2017","01","23","13:00","-0.2","","-2.1","","87","","8","","26","","16.1","","96.65","","","","-6","","NA"
"-79.42","46.36","NORTH BAY A","6085680","2017-01-23 14:00","2017","01","23","14:00","0.1","","-2.0","","86","","8","","22","","16.1","","96.62","","","","","","NA"
"-79.42","46.36","NORTH BAY A","6085680","2017-01-23 15:00","2017","01","23","15:00","0.2","","-1.7","","87","","9","","21","","16.1","","96.65","","","","","","NA"
"-79.42","46.36","NORTH BAY A","6085680","2017-01-23 16:00","2017","01","23","16:00","-0.1","","-1.5","","90","","8","","15","","16.1","","96.69","","","","-5","","NA"
"-79.42","46.36","NORTH BAY A","6085680","2017-01-23 17:00","2017","01","23","17:00","-1.1","","-1.7","","96","","9","","24","","4.8","","96.71","","","","-7","","Fog"
"-79.42","46.36","NORTH BAY A","6085680","2017-01-23 18:00","2017","01","23","18:00","-1.3","","-1.7","","97","","7","","18","","4.0","","96.70","","","","-7","","Fog"
"-79.42","46.36","NORTH BAY A","6085680","2017-01-23 19:00","2017","01","23","19:00","-1.3","","-1.9","","96","","9","","24","","9.7","","96.74","","","","-7","","Fog"
"-79.42","46.36","NORTH BAY A","6085680","2017-01-23 20:00","2017","01","23","20:00","-1.2","","-1.9","","95","","10","","26","","16.1","","96.77","","","","-8","","NA"
"-79.42","46.36","NORTH BAY A","6085680","2017-01-23 21:00","2017","01","23","21:00","-1.1","","-2.2","","92","","10","","34","","16.1","","96.78","","","","-8","","NA"
"-79.42","46.36","NORTH BAY A","6085680","2017-01-23 22:00","2017","01","23","22:00","-1.2","","-2.5","","91","","9","","18","","16.1","","96.75","","","","-6","","NA"
"-79.42","46.36","NORTH BAY A","6085680","2017-01-23 23:00","2017","01","23","23:00","-1.3","","-2.9","","89","","9","","21","","16.1","","96.67","","","","-7","","NA"
"-79.42","46.36","NORTH BAY A","6085680","2017-01-24 00:00","2017","01","24","00:00","-1.4","","-3.0","","89","","11","","18","","16.1","","96.68","","","","-7","","NA"
"-79.42","46.36","NORTH BAY A","6085680","2017-01-24 01:00","2017","01","24","01:00","-1.6","","-3.3","","88","","9","","21","","16.1","","96.53","","","","-7","","NA"
"-79.42","46.36","NORTH BAY A","6085680","2017-01-24 02:00","2017","01","24","02:00","-1.7","","-3.6","","87","","9","","17","","16.1","","96.53","","","","-7","","NA"
"-79.42","46.36","NORTH BAY A","6085680","2017-01-24 03:00","2017","01","24","03:00","-2.0","","-4.4","","84","","9","","24","","16.1","","96.52","","","","-8","","NA"
"-79.42","46.36","NORTH BAY A","6085680","2017-01-24 04:00","2017","01","24","04:00","-2.2","","-4.5","","84","","9","","15","","16.1","","96.52","","","","-7","","NA"
"-79.42","46.36","NORTH BAY A","6085680","2017-01-24 05:00","2017","01","24","05:00","-2.5","","-5.0","","83","","7","","17","","16.1","","96.46","","","","-8","","NA"
"-79.42","46.36","NORTH BAY A","6085680","2017-01-24 06:00","2017","01","24","06:00","-2.7","","-5.0","","84","","6","","11","","16.1","","96.43","","","","-7","","NA"
"-79.42","46.36","NORTH BAY A","6085680","2017-01-24 07:00","2017","01","24","07:00","-3.1","","-5.6","","83","","6","","11","","16.1","","96.41","","","","-7","","NA"
"-79.42","46.36","NORTH BAY A","6085680","2017-01-24 08:00","2017","01","24","08:00","-3.5","","-5.8","","84","","3","","9","","16.1","","96.41","","","","-7","","NA"
"-79.42","46.36","NORTH BAY A","6085680","2017-01-24 09:00","2017","01","24","09:00","-3.4","","-6.0","","82","","5","","13","","16.1","","96.39","","","","-8","","NA"
"-79.42","46.36","NORTH BAY A","6085680","2017-01-24 10:00","2017","01","24","10:00","-3.3","","-6.7","","77","","7","","15","","16.1","","96.43","","","","-8","","NA"
"-79.42","46.36","NORTH BAY A","6085680","2017-01-24 11:00","2017","01","24","11:00","-2.5","","-7.2","","70","","6","","9","","16.1","","96.39","","","","-6","","NA"
"-79.42","46.36","NORTH BAY A","6085680","2017-01-24 12:00","2017","01","24","12:00","-1.8","","-7.4","","66","","3","","15","","16.1","","96.29","","","","-7","","NA"
"-79.42","46.36","NORTH BAY A","6085680","2017-01-24 13:00","2017","01","24","13:00","-2.7","","-6.0","","78","","4","","9","","3.2","","96.21","","","","-6","","Snow"
"-79.42","46.36","NORTH BAY A","6085680","2017-01-24 14:00","2017","01","24","14:00","-2.7","","-6.1","","78","","2","","11","","6.4","","96.15","","","","-7","","Snow"
"-79.42","46.36","NORTH BAY A","6085680","2017-01-24 15:00","2017","01","24","15:00","-2.7","","-5.4","","82","","36","","15","","3.6","","96.11","","","","-8","","Snow"
"-79.42","46.36","NORTH BAY A","6085680","2017-01-24 16:00","2017","01","24","16:00","-2.9","","-5.4","","83","","33","","8","","8.1","","96.10","","","","-6","","Snow"
"-79.42","46.36","NORTH BAY A","6085680","2017-01-24 17:00","2017","01","24","17:00","-2.8","","-5.8","","80","","36","","9","","4.8","","96.13","","","","-6","","Snow"
"-79.42","46.36","NORTH BAY A","6085680","2017-01-24 18:00","2017","01","24","18:00","-3.2","","-5.1","","87","","","M","4","","4.8","","96.13","","","","-5","","Snow"
"-79.42","46.36","NORTH BAY A","6085680","2017-01-24 19:00","2017","01","24","19:00","-3.3","","-4.8","","89","","3","","5","","8.1","","96.09","","","","-5","","Snow"
"-79.42","46.36","NORTH BAY A","6085680","2017-01-24 20:00","2017","01","24","20:00","-3.5","","-5.1","","89","","4","","8","","12.9","","96.06","","","","-7","","Snow"
"-79.42","46.36","NORTH BAY A","6085680","2017-01-24 21:00","2017","01","24","21:00","-3.6","","-5.5","","87","","36","","11","","6.4","","96.06","","","","-8","","Snow"
"-79.42","46.36","NORTH BAY A","6085680","2017-01-24 22:00","2017","01","24","22:00","-3.9","","-5.0","","92","","34","","8","","4.8","","96.05","","","","-7","","Snow"
"-79.42","46.36","NORTH BAY A","6085680","2017-01-24 23:00","2017","01","24","23:00","-4.0","","-5.0","","93","","34","","11","","4.0","","96.03","","","","-8","","Snow"
"-79.42","46.36","NORTH BAY A","6085680","2017-01-25 00:00","2017","01","25","00:00","-4.0","","-5.1","","92","","35","","11","","4.0","","96.01","","","","-8","","Snow"
"-79.42","46.36","NORTH BAY A","6085680","2017-01-25 01:00","2017","01","25","01:00","-4.2","","-5.3","","92","","35","","11","","11.3","","95.94","","","","-9","","Snow"
"-79.42","46.36","NORTH BAY A","6085680","2017-01-25 02:00","2017","01","25","02:00","-4.2","","-5.2","","93","","34","","9","","9.7","","95.93","","","","-8","","Snow"
"-79.42","46.36","NORTH BAY A","6085680","2017-01-25 03:00","2017","01","25","03:00","-4.2","","-5.2","","93","","32","","9","","8.1","","95.93","","","","-8","","Snow"
"-79.42","46.36","NORTH BAY A","6085680","2017-01-25 04:00","2017","01","25","04:00","-4.2","","-5.0","","94","","32","","8","","4.8","","95.89","","","","-8","","Snow"
"-79.42","46.36","NORTH BAY A","6085680","2017-01-25 05:00","2017","01","25","05:00","-4.2","","-4.9","","95","","28","","8","","11.3","","95.88","","","","-8","","Snow"
"-79.42","46.36","NORTH BAY A","6085680","2017-01-25 06:00","2017","01","25","06:00","-4.1","","-4.8","","95","","27","","9","","8.1","","95.87","","","","-8","","Snow"
"-79.42","46.36","NORTH BAY A","6085680","2017-01-25 07:00","2017","01","25","07:00","-4.1","","-4.8","","95","","27","","11","","3.2","","95.86","","","","-9","","Snow"
"-79.42","46.36","NORTH BAY A","6085680","2017-01-25 08:00","2017","01","25","08:00","-4.2","","-5.0","","94","","29","","8","","8.1","","95.80","","","","-8","","Snow"
"-79.42","46.36","NORTH BAY A","6085680","2017-01-25 09:00","2017","01","25","09:00","-3.7","","-4.8","","92","","28","","9","","16.1","","95.79","","","","-7","","NA"
"-79.42","46.36","NORTH BAY A","6085680","2017-01-25 10:00","2017","01","25","10:00","-3.2","","-3.8","","96","","24","","11","","12.9","","95.80","","","","-7","","NA"
"-79.42","46.36","NORTH BAY A","6085680","2017-01-25 11:00","2017","01","25","11:00","-2.3","","-3.5","","91","","28","","11","","16.1","","95.72","","","","-6","","NA"
"-79.42","46.36","NORTH BAY A","6085680","2017-01-25 12:00","2017","01","25","12:00","-1.2","","-4.1","","81","","27","","9","","16.1","","95.63","","","","-4","","NA"
"-79.42","46.36","NORTH BAY A","6085680","2017-01-25 13:00","2017","01","25","13:00","0.0","","-3.3","","78","","25","","18","","16.1","","95.54","","","","-5","","NA"
"-79.42","46.36","NORTH BAY A","6085680","2017-01-25 14:00","2017","01","25","14:00","-1.0","","-3.5","","84","","24","","15","","16.1","","95.50","","","","-6","","NA"
"-79.42","46.36","NORTH BAY A","6085680","2017-01-25 15:00","2017","01","25","15:00","-1.0","","-3.5","","83","","24","","15","","16.1","","95.47","","","","-6","","NA"
"-79.42","46.36","NORTH BAY A","6085680","2017-01-25 16:00","2017","01","25","16:00","-1.2","","-3.1","","87","","28","","8","","16.1","","95.41","","","","-4","","NA"
"-79.42","46.36","NORTH BAY A","6085680","2017-01-25 17:00","2017","01","25","17:00","-0.9","","-2.3","","90","","27","","5","","16.1","","95.39","","","","-3","","NA"
"-79.42","46.36","NORTH BAY A","6085680","2017-01-25 18:00","2017","01","25","18:00","-1.6","","-2.6","","93","","28","","4","","16.1","","95.34","","","","-3","","NA"
"-79.42","46.36","NORTH BAY A","6085680","2017-01-25 19:00","2017","01","25","19:00","-1.9","","-2.7","","94","","","","0","","16.1","","95.30","","","","","","NA"
"-79.42","46.36","NORTH BAY A","6085680","2017-01-25 20:00","2017","01","25","20:00","-1.9","","-2.6","","95","","22","","4","","16.1","","95.28","","","","-3","","NA"
"-79.42","46.36","NORTH BAY A","6085680","2017-01-25 21:00","2017","01","25","21:00","-2.1","","-2.7","","96","","22","","5","","14.5","","95.24","","","","-4","","NA"
"-79.42","46.36","NORTH BAY A","6085680","2017-01-25 22:00","2017","01","25","22:00","-1.6","","-2.0","","97","","24","","5","","6.4","","95.19","","","","-3","","Fog"
"-79.42","46.36","NORTH BAY A","6085680","2017-01-25 23:00","2017","01","25","23:00","-1.5","","-1.8","","98","","24","","5","","0.4","","95.16","","","","-3","","Freezing Fog"
"-79.42","46.36","NORTH BAY A","6085680","2017-01-26 00:00","2017","01","26","00:00","-1.5","","-1.8","","98","","25","","9","","0.6","","95.11","","","","-5","","Freezing Fog"
"-79.42","46.36","NORTH BAY A","6085680","2017-01-26 01:00","2017","01","26","01:00","-1.7","","-2.0","","98","","28","","8","","0.6","","95.05","","","","-5","","Freezing Fog"
"-79.42","46.36","NORTH BAY A","6085680","2017-01-26 02:00","2017","01","26","02:00","-2.5","","-2.8","","98","","32","","8","","16.1","","95.02","","","","-6","","NA"
"-79.42","46.36","NORTH BAY A","6085680","2017-01-26 03:00","2017","01","26","03:00","-3.0","","-3.3","","98","","34","","8","","12.9","","95.00","","","","-6","","NA"
"-79.42","46.36","NORTH BAY A","6085680","2017-01-26 04:00","2017","01","26","04:00","-3.1","","-3.5","","97","","","M","4","","16.1","","94.95","","","","-5","","NA"
"-79.42","46.36","NORTH BAY A","6085680","2017-01-26 05:00","2017","01","26","05:00","-3.0","","-3.6","","96","","34","","9","","16.1","","94.96","","","","-7","","NA"
"-79.42","46.36","NORTH BAY A","6085680","2017-01-26 06:00","2017","01","26","06:00","-3.1","","-3.8","","95","","34","","9","","16.1","","94.94","","","","-7","","NA"
"-79.42","46.36","NORTH BAY A","6085680","2017-01-26 07:00","2017","01","26","07:00","-3.0","","-3.7","","95","","34","","13","","16.1","","94.95","","","","-8","","NA"
"-79.42","46.36","NORTH BAY A","6085680","2017-01-26 08:00","2017","01","26","08:00","-2.8","","-3.8","","93","","35","","18","","16.1","","94.98","","","","-8","","NA"
"-79.42","46.36","NORTH BAY A","6085680","2017-01-26 09:00","2017","01","26","09:00","-2.6","","-4.0","","90","","33","","15","","16.1","","95.00","","","","-8","","NA"
"-79.42","46.36","NORTH BAY A","6085680","2017-01-26 10:00","2017","01","26","10:00","-2.2","","-3.9","","88","","31","","13","","16.1","","95.02","","","","-7","","NA"
"-79.42","46.36","NORTH BAY A","6085680","2017-01-26 11:00","2017","01","26","11:00","-1.6","","-3.6","","86","","29","","13","","16.1","","95.02","","","","-6","","Snow"
"-79.42","46.36","NORTH BAY A","6085680","2017-01-26 12:00","2017","01","26","12:00","-1.3","","-3.5","","85","","29","","13","","16.1","","94.99","","","","-6","","Snow"
"-79.42","46.36","NORTH BAY A","6085680","2017-01-26 13:00","2017","01","26","13:00","-0.8","","-2.9","","86","","29","","13","","9.7","","94.96","","","","-5","","Snow"
"-79.42","46.36","NORTH BAY A","6085680","2017-01-26 14:00","2017","01","26","14:00","-0.5","","-3.0","","83","","29","","17","","16.1","","94.96","","","","-5","","Snow"
"-79.42","46.36","NORTH BAY A","6085680","2017-01-26 15:00","2017","01","26","15:00","-0.6","","-3.8","","79","","30","","18","","16.1","","95.01","","","","-6","","NA"
"-79.42","46.36","NORTH BAY A","6085680","2017-01-26 16:00","2017","01","26","16:00","-0.7","","-3.7","","80","","28","","15","","16.1","","95.07","","","","-5","","Snow"
"-79.42","46.36","NORTH BAY A","6085680","2017-01-26 17:00","2017","01","26","17:00","-1.2","","-4.6","","78","","30","","21","","16.1","","95.11","","","","-7","","Snow"
"-79.42","46.36","NORTH BAY A","6085680","2017-01-26 18:00","2017","01","26","18:00","-1.7","","-5.0","","78","","29","","17","","16.1","","95.15","","","","-7","","Snow"
"-79.42","46.36","NORTH BAY A","6085680","2017-01-26 19:00","2017","01","26","19:00","-1.9","","-5.3","","78","","27","","21","","16.1","","95.16","","","","-8","","NA"
"-79.42","46.36","NORTH BAY A","6085680","2017-01-26 20:00","2017","01","26","20:00","-2.2","","-5.2","","80","","28","","22","","16.1","","95.17","","","","-8","","NA"
"-79.42","46.36","NORTH BAY A","6085680","2017-01-26 21:00","2017","01","26","21:00","-2.8","","-6.0","","79","","29","","26","","16.1","","95.17","","","","-10","","NA"
"-79.42","46.36","NORTH BAY A","6085680","2017-01-26 22:00","2017","01","26","22:00","-3.2","","-6.7","","77","","28","","26","","16.1","","95.21","","","","-10","","NA"
"-79.42","46.36","NORTH BAY A","6085680","2017-01-26 23:00","2017","01","26","23:00","-3.4","","-6.7","","78","","27","","21","","16.1","","95.23","","","","-10","","NA"
"-79.42","46.36","NORTH BAY A","6085680","2017-01-27 00:00","2017","01","27","00:00","-4.1","","-7.6","","77","","28","","24","","16.1","","95.27","","","","-11","","NA"
"-79.42","46.36","NORTH BAY A","6085680","2017-01-27 01:00","2017","01","27","01:00","-4.3","","-7.4","","79","","27","","17","","16.1","","95.24","","","","-10","","NA"
"-79.42","46.36","NORTH BAY A","6085680","2017-01-27 02:00","2017","01","27","02:00","-4.4","","-7.5","","79","","27","","24","","16.1","","95.25","","","","-11","","NA"
"-79.42","46.36","NORTH BAY A","6085680","2017-01-27 03:00","2017","01","27","03:00","-4.8","","-7.9","","79","","27","","18","","16.1","","95.27","","","","-11","","NA"
"-79.42","46.36","NORTH BAY A","6085680","2017-01-27 04:00","2017","01","27","04:00","-5.2","","-7.8","","82","","29","","15","","11.3","","95.28","","","","-11","","NA"
"-79.42","46.36","NORTH BAY A","6085680","2017-01-27 05:00","2017","01","27","05:00","-5.5","","-8.5","","80","","28","","18","","16.1","","95.29","","","","-12","","NA"
"-79.42","46.36","NORTH BAY A","6085680","2017-01-27 06:00","2017","01","27","06:00","-5.6","","-7.9","","84","","26","","15","","16.1","","95.29","","","","-11","","Snow"
"-79.42","46.36","NORTH BAY A","6085680","2017-01-27 07:00","2017","01","27","07:00","-5.8","","-8.1","","84","","25","","17","","16.1","","95.30","","","","-12","","Snow"
"-79.42","46.36","NORTH BAY A","6085680","2017-01-27 08:00","2017","01","27","08:00","-6.1","","-7.6","","89","","26","","17","","4.0","","95.34","","","","-12","","Snow"
"-79.42","46.36","NORTH BAY A","6085680","2017-01-27 09:00","2017","01","27","09:00","-5.9","","-7.4","","89","","27","","18","","2.8","","95.34","","","","-12","","Snow"
"-79.42","46.36","NORTH BAY A","6085680","2017-01-27 10:00","2017","01","27","10:00","-5.4","","-7.2","","87","","27","","17","","6.4","","95.35","","","","-11","","Snow"
"-79.42","46.36","NORTH BAY A","6085680","2017-01-27 11:00","2017","01","27","11:00","-5.1","","-7.1","","86","","27","","21","","6.4","","95.36","","","","-12","","Snow"
"-79.42","46.36","NORTH BAY A","6085680","2017-01-27 12:00","2017","01","27","12:00","-4.5","","-7.0","","83","","26","","18","","3.6","","95.32","","","","-11","","Snow"
"-79.42","46.36","NORTH BAY A","6085680","2017-01-27 13:00","2017","01","27","13:00","-4.7","","-6.2","","89","","26","","21","","2.0","","95.26","","","","-11","","Snow"
"-79.42","46.36","NORTH BAY A","6085680","2017-01-27 14:00","2017","01","27","14:00","-4.3","","-6.0","","88","","26","","18","","3.2","","95.22","","","","-10","","Snow"
"-79.42","46.36","NORTH BAY A","6085680","2017-01-27 15:00","2017","01","27","15:00","-4.1","","-6.1","","86","","28","","18","","16.1","","95.25","","","","-10","","Snow"
"-79.42","46.36","NORTH BAY A","6085680","2017-01-27 16:00","2017","01","27","16:00","-3.7","","-6.4","","82","","26","","11","","16.1","","95.26","","","","-8","","NA"
"-79.42","46.36","NORTH BAY A","6085680","2017-01-27 17:00","2017","01","27","17:00","-3.7","","-6.7","","80","","27","","13","","16.1","","95.30","","","","-9","","NA"
"-79.42","46.36","NORTH BAY A","6085680","2017-01-27 18:00","2017","01","27","18:00","-3.9","","-7.2","","78","","27","","13","","16.1","","95.35","","","","-9","","Snow"
"-79.42","46.36","NORTH BAY A","6085680","2017-01-27 19:00","2017","01","27","19:00","-3.8","","-7.4","","76","","29","","15","","16.1","","95.37","","","","-9","","NA"
"-79.42","46.36","NORTH BAY A","6085680","2017-01-27 20:00","2017","01","27","20:00","-3.8","","-7.4","","76","","29","","15","","16.1","","95.39","","","","-9","","NA"
"-79.42","46.36","NORTH BAY A","6085680","2017-01-27 21:00","2017","01","27","21:00","-3.7","","-8.0","","72","","30","","15","","16.1","","95.41","","","","-9","","NA"
"-79.42","46.36","NORTH BAY A","6085680","2017-01-27 22:00","2017","01","27","22:00","-3.8","","-8.7","","69","","29","","13","","16.1","","95.39","","","","-9","","NA"
"-79.42","46.36","NORTH BAY A","6085680","2017-01-27 23:00","2017","01","27","23:00","-4.1","","-8.4","","72","","24","","11","","16.1","","95.39","","","","-9","","Snow"
"-79.42","46.36","NORTH BAY A","6085680","2017-01-28 00:00","2017","01","28","00:00","-4.7","","-6.9","","85","","25","","9","","12.9","","95.35","","","","-9","","Snow"
"-79.42","46.36","NORTH BAY A","6085680","2017-01-28 01:00","2017","01","28","01:00","-4.8","","-6.3","","89","","25","","9","","16.1","","95.30","","","","-9","","Snow"
"-79.42","46.36","NORTH BAY A","6085680","2017-01-28 02:00","2017","01","28","02:00","-4.3","","-6.2","","87","","25","","15","","16.1","","95.28","","","","-10","","Snow"
"-79.42","46.36","NORTH BAY A","6085680","2017-01-28 03:00","2017","01","28","03:00","-4.1","","-4.6","","96","","25","","9","","2.0","","95.28","","","","-8","","Snow"
"-79.42","46.36","NORTH BAY A","6085680","2017-01-28 04:00","2017","01","28","04:00","-3.3","","-3.9","","96","","26","","13","","2.0","","95.27","","","","-8","","Snow"
"-79.42","46.36","NORTH BAY A","6085680","2017-01-28 05:00","2017","01","28","05:00","-3.3","","-3.9","","96","","25","","18","","2.0","","95.26","","","","-9","","Snow"
"-79.42","46.36","NORTH BAY A","6085680","2017-01-28 06:00","2017","01","28","06:00","-3.4","","-4.0","","96","","26","","13","","4.8","","95.27","","","","-8","","Snow"
"-79.42","46.36","NORTH BAY A","6085680","2017-01-28 07:00","2017","01","28","07:00","-3.5","","-4.1","","96","","26","","11","","6.4","","95.26","","","","-8","","Snow"
"-79.42","46.36","NORTH BAY A","6085680","2017-01-28 08:00","2017","01","28","08:00","-3.4","","-4.0","","96","","25","","11","","2.8","","95.27","","","","-8","","Snow"
"-79.42","46.36","NORTH BAY A","6085680","2017-01-28 09:00","2017","01","28","09:00","-3.3","","-3.9","","96","","26","","9","","6.4","","95.25","","","","-7","","Snow"
"-79.42","46.36","NORTH BAY A","6085680","2017-01-28 10:00","2017","01","28","10:00","-3.0","","-3.7","","95","","25","","9","","3.2","","95.26","","","","-7","","Snow"
"-79.42","46.36","NORTH BAY A","6085680","2017-01-28 11:00","2017","01","28","11:00","-3.1","","-3.7","","96","","22","","13","","3.2","","95.24","","","","-8","","Snow"
"-79.42","46.36","NORTH BAY A","6085680","2017-01-28 12:00","2017","01","28","12:00","-2.6","","-3.4","","94","","23","","17","","2.4","","95.17","","","","-8","","Snow"
"-79.42","46.36","NORTH BAY A","6085680","2017-01-28 13:00","2017","01","28","13:00","-2.6","","-3.7","","92","","23","","15","","2.4","","95.11","","","","-8","","Snow"
"-79.42","46.36","NORTH BAY A","6085680","2017-01-28 14:00","2017","01","28","14:00","-2.3","","-3.1","","94","","22","","15","","4.0","","95.08","","","","-7","","Snow"
"-79.42","46.36","NORTH BAY A","6085680","2017-01-28 15:00","2017","01","28","15:00","-2.4","","-3.4","","93","","25","","11","","2.4","","95.06","","","","-6","","Snow"
"-79.42","46.36","NORTH BAY A","6085680","2017-01-28 16:00","2017","01","28","16:00","-4.5","","-5.6","","92","","34","","17","","2.0","","95.14","","","","-10","","Snow"
"-79.42","46.36","NORTH BAY A","6085680","2017-01-28 17:00","2017","01","28","17:00","-5.0","","-6.3","","91","","34","","13","","4.8","","95.23","","","","-10","","Snow"
"-79.42","46.36","NORTH BAY A","6085680","2017-01-28 18:00","2017","01","28","18:00","-5.5","","-6.7","","91","","33","","13","","16.1","","95.26","","","","-11","","Snow"
"-79.42","46.36","NORTH BAY A","6085680","2017-01-28 19:00","2017","01","28","19:00","-6.7","","-7.5","","94","","30","","8","","16.1","","95.35","","","","-11","","NA"
"-79.42","46.36","NORTH BAY A","6085680","2017-01-28 20:00","2017","01","28","20:00","-7.0","","-7.8","","94","","32","","8","","16.1","","95.35","","","","-11","","Snow"
"-79.42","46.36","NORTH BAY A","6085680","2017-01-28 21:00","2017","01","28","21:00","-7.0","","-8.2","","91","","33","","9","","16.1","","95.38","","","","-11","","Snow"
"-79.42","46.36","NORTH BAY A","6085680","2017-01-28 22:00","2017","01","28","22:00","-7.8","","-8.7","","93","","34","","9","","16.1","","95.41","","","","-12","","Snow"
"-79.42","46.36","NORTH BAY A","6085680","2017-01-28 23:00","2017","01","28","23:00","-7.9","","-9.1","","91","","36","","11","","2.8","","95.44","","","","-13","","Snow"
"-79.42","46.36","NORTH BAY A","6085680","2017-01-29 00:00","2017","01","29","00:00","-9.2","","-10.7","","89","","2","","11","","16.1","","95.45","","","","-15","","NA"
"-79.42","46.36","NORTH BAY A","6085680","2017-01-29 01:00","2017","01","29","01:00","-10.1","","-11.7","","88","","1","","17","","16.1","","95.48","","","","-17","","Snow"
"-79.42","46.36","NORTH BAY A","6085680","2017-01-29 02:00","2017","01","29","02:00","-10.7","","-12.8","","85","","36","","17","","16.1","","95.50","","","","-18","","Snow"
"-79.42","46.36","NORTH BAY A","6085680","2017-01-29 03:00","2017","01","29","03:00","-11.8","","-13.7","","86","","34","","18","","6.4","","95.56","","","","-20","","Snow"
"-79.42","46.36","NORTH BAY A","6085680","2017-01-29 04:00","2017","01","29","04:00","-12.8","","-14.8","","85","","35","","15","","6.4","","95.59","","","","-20","","Snow"
"-79.42","46.36","NORTH BAY A","6085680","2017-01-29 05:00","2017","01","29","05:00","-13.8","","-15.8","","85","","36","","9","","9.7","","95.62","","","","-19","","Snow"
"-79.42","46.36","NORTH BAY A","6085680","2017-01-29 06:00","2017","01","29","06:00","-13.9","","-16.1","","84","","34","","13","","16.1","","95.67","","","","-21","","Snow"
"-79.42","46.36","NORTH BAY A","6085680","2017-01-29 07:00","2017","01","29","07:00","-14.1","","-16.4","","83","","35","","17","","16.1","","95.71","","","","-22","","Snow"
"-79.42","46.36","NORTH BAY A","6085680","2017-01-29 08:00","2017","01","29","08:00","-14.4","","-16.6","","83","","34","","17","","8.1","","95.78","","","","-23","","Snow"
"-79.42","46.36","NORTH BAY A","6085680","2017-01-29 09:00","2017","01","29","09:00","-14.4","","-16.8","","82","","34","","15","","4.8","","95.85","","","","-22","","Snow"
"-79.42","46.36","NORTH BAY A","6085680","2017-01-29 10:00","2017","01","29","10:00","-14.4","","-17.1","","80","","33","","15","","6.4","","95.88","","","","-22","","Snow"
"-79.42","46.36","NORTH BAY A","6085680","2017-01-29 11:00","2017","01","29","11:00","-14.1","","-17.1","","78","","35","","11","","6.4","","95.94","","","","-21","","Haze"
"-79.42","46.36","NORTH BAY A","6085680","2017-01-29 12:00","2017","01","29","12:00","-13.4","","-17.4","","72","","30","","13","","16.1","","95.93","","","","-20","","NA"
"-79.42","46.36","NORTH BAY A","6085680","2017-01-29 13:00","2017","01","29","13:00","-12.8","","-17.3","","69","","33","","11","","16.1","","95.94","","","","-19","","Snow"
"-79.42","46.36","NORTH BAY A","6085680","2017-01-29 14:00","2017","01","29","14:00","-12.8","","-17.3","","70","","30","","5","","16.1","","95.95","","","","-16","","NA"
"-79.42","46.36","NORTH BAY A","6085680","2017-01-29 15:00","2017","01","29","15:00","-12.9","","-17.0","","72","","31","","11","","16.1","","96.00","","","","-19","","Snow"
"-79.42","46.36","NORTH BAY A","6085680","2017-01-29 16:00","2017","01","29","16:00","-13.0","","-17.1","","72","","29","","5","","16.1","","96.09","","","","-16","","Snow"
"-79.42","46.36","NORTH BAY A","6085680","2017-01-29 17:00","2017","01","29","17:00","-13.1","","-17.0","","73","","32","","11","","16.1","","96.15","","","","-19","","Snow"
"-79.42","46.36","NORTH BAY A","6085680","2017-01-29 18:00","2017","01","29","18:00","-13.7","","-16.1","","82","","32","","4","","16.1","","96.20","","","","-16","","Snow"
"-79.42","46.36","NORTH BAY A","6085680","2017-01-29 19:00","2017","01","29","19:00","-13.8","","-16.1","","83","","","","0","","16.1","","96.25","","","","","","Snow"
"-79.42","46.36","NORTH BAY A","6085680","2017-01-29 20:00","2017","01","29","20:00","-14.3","","-16.2","","86","","29","","4","","16.1","","96.29","","","","-17","","Snow"
"-79.42","46.36","NORTH BAY A","6085680","2017-01-29 21:00","2017","01","29","21:00","-14.0","","-16.6","","81","","35","","8","","16.1","","96.30","","","","-19","","Snow"
"-79.42","46.36","NORTH BAY A","6085680","2017-01-29 22:00","2017","01","29","22:00","-14.5","","-17.1","","81","","1","","5","","4.8","","96.32","","","","-18","","Snow"
"-79.42","46.36","NORTH BAY A","6085680","2017-01-29 23:00","2017","01","29","23:00","-15.1","","-17.6","","81","","36","","8","","4.0","","96.31","","","","-20","","Snow"
"-79.42","46.36","NORTH BAY A","6085680","2017-01-30 00:00","2017","01","30","00:00","-17.3","","-19.0","","87","","34","","4","","16.1","","96.33","","","","-20","","Snow"
"-79.42","46.36","NORTH BAY A","6085680","2017-01-30 01:00","2017","01","30","01:00","-16.9","","-18.9","","85","","35","","5","","16.1","","96.35","","","","-21","","NA"
"-79.42","46.36","NORTH BAY A","6085680","2017-01-30 02:00","2017","01","30","02:00","-16.3","","-18.6","","83","","36","","8","","16.1","","96.34","","","","-22","","NA"
"-79.42","46.36","NORTH BAY A","6085680","2017-01-30 03:00","2017","01","30","03:00","-16.6","","-19.1","","81","","35","","9","","16.1","","96.41","","","","-23","","NA"
"-79.42","46.36","NORTH BAY A","6085680","2017-01-30 04:00","2017","01","30","04:00","-18.4","","-20.5","","84","","35","","5","","16.1","","96.41","","","","-22","","NA"
"-79.42","46.36","NORTH BAY A","6085680","2017-01-30 05:00","2017","01","30","05:00","-19.2","","-21.3","","84","","1","","11","","16.1","","96.42","","","","-27","","NA"
"-79.42","46.36","NORTH BAY A","6085680","2017-01-30 06:00","2017","01","30","06:00","-19.9","","-22.1","","83","","36","","9","","16.1","","96.46","","","","-27","","NA"
"-79.42","46.36","NORTH BAY A","6085680","2017-01-30 07:00","2017","01","30","07:00","-19.8","","-22.0","","83","","35","","8","","16.1","","96.48","","","","-26","","NA"
"-79.42","46.36","NORTH BAY A","6085680","2017-01-30 08:00","2017","01","30","08:00","-18.9","","-21.1","","83","","1","","8","","16.1","","96.55","","","","-25","","NA"
"-79.42","46.36","NORTH BAY A","6085680","2017-01-30 09:00","2017","01","30","09:00","-18.6","","-21.0","","82","","33","","11","","16.1","","96.60","","","","-26","","NA"
"-79.42","46.36","NORTH BAY A","6085680","2017-01-30 10:00","2017","01","30","10:00","-17.4","","-20.1","","80","","1","","13","","16.1","","96.62","","","","-25","","NA"
"-79.42","46.36","NORTH BAY A","6085680","2017-01-30 11:00","2017","01","30","11:00","-15.9","","-19.7","","73","","31","","5","","16.1","","96.63","","","","-20","","NA"
"-79.42","46.36","NORTH BAY A","6085680","2017-01-30 12:00","2017","01","30","12:00","-14.9","","-20.1","","65","","31","","11","","16.1","","96.60","","","","-21","","NA"
"-79.42","46.36","NORTH BAY A","6085680","2017-01-30 13:00","2017","01","30","13:00","-14.9","","-18.7","","73","","21","","17","","16.1","","96.57","","","","-23","","NA"
"-79.42","46.36","NORTH BAY A","6085680","2017-01-30 14:00","2017","01","30","14:00","-14.6","","-18.6","","72","","22","","15","","16.1","","96.55","","","","-22","","NA"
"-79.42","46.36","NORTH BAY A","6085680","2017-01-30 15:00","2017","01","30","15:00","-14.8","","-19.3","","69","","23","","17","","16.1","","96.57","","","","-23","","NA"
"-79.42","46.36","NORTH BAY A","6085680","2017-01-30 16:00","2017","01","30","16:00","-14.7","","-19.7","","66","","24","","17","","16.1","","96.61","","","","-23","","NA"
"-79.42","46.36","NORTH BAY A","6085680","2017-01-30 17:00","2017","01","30","17:00","-14.9","","-19.7","","67","","25","","8","","16.1","","96.60","","","","-20","","Snow"
"-79.42","46.36","NORTH BAY A","6085680","2017-01-30 18:00","2017","01","30","18:00","-17.0","","-20.0","","78","","","","0","","16.1","","96.62","","","","","","NA"
"-79.42","46.36","NORTH BAY A","6085680","2017-01-30 19:00","2017","01","30","19:00","-18.2","","-20.6","","82","","","","0","","16.1","","96.62","","","","","","NA"
"-79.42","46.36","NORTH BAY A","6085680","2017-01-30 20:00","2017","01","30","20:00","-18.6","","-20.2","","88","","14","","5","","16.1","","96.59","","","","-23","","NA"
"-79.42","46.36","NORTH BAY A","6085680","2017-01-30 21:00","2017","01","30","21:00","-18.0","","-20.8","","79","","14","","8","","16.1","","96.56","","","","-24","","NA"
"-79.42","46.36","NORTH BAY A","6085680","2017-01-30 22:00","2017","01","30","22:00","-18.2","","-21.2","","77","","12","","8","","16.1","","96.54","","","","-24","","NA"
"-79.42","46.36","NORTH BAY A","6085680","2017-01-30 23:00","2017","01","30","23:00","-18.0","","-21.1","","77","","13","","5","","16.1","","96.54","","","","-22","","NA"
"-79.42","46.36","NORTH BAY A","6085680","2017-01-31 00:00","2017","01","31","00:00","-19.4","","-21.4","","84","","12","","9","","16.1","","96.52","","","","-26","","NA"
"-79.42","46.36","NORTH BAY A","6085680","2017-01-31 01:00","2017","01","31","01:00","-19.7","","-21.6","","86","","9","","8","","16.1","","96.44","","","","-26","","NA"
"-79.42","46.36","NORTH BAY A","6085680","2017-01-31 02:00","2017","01","31","02:00","-16.6","","-19.1","","81","","11","","11","","16.1","","96.41","","","","-24","","NA"
"-79.42","46.36","NORTH BAY A","6085680","2017-01-31 03:00","2017","01","31","03:00","-16.4","","-18.8","","82","","10","","11","","16.1","","96.37","","","","-23","","Snow"
"-79.42","46.36","NORTH BAY A","6085680","2017-01-31 04:00","2017","01","31","04:00","-16.0","","-18.0","","85","","9","","17","","16.1","","96.31","","","","-25","","Snow"
"-79.42","46.36","NORTH BAY A","6085680","2017-01-31 05:00","2017","01","31","05:00","-15.0","","-17.0","","85","","10","","15","","16.1","","96.28","","","","-23","","Snow"
"-79.42","46.36","NORTH BAY A","6085680","2017-01-31 06:00","2017","01","31","06:00","-14.8","","-16.8","","85","","9","","13","","16.1","","96.25","","","","-22","","Snow"
"-79.42","46.36","NORTH BAY A","6085680","2017-01-31 07:00","2017","01","31","07:00","-14.2","","-16.2","","85","","11","","15","","16.1","","96.23","","","","-22","","Snow"
"-79.42","46.36","NORTH BAY A","6085680","2017-01-31 08:00","2017","01","31","08:00","-14.0","","-16.2","","84","","10","","18","","16.1","","96.22","","","","-22","","Snow"
"-79.42","46.36","NORTH BAY A","6085680","2017-01-31 09:00","2017","01","31","09:00","-13.5","","-16.0","","82","","9","","15","","16.1","","96.26","","","","-21","","Snow"
"-79.42","46.36","NORTH BAY A","6085680","2017-01-31 10:00","2017","01","31","10:00","-12.6","","-15.4","","80","","13","","13","","16.1","","96.29","","","","-19","","NA"
"-79.42","46.36","NORTH BAY A","6085680","2017-01-31 11:00","2017","01","31","11:00","-11.6","","-14.7","","78","","12","","21","","16.1","","96.28","","","","-20","","NA"
"-79.42","46.36","NORTH BAY A","6085680","2017-01-31 12:00","2017","01","31","12:00","-10.1","","-13.9","","74","","13","","18","","16.1","","96.23","","","","-18","","NA"
"-79.42","46.36","NORTH BAY A","6085680","2017-01-31 13:00","2017","01","31","13:00","-9.2","","-13.4","","72","","9","","17","","16.1","","96.14","","","","-16","","NA"
"-79.42","46.36","NORTH BAY A","6085680","2017-01-31 14:00","2017","01","31","14:00","-8.7","","-13.1","","71","","10","","13","","16.1","","96.10","","","","-15","","NA"
"-79.42","46.36","NORTH BAY A","6085680","2017-01-31 15:00","2017","01","31","15:00","-7.3","","-12.2","","68","","9","","11","","16.1","","96.09","","","","-12","","NA"
"-79.42","46.36","NORTH BAY A","6085680","2017-01-31 16:00","2017","01","31","16:00","-8.3","","-13.0","","69","","8","","11","","16.1","","96.11","","","","-14","","NA"
"-79.42","46.36","NORTH BAY A","6085680","2017-01-31 17:00","2017","01","31","17:00","-8.7","","-12.9","","72","","8","","9","","16.1","","96.13","","","","-13","","NA"
"-79.42","46.36","NORTH BAY A","6085680","2017-01-31 18:00","2017","01","31","18:00","-9.4","","-13.2","","74","","7","","13","","16.1","","96.18","","","","-15","","NA"
"-79.42","46.36","NORTH BAY A","6085680","2017-01-31 19:00","2017","01","31","19:00","-10.3","","-13.8","","76","","9","","17","","16.1","","96.17","","","","-18","","NA"
"-79.42","46.36","NORTH BAY A","6085680","2017-01-31 20:00","2017","01","31","20:00","-10.8","","-14.1","","77","","10","","13","","16.1","","96.19","","","","-17","","NA"
"-79.42","46.36","NORTH BAY A","6085680","2017-01-31 21:00","2017","01","31","21:00","-10.6","","-13.9","","77","","10","","17","","16.1","","96.17","","","","-18","","NA"
"-79.42","46.36","NORTH BAY A","6085680","2017-01-31 22:00","2017","01","31","22:00","-10.9","","-14.0","","78","","10","","18","","16.1","","96.15","","","","-19","","NA"
"-79.42","46.36","NORTH BAY A","6085680","2017-01-31 23:00","2017","01","31","23:00","-10.8","","-14.1","","77","","10","","17","","16.1","","96.12","","","","-18","","NA"
