"Longitude (x)","Latitude (y)","Station Name","Climate ID","Date/Time","Year","Month","Day","Time","Temp (°C)","Temp Flag","Dew Point Temp (°C)","Dew Point Temp Flag","Rel Hum (%)","Rel Hum Flag","Wind Dir (10s deg)","Wind Dir Flag","Wind Spd (km/h)","Wind Spd Flag","Visibility (km)","Visibility Flag","Stn Press (kPa)","Stn Press Flag","Hmdx","Hmdx Flag","Wind Chill","Wind Chill Flag","Weather"
"-81.15","43.03","LONDON A","6144473","2017-09-01 00:00","2017","09","01","00:00","7.5","","4.6","","82","","35","","6","","24.1","","99.04","","","","","","NA"
"-81.15","43.03","LONDON A","6144473","2017-09-01 01:00","2017","09","01","01:00","6.7","","4.4","","85","","1","","9","","24.1","","99.04","","","","","","Mainly Clear"
"-81.15","43.03","LONDON A","6144473","2017-09-01 02:00","2017","09","01","02:00","6.5","","4.4","","86","","2","","9","","24.1","","99.04","","","","","","NA"
"-81.15","43.03","LONDON A","6144473","2017-09-01 03:00","2017","09","01","03:00","5.9","","4.2","","89","","2","","10","","24.1","","99.06","","","","","","NA"
"-81.15","43.03","LONDON A","6144473","2017-09-01 04:00","2017","09","01","04:00","4.7","","3.6","","93","","1","","7","","24.1","","99.07","","","","","","Clear"
"-81.15","43.03","LONDON A","6144473","2017-09-01 05:00","2017","09","01","05:00","4.7","","3.9","","95","","1","","9","","24.1","","99.11","","","","","","NA"
"-81.15","43.03","LONDON A","6144473","2017-09-01 06:00","2017","09","01","06:00","5.7","","4.2","","90","","3","","9","","24.1","","99.12","","","","","","NA"
"-81.15","43.03","LONDON A","6144473","2017-09-01 07:00","2017","09","01","07:00","7.5","","5.2","","86","","3","","11","","24.1","","99.16","","","","","","Mostly Cloudy"
"-81.15","43.03","LONDON A","6144473","2017-09-01 08:00","2017","09","01","08:00","9.2","","6.1","","81","","5","","10","","24.1","","99.20","","","","","","NA"
"-81.15","43.03","LONDON A","6144473","2017-09-01 09:00","2017","09","01","09:00","12.1","","6.2","","67","","6","","11","","24.1","","99.22","","","","","","NA"
"-81.15","43.03","LONDON A","6144473","2017-09-01 10:00","2017","09","01","10:00","13.8","","5.3","","56","","8","","12","","24.1","","99.20","","","","","","Mostly Cloudy"
"-81.15","43.03","LONDON A","6144473","2017-09-01 11:00","2017","09","01","11:00","14.8","","5.4","","53","","11","","10","","24.1","","99.16","","","","","","NA"
"-81.15","43.03","LONDON A","6144473","2017-09-01 12:00","2017","09","01","12:00","15.0","","4.5","","49","","8","","14","","24.1","","99.08","","","","","","NA"
"-81.15","43.03","LONDON A","6144473","2017-09-01 13:00","2017","09","01","13:00","16.0","","5.0","","48","","7","","13","","24.1","","99.07","","","","","","Mostly Cloudy"
"-81.15","43.03","LONDON A","6144473","2017-09-01 14:00","2017","09","01","14:00","16.5","","4.9","","46","","14","","5","","24.1","","99.03","","","","","","NA"
"-81.15","43.03","LONDON A","6144473","2017-09-01 15:00","2017","09","01","15:00","16.3","","5.3","","48","","4","","7","","24.1","","98.98","","","","","","NA"
"-81.15","43.03","LONDON A","6144473","2017-09-01 16:00","2017","09","01","16:00","16.3","","5.9","","50","","8","","8","","24.1","","98.95","","","","","","Mostly Cloudy"
"-81.15","43.03","LONDON A","6144473","2017-09-01 17:00","2017","09","01","17:00","15.9","","5.9","","51","","6","","10","","24.1","","98.91","","","","","","NA"
"-81.15","43.03","LONDON A","6144473","2017-09-01 18:00","2017","09","01","18:00","14.6","","7.6","","63","","3","","6","","24.1","","98.88","","","","","","NA"
"-81.15","43.03","LONDON A","6144473","2017-09-01 19:00","2017","09","01","19:00","13.5","","7.0","","65","","36","","3","","24.1","","98.88","","","","","","Mostly Cloudy"
"-81.15","43.03","LONDON A","6144473","2017-09-01 20:00","2017","09","01","20:00","10.8","","7.8","","82","","5","","7","","24.1","","98.90","","","","","","NA"
"-81.15","43.03","LONDON A","6144473","2017-09-01 21:00","2017","09","01","21:00","10.9","","7.1","","77","","9","","8","","24.1","","98.90","","","","","","NA"
"-81.15","43.03","LONDON A","6144473","2017-09-01 22:00","2017","09","01","22:00","8.3","","6.6","","89","","7","","6","","24.1","","98.93","","","","","","Mainly Clear"
"-81.15","43.03","LONDON A","6144473","2017-09-01 23:00","2017","09","01","23:00","7.5","","6.1","","91","","6","","6","","24.1","","98.95","","","","","","NA"
"-81.15","43.03","LONDON A","6144473","2017-09-02 00:00","2017","09","02","00:00","8.1","","5.8","","86","","5","","10","","24.1","","98.93","","","","","","NA"
"-81.15","43.03","LONDON A","6144473","2017-09-02 01:00","2017","09","02","01:00","7.8","","5.0","","82","","5","","12","","24.1","","98.90","","","","","","Mostly Cloudy"
"-81.15","43.03","LONDON A","6144473","2017-09-02 02:00","2017","09","02","02:00","6.8","","4.0","","82","","7","","10","","24.1","","98.83","","","","","","NA"
"-81.15","43.03","LONDON A","6144473","2017-09-02 03:00","2017","09","02","03:00","6.3","","4.4","","87","","7","","11","","24.1","","98.77","","","","","","NA"
"-81.15","43.03","LONDON A","6144473","2017-09-02 04:00","2017","09","02","04:00","6.6","","4.3","","85","","7","","14","","24.1","","98.70","","","","","","Mainly Clear"
"-81.15","43.03","LONDON A","6144473","2017-09-02 05:00","2017","09","02","05:00","6.6","","4.2","","85","","7","","13","","24.1","","98.69","","","","","","NA"
"-81.15","43.03","LONDON A","6144473","2017-09-02 06:00","2017","09","02","06:00","6.7","","4.7","","87","","7","","14","","24.1","","98.72","","","","","","NA"
"-81.15","43.03","LONDON A","6144473","2017-09-02 07:00","2017","09","02","07:00","8.7","","5.7","","81","","7","","21","","24.1","","98.68","","","","","","Mostly Cloudy"
"-81.15","43.03","LONDON A","6144473","2017-09-02 08:00","2017","09","02","08:00","12.0","","7.0","","71","","8","","20","","24.1","","98.66","","","","","","NA"
"-81.15","43.03","LONDON A","6144473","2017-09-02 09:00","2017","09","02","09:00","15.3","","3.8","","46","","9","","30","","24.1","","98.62","","","","","","NA"
"-81.15","43.03","LONDON A","6144473","2017-09-02 10:00","2017","09","02","10:00","17.9","","1.4","","33","","10","","25","","24.1","","98.57","","","","","","Mainly Clear"
"-81.15","43.03","LONDON A","6144473","2017-09-02 11:00","2017","09","02","11:00","19.4","","3.4","","34","","11","","26","","24.1","","98.53","","","","","","NA"
"-81.15","43.03","LONDON A","6144473","2017-09-02 12:00","2017","09","02","12:00","20.3","","6.1","","39","","10","","27","","24.1","","98.44","","","","","","NA"
"-81.15","43.03","LONDON A","6144473","2017-09-02 13:00","2017","09","02","13:00","21.1","","7.4","","41","","9","","23","","24.1","","98.37","","","","","","Mostly Cloudy"
"-81.15","43.03","LONDON A","6144473","2017-09-02 14:00","2017","09","02","14:00","18.9","","8.2","","49","","14","","26","","24.1","","98.38","","","","","","NA"
"-81.15","43.03","LONDON A","6144473","2017-09-02 15:00","2017","09","02","15:00","17.7","","8.5","","54","","12","","24","","24.1","","98.34","","","","","","NA"
"-81.15","43.03","LONDON A","6144473","2017-09-02 16:00","2017","09","02","16:00","18.0","","8.8","","54","","12","","15","","24.1","","98.26","","","","","","Cloudy"
"-81.15","43.03","LONDON A","6144473","2017-09-02 17:00","2017","09","02","17:00","16.6","","11.1","","69","","13","","22","","24.1","","98.25","","","","","","Rain Showers"
"-81.15","43.03","LONDON A","6144473","2017-09-02 18:00","2017","09","02","18:00","14.9","","12.0","","83","","16","","12","","24.1","","98.25","","","","","","Rain Showers"
"-81.15","43.03","LONDON A","6144473","2017-09-02 19:00","2017","09","02","19:00","14.2","","12.9","","92","","15","","7","","24.1","","98.22","","","","","","Rain Showers"
"-81.15","43.03","LONDON A","6144473","2017-09-02 20:00","2017","09","02","20:00","14.3","","12.9","","91","","13","","19","","24.1","","98.19","","","","","","NA"
"-81.15","43.03","LONDON A","6144473","2017-09-02 21:00","2017","09","02","21:00","13.9","","13.1","","94","","13","","11","","24.1","","98.15","","","","","","NA"
"-81.15","43.03","LONDON A","6144473","2017-09-02 22:00","2017","09","02","22:00","13.9","","13.1","","95","","12","","10","","8.1","","98.10","","","","","","Rain Showers,Fog"
"-81.15","43.03","LONDON A","6144473","2017-09-02 23:00","2017","09","02","23:00","13.7","","13.1","","96","","12","","12","","8.1","","98.03","","","","","","Rain Showers,Fog"
"-81.15","43.03","LONDON A","6144473","2017-09-03 00:00","2017","09","03","00:00","13.8","","13.4","","97","","14","","6","","2.4","","97.95","","","","","","Rain Showers,Fog"
"-81.15","43.03","LONDON A","6144473","2017-09-03 01:00","2017","09","03","01:00","14.2","","13.9","","98","","31","","6","","2.4","","97.87","","","","","","Rain Showers,Fog"
"-81.15","43.03","LONDON A","6144473","2017-09-03 02:00","2017","09","03","02:00","13.8","","13.4","","98","","34","","8","","3.2","","97.84","","","","","","Rain Showers,Fog"
"-81.15","43.03","LONDON A","6144473","2017-09-03 03:00","2017","09","03","03:00","13.8","","13.3","","97","","30","","10","","6.4","","97.82","","","","","","Fog"
"-81.15","43.03","LONDON A","6144473","2017-09-03 04:00","2017","09","03","04:00","14.1","","13.5","","96","","29","","9","","16.1","","97.82","","","","","","Cloudy"
"-81.15","43.03","LONDON A","6144473","2017-09-03 05:00","2017","09","03","05:00","13.7","","13.3","","97","","29","","10","","8.1","","97.84","","","","","","Fog"
"-81.15","43.03","LONDON A","6144473","2017-09-03 06:00","2017","09","03","06:00","13.9","","13.3","","97","","28","","9","","6.4","","97.88","","","","","","Fog"
"-81.15","43.03","LONDON A","6144473","2017-09-03 07:00","2017","09","03","07:00","14.4","","13.7","","95","","29","","11","","9.7","","97.88","","","","","","Fog"
"-81.15","43.03","LONDON A","6144473","2017-09-03 08:00","2017","09","03","08:00","14.6","","13.3","","92","","28","","13","","16.1","","97.92","","","","","","NA"
"-81.15","43.03","LONDON A","6144473","2017-09-03 09:00","2017","09","03","09:00","14.5","","12.9","","90","","28","","17","","24.1","","97.94","","","","","","Rain Showers"
"-81.15","43.03","LONDON A","6144473","2017-09-03 10:00","2017","09","03","10:00","15.9","","12.4","","79","","29","","18","","24.1","","97.95","","","","","","Mostly Cloudy"
"-81.15","43.03","LONDON A","6144473","2017-09-03 11:00","2017","09","03","11:00","17.8","","11.8","","68","","28","","20","","24.1","","97.97","","","","","","NA"
"-81.15","43.03","LONDON A","6144473","2017-09-03 12:00","2017","09","03","12:00","17.9","","11.0","","64","","28","","20","","24.1","","97.97","","","","","","NA"
"-81.15","43.03","LONDON A","6144473","2017-09-03 13:00","2017","09","03","13:00","18.2","","11.5","","64","","27","","26","","24.1","","97.98","","","","","","Mostly Cloudy"
"-81.15","43.03","LONDON A","6144473","2017-09-03 14:00","2017","09","03","14:00","18.3","","13.2","","72","","28","","16","","24.1","","98.00","","","","","","NA"
"-81.15","43.03","LONDON A","6144473","2017-09-03 15:00","2017","09","03","15:00","19.5","","13.1","","66","","28","","17","","24.1","","97.99","","","","","","NA"
"-81.15","43.03","LONDON A","6144473","2017-09-03 16:00","2017","09","03","16:00","19.0","","12.7","","66","","27","","19","","24.1","","97.99","","","","","","Mostly Cloudy"
"-81.15","43.03","LONDON A","6144473","2017-09-03 17:00","2017","09","03","17:00","20.0","","12.5","","62","","27","","27","","24.1","","98.01","","","","","","NA"
"-81.15","43.03","LONDON A","6144473","2017-09-03 18:00","2017","09","03","18:00","19.3","","12.9","","66","","27","","14","","24.1","","98.04","","","","","","NA"
"-81.15","43.03","LONDON A","6144473","2017-09-03 19:00","2017","09","03","19:00","16.9","","12.6","","76","","24","","9","","24.1","","98.05","","","","","","Mostly Cloudy"
"-81.15","43.03","LONDON A","6144473","2017-09-03 20:00","2017","09","03","20:00","15.7","","12.5","","81","","23","","12","","24.1","","98.06","","","","","","NA"
"-81.15","43.03","LONDON A","6144473","2017-09-03 21:00","2017","09","03","21:00","15.7","","12.5","","82","","23","","9","","19.3","","98.04","","","","","","NA"
"-81.15","43.03","LONDON A","6144473","2017-09-03 22:00","2017","09","03","22:00","15.0","","12.5","","85","","21","","10","","24.1","","98.02","","","","","","Mainly Clear"
"-81.15","43.03","LONDON A","6144473","2017-09-03 23:00","2017","09","03","23:00","14.8","","12.1","","84","","21","","9","","24.1","","97.99","","","","","","NA"
"-81.15","43.03","LONDON A","6144473","2017-09-04 00:00","2017","09","04","00:00","15.4","","11.9","","79","","21","","13","","24.1","","97.96","","","","","","NA"
"-81.15","43.03","LONDON A","6144473","2017-09-04 01:00","2017","09","04","01:00","15.0","","12.0","","82","","23","","11","","24.1","","97.94","","","","","","Mainly Clear"
"-81.15","43.03","LONDON A","6144473","2017-09-04 02:00","2017","09","04","02:00","15.4","","12.6","","83","","24","","12","","24.1","","97.92","","","","","","NA"
"-81.15","43.03","LONDON A","6144473","2017-09-04 03:00","2017","09","04","03:00","14.2","","12.1","","87","","21","","6","","24.1","","97.87","","","","","","NA"
"-81.15","43.03","LONDON A","6144473","2017-09-04 04:00","2017","09","04","04:00","13.4","","11.7","","89","","20","","8","","24.1","","97.81","","","","","","Mainly Clear"
"-81.15","43.03","LONDON A","6144473","2017-09-04 05:00","2017","09","04","05:00","14.5","","12.0","","85","","23","","14","","24.1","","97.80","","","","","","NA"
"-81.15","43.03","LONDON A","6144473","2017-09-04 06:00","2017","09","04","06:00","14.9","","11.5","","80","","21","","16","","24.1","","97.81","","","","","","NA"
"-81.15","43.03","LONDON A","6144473","2017-09-04 07:00","2017","09","04","07:00","16.1","","12.7","","80","","21","","17","","24.1","","97.79","","","","","","Mainly Clear"
"-81.15","43.03","LONDON A","6144473","2017-09-04 08:00","2017","09","04","08:00","18.5","","14.0","","75","","22","","25","","24.1","","97.75","","","","","","NA"
"-81.15","43.03","LONDON A","6144473","2017-09-04 09:00","2017","09","04","09:00","20.4","","15.0","","71","","22","","23","","24.1","","97.72","","","","","","NA"
"-81.15","43.03","LONDON A","6144473","2017-09-04 10:00","2017","09","04","10:00","22.7","","14.9","","61","","22","","30","","24.1","","97.64","","27","","","","Mainly Clear"
"-81.15","43.03","LONDON A","6144473","2017-09-04 11:00","2017","09","04","11:00","23.9","","14.6","","55","","22","","36","","19.3","","97.51","","28","","","","NA"
"-81.15","43.03","LONDON A","6144473","2017-09-04 12:00","2017","09","04","12:00","25.0","","15.8","","56","","22","","30","","24.1","","97.39","","29","","","","NA"
"-81.15","43.03","LONDON A","6144473","2017-09-04 13:00","2017","09","04","13:00","25.4","","15.1","","52","","20","","34","","24.1","","97.25","","29","","","","Mainly Clear"
"-81.15","43.03","LONDON A","6144473","2017-09-04 14:00","2017","09","04","14:00","24.5","","16.1","","59","","19","","42","","24.1","","97.10","","29","","","","NA"
"-81.15","43.03","LONDON A","6144473","2017-09-04 15:00","2017","09","04","15:00","25.1","","15.6","","55","","20","","41","","24.1","","96.99","","29","","","","NA"
"-81.15","43.03","LONDON A","6144473","2017-09-04 16:00","2017","09","04","16:00","25.3","","15.1","","53","","21","","40","","24.1","","96.93","","29","","","","Mostly Cloudy"
"-81.15","43.03","LONDON A","6144473","2017-09-04 17:00","2017","09","04","17:00","25.0","","15.7","","56","","22","","41","","19.3","","96.89","","29","","","","Thunderstorms,Rain Showers"
"-81.15","43.03","LONDON A","6144473","2017-09-04 18:00","2017","09","04","18:00","22.4","","17.7","","74","","28","","32","","12.9","","96.87","","28","","","","Thunderstorms,Rain Showers"
"-81.15","43.03","LONDON A","6144473","2017-09-04 19:00","2017","09","04","19:00","18.0","","17.1","","94","","30","","16","","4.8","","97.08","","","","","","Thunderstorms,Moderate Rain Showers,Fog"
"-81.15","43.03","LONDON A","6144473","2017-09-04 20:00","2017","09","04","20:00","17.0","","16.1","","94","","32","","17","","4.8","","97.16","","","","","","Rain Showers"
"-81.15","43.03","LONDON A","6144473","2017-09-04 21:00","2017","09","04","21:00","16.2","","14.6","","90","","33","","16","","24.1","","97.25","","","","","","NA"
"-81.15","43.03","LONDON A","6144473","2017-09-04 22:00","2017","09","04","22:00","15.1","","13.9","","93","","30","","9","","24.1","","97.28","","","","","","Cloudy"
"-81.15","43.03","LONDON A","6144473","2017-09-04 23:00","2017","09","04","23:00","14.7","","13.9","","95","","29","","7","","24.1","","97.36","","","","","","NA"
"-81.15","43.03","LONDON A","6144473","2017-09-05 00:00","2017","09","05","00:00","14.5","","13.7","","95","","30","","4","","24.1","","97.35","","","","","","NA"
"-81.15","43.03","LONDON A","6144473","2017-09-05 01:00","2017","09","05","01:00","14.2","","13.7","","97","","25","","7","","24.1","","97.37","","","","","","Cloudy"
"-81.15","43.03","LONDON A","6144473","2017-09-05 02:00","2017","09","05","02:00","13.4","","13.0","","97","","23","","8","","24.1","","97.39","","","","","","NA"
"-81.15","43.03","LONDON A","6144473","2017-09-05 03:00","2017","09","05","03:00","13.6","","13.3","","98","","26","","9","","24.1","","97.35","","","","","","NA"
"-81.15","43.03","LONDON A","6144473","2017-09-05 04:00","2017","09","05","04:00","13.8","","13.5","","98","","26","","9","","0.2","","97.39","","","","","","Fog"
"-81.15","43.03","LONDON A","6144473","2017-09-05 05:00","2017","09","05","05:00","13.7","","13.4","","98","","28","","6","","0.8","","97.42","","","","","","Fog"
"-81.15","43.03","LONDON A","6144473","2017-09-05 06:00","2017","09","05","06:00","13.8","","13.6","","98","","28","","11","","0.8","","97.45","","","","","","Fog"
"-81.15","43.03","LONDON A","6144473","2017-09-05 07:00","2017","09","05","07:00","13.8","","13.6","","99","","25","","10","","0.6","","97.48","","","","","","Fog"
"-81.15","43.03","LONDON A","6144473","2017-09-05 08:00","2017","09","05","08:00","14.1","","13.9","","99","","28","","3","","2.0","","97.45","","","","","","Fog"
"-81.15","43.03","LONDON A","6144473","2017-09-05 09:00","2017","09","05","09:00","15.8","","14.8","","93","","20","","6","","19.3","","97.44","","","","","","NA"
"-81.15","43.03","LONDON A","6144473","2017-09-05 10:00","2017","09","05","10:00","18.3","","13.3","","72","","26","","15","","19.3","","97.46","","","","","","Mostly Cloudy"
"-81.15","43.03","LONDON A","6144473","2017-09-05 11:00","2017","09","05","11:00","17.2","","13.2","","77","","28","","21","","24.1","","97.45","","","","","","NA"
"-81.15","43.03","LONDON A","6144473","2017-09-05 12:00","2017","09","05","12:00","17.6","","12.1","","70","","27","","17","","24.1","","97.45","","","","","","NA"
"-81.15","43.03","LONDON A","6144473","2017-09-05 13:00","2017","09","05","13:00","18.2","","11.8","","66","","28","","13","","24.1","","97.47","","","","","","Mostly Cloudy"
"-81.15","43.03","LONDON A","6144473","2017-09-05 14:00","2017","09","05","14:00","18.5","","12.1","","66","","27","","17","","24.1","","97.49","","","","","","NA"
"-81.15","43.03","LONDON A","6144473","2017-09-05 15:00","2017","09","05","15:00","18.3","","10.9","","62","","31","","14","","24.1","","97.49","","","","","","NA"
"-81.15","43.03","LONDON A","6144473","2017-09-05 16:00","2017","09","05","16:00","18.6","","10.2","","58","","33","","17","","24.1","","97.50","","","","","","Mainly Clear"
"-81.15","43.03","LONDON A","6144473","2017-09-05 17:00","2017","09","05","17:00","18.3","","10.1","","58","","31","","15","","24.1","","97.54","","","","","","NA"
"-81.15","43.03","LONDON A","6144473","2017-09-05 18:00","2017","09","05","18:00","17.0","","10.8","","66","","31","","7","","24.1","","97.57","","","","","","NA"
"-81.15","43.03","LONDON A","6144473","2017-09-05 19:00","2017","09","05","19:00","15.7","","11.0","","74","","29","","4","","24.1","","97.62","","","","","","Mainly Clear"
"-81.15","43.03","LONDON A","6144473","2017-09-05 20:00","2017","09","05","20:00","14.3","","11.0","","80","","35","","18","","24.1","","97.70","","","","","","NA"
"-81.15","43.03","LONDON A","6144473","2017-09-05 21:00","2017","09","05","21:00","12.1","","10.5","","90","","3","","11","","24.1","","97.78","","","","","","NA"
"-81.15","43.03","LONDON A","6144473","2017-09-05 22:00","2017","09","05","22:00","11.8","","10.7","","93","","36","","2","","24.1","","97.79","","","","","","Mostly Cloudy"
"-81.15","43.03","LONDON A","6144473","2017-09-05 23:00","2017","09","05","23:00","12.0","","11.2","","95","","26","","17","","24.1","","97.84","","","","","","NA"
"-81.15","43.03","LONDON A","6144473","2017-09-06 00:00","2017","09","06","00:00","11.9","","10.1","","89","","30","","4","","24.1","","97.80","","","","","","NA"
"-81.15","43.03","LONDON A","6144473","2017-09-06 01:00","2017","09","06","01:00","9.5","","8.9","","96","","36","","1","","24.1","","97.77","","","","","","Mainly Clear"
"-81.15","43.03","LONDON A","6144473","2017-09-06 02:00","2017","09","06","02:00","9.5","","9.1","","98","","32","","4","","24.1","","97.78","","","","","","NA"
"-81.15","43.03","LONDON A","6144473","2017-09-06 03:00","2017","09","06","03:00","9.9","","9.6","","98","","31","","8","","12.9","","97.81","","","","","","NA"
"-81.15","43.03","LONDON A","6144473","2017-09-06 04:00","2017","09","06","04:00","9.7","","9.2","","97","","28","","9","","24.1","","97.85","","","","","","Clear"
"-81.15","43.03","LONDON A","6144473","2017-09-06 05:00","2017","09","06","05:00","9.3","","8.7","","96","","31","","5","","19.3","","97.87","","","","","","NA"
"-81.15","43.03","LONDON A","6144473","2017-09-06 06:00","2017","09","06","06:00","8.8","","8.3","","97","","36","","3","","19.3","","97.90","","","","","","NA"
"-81.15","43.03","LONDON A","6144473","2017-09-06 07:00","2017","09","06","07:00","10.2","","9.9","","98","","30","","4","","19.3","","97.93","","","","","","Mainly Clear"
"-81.15","43.03","LONDON A","6144473","2017-09-06 08:00","2017","09","06","08:00","12.7","","11.2","","91","","28","","5","","24.1","","97.95","","","","","","NA"
"-81.15","43.03","LONDON A","6144473","2017-09-06 09:00","2017","09","06","09:00","14.7","","10.9","","78","","28","","9","","24.1","","97.99","","","","","","NA"
"-81.15","43.03","LONDON A","6144473","2017-09-06 10:00","2017","09","06","10:00","16.2","","9.4","","64","","31","","9","","24.1","","98.00","","","","","","Mainly Clear"
"-81.15","43.03","LONDON A","6144473","2017-09-06 11:00","2017","09","06","11:00","16.9","","8.2","","56","","25","","7","","24.1","","97.99","","","","","","NA"
"-81.15","43.03","LONDON A","6144473","2017-09-06 12:00","2017","09","06","12:00","16.2","","8.8","","61","","29","","7","","24.1","","97.96","","","","","","NA"
"-81.15","43.03","LONDON A","6144473","2017-09-06 13:00","2017","09","06","13:00","17.8","","8.3","","54","","25","","13","","24.1","","97.96","","","","","","Mostly Cloudy"
"-81.15","43.03","LONDON A","6144473","2017-09-06 14:00","2017","09","06","14:00","18.3","","8.8","","54","","27","","14","","24.1","","97.96","","","","","","NA"
"-81.15","43.03","LONDON A","6144473","2017-09-06 15:00","2017","09","06","15:00","17.3","","7.9","","54","","29","","13","","24.1","","97.93","","","","","","NA"
"-81.15","43.03","LONDON A","6144473","2017-09-06 16:00","2017","09","06","16:00","16.8","","8.6","","58","","30","","7","","24.1","","97.94","","","","","","Rain Showers"
"-81.15","43.03","LONDON A","6144473","2017-09-06 17:00","2017","09","06","17:00","15.8","","8.7","","62","","28","","8","","24.1","","97.95","","","","","","NA"
"-81.15","43.03","LONDON A","6144473","2017-09-06 18:00","2017","09","06","18:00","15.5","","10.3","","71","","33","","4","","24.1","","97.94","","","","","","NA"
"-81.15","43.03","LONDON A","6144473","2017-09-06 19:00","2017","09","06","19:00","14.1","","8.6","","69","","33","","5","","24.1","","97.96","","","","","","Mostly Cloudy"
"-81.15","43.03","LONDON A","6144473","2017-09-06 20:00","2017","09","06","20:00","13.8","","8.5","","70","","30","","7","","24.1","","98.01","","","","","","NA"
"-81.15","43.03","LONDON A","6144473","2017-09-06 21:00","2017","09","06","21:00","13.1","","9.2","","77","","31","","9","","24.1","","97.99","","","","","","NA"
"-81.15","43.03","LONDON A","6144473","2017-09-06 22:00","2017","09","06","22:00","11.7","","9.0","","83","","25","","3","","24.1","","97.99","","","","","","Mostly Cloudy"
"-81.15","43.03","LONDON A","6144473","2017-09-06 23:00","2017","09","06","23:00","9.4","","8.7","","95","","36","","2","","24.1","","97.99","","","","","","NA"
"-81.15","43.03","LONDON A","6144473","2017-09-07 00:00","2017","09","07","00:00","9.2","","8.5","","96","","25","","6","","24.1","","97.97","","","","","","NA"
"-81.15","43.03","LONDON A","6144473","2017-09-07 01:00","2017","09","07","01:00","9.0","","8.5","","97","","28","","6","","24.1","","97.94","","","","","","Clear"
"-81.15","43.03","LONDON A","6144473","2017-09-07 02:00","2017","09","07","02:00","8.9","","8.0","","94","","16","","4","","24.1","","97.90","","","","","","NA"
"-81.15","43.03","LONDON A","6144473","2017-09-07 03:00","2017","09","07","03:00","8.5","","7.9","","96","","36","","1","","24.1","","97.88","","","","","","NA"
"-81.15","43.03","LONDON A","6144473","2017-09-07 04:00","2017","09","07","04:00","7.8","","7.2","","95","","36","","1","","24.1","","97.87","","","","","","Mainly Clear"
"-81.15","43.03","LONDON A","6144473","2017-09-07 05:00","2017","09","07","05:00","7.4","","6.9","","97","","36","","2","","24.1","","97.86","","","","","","NA"
"-81.15","43.03","LONDON A","6144473","2017-09-07 06:00","2017","09","07","06:00","8.2","","7.6","","96","","25","","5","","24.1","","97.87","","","","","","NA"
"-81.15","43.03","LONDON A","6144473","2017-09-07 07:00","2017","09","07","07:00","10.0","","9.6","","97","","26","","11","","24.1","","97.88","","","","","","Mainly Clear"
"-81.15","43.03","LONDON A","6144473","2017-09-07 08:00","2017","09","07","08:00","12.6","","11.0","","90","","27","","19","","24.1","","97.90","","","","","","NA"
"-81.15","43.03","LONDON A","6144473","2017-09-07 09:00","2017","09","07","09:00","14.2","","11.1","","82","","26","","23","","24.1","","97.93","","","","","","NA"
"-81.15","43.03","LONDON A","6144473","2017-09-07 10:00","2017","09","07","10:00","15.8","","10.5","","70","","26","","21","","24.1","","97.94","","","","","","Mostly Cloudy"
"-81.15","43.03","LONDON A","6144473","2017-09-07 11:00","2017","09","07","11:00","16.3","","10.0","","66","","29","","19","","24.1","","97.96","","","","","","NA"
"-81.15","43.03","LONDON A","6144473","2017-09-07 12:00","2017","09","07","12:00","16.2","","9.1","","62","","28","","24","","24.1","","97.95","","","","","","NA"
"-81.15","43.03","LONDON A","6144473","2017-09-07 13:00","2017","09","07","13:00","17.2","","9.4","","60","","27","","30","","24.1","","97.97","","","","","","Cloudy"
"-81.15","43.03","LONDON A","6144473","2017-09-07 14:00","2017","09","07","14:00","15.6","","9.4","","66","","28","","19","","24.1","","97.98","","","","","","Rain Showers"
"-81.15","43.03","LONDON A","6144473","2017-09-07 15:00","2017","09","07","15:00","16.5","","9.0","","61","","29","","14","","24.1","","98.00","","","","","","NA"
"-81.15","43.03","LONDON A","6144473","2017-09-07 16:00","2017","09","07","16:00","13.8","","9.3","","74","","32","","16","","24.1","","98.06","","","","","","Rain Showers"
"-81.15","43.03","LONDON A","6144473","2017-09-07 17:00","2017","09","07","17:00","13.7","","10.3","","80","","34","","16","","24.1","","98.08","","","","","","Rain Showers"
"-81.15","43.03","LONDON A","6144473","2017-09-07 18:00","2017","09","07","18:00","12.2","","10.6","","90","","32","","8","","16.1","","98.10","","","","","","Rain Showers"
"-81.15","43.03","LONDON A","6144473","2017-09-07 19:00","2017","09","07","19:00","12.1","","9.6","","84","","29","","6","","12.9","","98.15","","","","","","Rain Showers"
"-81.15","43.03","LONDON A","6144473","2017-09-07 20:00","2017","09","07","20:00","11.2","","9.8","","91","","25","","6","","24.1","","98.18","","","","","","Rain Showers"
"-81.15","43.03","LONDON A","6144473","2017-09-07 21:00","2017","09","07","21:00","11.2","","9.2","","87","","28","","8","","19.3","","98.22","","","","","","Rain Showers"
"-81.15","43.03","LONDON A","6144473","2017-09-07 22:00","2017","09","07","22:00","10.8","","9.8","","94","","24","","10","","24.1","","98.22","","","","","","Rain Showers"
"-81.15","43.03","LONDON A","6144473","2017-09-07 23:00","2017","09","07","23:00","10.7","","9.7","","93","","26","","11","","24.1","","98.26","","","","","","Rain Showers"
"-81.15","43.03","LONDON A","6144473","2017-09-08 00:00","2017","09","08","00:00","10.8","","9.7","","93","","27","","7","","24.1","","98.31","","","","","","Rain Showers"
"-81.15","43.03","LONDON A","6144473","2017-09-08 01:00","2017","09","08","01:00","10.8","","9.7","","93","","22","","8","","24.1","","98.31","","","","","","Rain Showers"
"-81.15","43.03","LONDON A","6144473","2017-09-08 02:00","2017","09","08","02:00","10.9","","10.1","","94","","25","","10","","24.1","","98.33","","","","","","Rain Showers"
"-81.15","43.03","LONDON A","6144473","2017-09-08 03:00","2017","09","08","03:00","11.1","","10.4","","95","","28","","9","","12.9","","98.36","","","","","","Rain Showers"
"-81.15","43.03","LONDON A","6144473","2017-09-08 04:00","2017","09","08","04:00","10.4","","9.7","","95","","","","0","","24.1","","98.40","","","","","","Rain Showers"
"-81.15","43.03","LONDON A","6144473","2017-09-08 05:00","2017","09","08","05:00","10.4","","9.6","","95","","30","","8","","24.1","","98.47","","","","","","Rain Showers"
"-81.15","43.03","LONDON A","6144473","2017-09-08 06:00","2017","09","08","06:00","10.0","","9.3","","95","","26","","7","","24.1","","98.55","","","","","","NA"
"-81.15","43.03","LONDON A","6144473","2017-09-08 07:00","2017","09","08","07:00","10.7","","10.0","","95","","31","","12","","24.1","","98.61","","","","","","Mostly Cloudy"
"-81.15","43.03","LONDON A","6144473","2017-09-08 08:00","2017","09","08","08:00","11.3","","10.2","","93","","27","","10","","24.1","","98.67","","","","","","NA"
"-81.15","43.03","LONDON A","6144473","2017-09-08 09:00","2017","09","08","09:00","12.6","","10.8","","89","","28","","10","","24.1","","98.72","","","","","","NA"
"-81.15","43.03","LONDON A","6144473","2017-09-08 10:00","2017","09","08","10:00","14.3","","10.4","","77","","31","","14","","24.1","","98.77","","","","","","Mostly Cloudy"
"-81.15","43.03","LONDON A","6144473","2017-09-08 11:00","2017","09","08","11:00","14.5","","9.4","","71","","33","","12","","24.1","","98.82","","","","","","NA"
"-81.15","43.03","LONDON A","6144473","2017-09-08 12:00","2017","09","08","12:00","16.3","","9.0","","62","","35","","13","","24.1","","98.88","","","","","","NA"
"-81.15","43.03","LONDON A","6144473","2017-09-08 13:00","2017","09","08","13:00","16.6","","9.1","","61","","36","","8","","24.1","","98.91","","","","","","Mostly Cloudy"
"-81.15","43.03","LONDON A","6144473","2017-09-08 14:00","2017","09","08","14:00","14.7","","10.4","","76","","34","","18","","24.1","","98.94","","","","","","Rain Showers"
"-81.15","43.03","LONDON A","6144473","2017-09-08 15:00","2017","09","08","15:00","16.7","","10.2","","65","","35","","12","","24.1","","98.96","","","","","","NA"
"-81.15","43.03","LONDON A","6144473","2017-09-08 16:00","2017","09","08","16:00","15.2","","8.8","","65","","35","","17","","24.1","","98.98","","","","","","Mostly Cloudy"
"-81.15","43.03","LONDON A","6144473","2017-09-08 17:00","2017","09","08","17:00","15.9","","8.8","","62","","32","","19","","24.1","","99.04","","","","","","NA"
"-81.15","43.03","LONDON A","6144473","2017-09-08 18:00","2017","09","08","18:00","14.0","","7.5","","64","","31","","13","","24.1","","99.09","","","","","","NA"
"-81.15","43.03","LONDON A","6144473","2017-09-08 19:00","2017","09","08","19:00","11.8","","7.3","","74","","34","","12","","24.1","","99.15","","","","","","Mainly Clear"
"-81.15","43.03","LONDON A","6144473","2017-09-08 20:00","2017","09","08","20:00","10.3","","7.0","","80","","35","","16","","24.1","","99.23","","","","","","NA"
"-81.15","43.03","LONDON A","6144473","2017-09-08 21:00","2017","09","08","21:00","8.4","","6.2","","86","","36","","11","","24.1","","99.29","","","","","","NA"
"-81.15","43.03","LONDON A","6144473","2017-09-08 22:00","2017","09","08","22:00","7.7","","6.0","","89","","35","","13","","24.1","","99.31","","","","","","Clear"
"-81.15","43.03","LONDON A","6144473","2017-09-08 23:00","2017","09","08","23:00","6.9","","5.5","","90","","36","","9","","24.1","","99.37","","","","","","NA"
"-81.15","43.03","LONDON A","6144473","2017-09-09 00:00","2017","09","09","00:00","6.4","","5.3","","93","","35","","10","","24.1","","99.42","","","","","","NA"
"-81.15","43.03","LONDON A","6144473","2017-09-09 01:00","2017","09","09","01:00","6.3","","5.4","","94","","35","","13","","24.1","","99.47","","","","","","Clear"
"-81.15","43.03","LONDON A","6144473","2017-09-09 02:00","2017","09","09","02:00","6.0","","5.1","","94","","36","","9","","24.1","","99.50","","","","","","NA"
"-81.15","43.03","LONDON A","6144473","2017-09-09 03:00","2017","09","09","03:00","5.4","","4.5","","94","","36","","10","","24.1","","99.52","","","","","","NA"
"-81.15","43.03","LONDON A","6144473","2017-09-09 04:00","2017","09","09","04:00","4.9","","4.2","","95","","36","","10","","24.1","","99.55","","","","","","Clear"
"-81.15","43.03","LONDON A","6144473","2017-09-09 05:00","2017","09","09","05:00","4.9","","4.0","","94","","36","","11","","24.1","","99.62","","","","","","NA"
"-81.15","43.03","LONDON A","6144473","2017-09-09 06:00","2017","09","09","06:00","4.7","","3.8","","94","","36","","12","","24.1","","99.69","","","","","","NA"
"-81.15","43.03","LONDON A","6144473","2017-09-09 07:00","2017","09","09","07:00","6.9","","5.2","","89","","2","","10","","24.1","","99.73","","","","","","Mainly Clear"
"-81.15","43.03","LONDON A","6144473","2017-09-09 08:00","2017","09","09","08:00","10.4","","6.3","","76","","4","","9","","24.1","","99.75","","","","","","NA"
"-81.15","43.03","LONDON A","6144473","2017-09-09 09:00","2017","09","09","09:00","12.6","","5.6","","62","","5","","14","","24.1","","99.81","","","","","","NA"
"-81.15","43.03","LONDON A","6144473","2017-09-09 10:00","2017","09","09","10:00","13.7","","5.9","","59","","4","","17","","24.1","","99.83","","","","","","Mainly Clear"
"-81.15","43.03","LONDON A","6144473","2017-09-09 11:00","2017","09","09","11:00","14.8","","4.6","","50","","4","","20","","24.1","","99.82","","","","","","NA"
"-81.15","43.03","LONDON A","6144473","2017-09-09 12:00","2017","09","09","12:00","15.6","","6.1","","53","","35","","15","","24.1","","99.81","","","","","","NA"
"-81.15","43.03","LONDON A","6144473","2017-09-09 13:00","2017","09","09","13:00","16.4","","5.6","","49","","1","","19","","24.1","","99.78","","","","","","Mainly Clear"
"-81.15","43.03","LONDON A","6144473","2017-09-09 14:00","2017","09","09","14:00","17.5","","6.6","","48","","36","","16","","24.1","","99.72","","","","","","NA"
"-81.15","43.03","LONDON A","6144473","2017-09-09 15:00","2017","09","09","15:00","17.4","","5.9","","46","","3","","12","","24.1","","99.69","","","","","","NA"
"-81.15","43.03","LONDON A","6144473","2017-09-09 16:00","2017","09","09","16:00","17.3","","5.7","","46","","35","","14","","24.1","","99.66","","","","","","Mainly Clear"
"-81.15","43.03","LONDON A","6144473","2017-09-09 17:00","2017","09","09","17:00","16.7","","5.8","","48","","2","","9","","24.1","","99.65","","","","","","NA"
"-81.15","43.03","LONDON A","6144473","2017-09-09 18:00","2017","09","09","18:00","15.3","","6.1","","54","","1","","5","","24.1","","99.65","","","","","","NA"
"-81.15","43.03","LONDON A","6144473","2017-09-09 19:00","2017","09","09","19:00","10.7","","7.2","","79","","36","","7","","24.1","","99.65","","","","","","Mainly Clear"
"-81.15","43.03","LONDON A","6144473","2017-09-09 20:00","2017","09","09","20:00","10.8","","7.4","","80","","30","","10","","24.1","","99.71","","","","","","NA"
"-81.15","43.03","LONDON A","6144473","2017-09-09 21:00","2017","09","09","21:00","9.9","","6.7","","80","","34","","10","","24.1","","99.73","","","","","","NA"
"-81.15","43.03","LONDON A","6144473","2017-09-09 22:00","2017","09","09","22:00","8.6","","5.5","","80","","1","","12","","24.1","","99.74","","","","","","Clear"
"-81.15","43.03","LONDON A","6144473","2017-09-09 23:00","2017","09","09","23:00","8.1","","4.7","","79","","1","","5","","24.1","","99.78","","","","","","NA"
"-81.15","43.03","LONDON A","6144473","2017-09-10 00:00","2017","09","10","00:00","6.9","","4.5","","84","","8","","3","","24.1","","99.75","","","","","","NA"
"-81.15","43.03","LONDON A","6144473","2017-09-10 01:00","2017","09","10","01:00","6.8","","4.3","","85","","5","","4","","24.1","","99.76","","","","","","Clear"
"-81.15","43.03","LONDON A","6144473","2017-09-10 02:00","2017","09","10","02:00","6.3","","4.0","","85","","5","","8","","24.1","","99.77","","","","","","NA"
"-81.15","43.03","LONDON A","6144473","2017-09-10 03:00","2017","09","10","03:00","6.3","","4.1","","86","","8","","5","","24.1","","99.78","","","","","","NA"
"-81.15","43.03","LONDON A","6144473","2017-09-10 04:00","2017","09","10","04:00","6.2","","4.3","","88","","8","","5","","24.1","","99.78","","","","","","Clear"
"-81.15","43.03","LONDON A","6144473","2017-09-10 05:00","2017","09","10","05:00","5.6","","3.8","","88","","7","","6","","24.1","","99.81","","","","","","NA"
"-81.15","43.03","LONDON A","6144473","2017-09-10 06:00","2017","09","10","06:00","5.4","","3.8","","90","","9","","3","","24.1","","99.89","","","","","","NA"
"-81.15","43.03","LONDON A","6144473","2017-09-10 07:00","2017","09","10","07:00","7.2","","5.4","","88","","7","","6","","24.1","","99.96","","","","","","Mainly Clear"
"-81.15","43.03","LONDON A","6144473","2017-09-10 08:00","2017","09","10","08:00","10.7","","7.6","","81","","9","","10","","24.1","","99.98","","","","","","NA"
"-81.15","43.03","LONDON A","6144473","2017-09-10 09:00","2017","09","10","09:00","13.9","","8.2","","68","","9","","11","","24.1","","100.00","","","","","","NA"
"-81.15","43.03","LONDON A","6144473","2017-09-10 10:00","2017","09","10","10:00","15.7","","8.2","","61","","6","","7","","24.1","","100.00","","","","","","Clear"
"-81.15","43.03","LONDON A","6144473","2017-09-10 11:00","2017","09","10","11:00","16.7","","7.6","","55","","10","","7","","24.1","","99.97","","","","","","NA"
"-81.15","43.03","LONDON A","6144473","2017-09-10 12:00","2017","09","10","12:00","17.6","","8.1","","53","","","","0","","24.1","","99.93","","","","","","NA"
"-81.15","43.03","LONDON A","6144473","2017-09-10 13:00","2017","09","10","13:00","18.9","","9.5","","54","","11","","10","","24.1","","99.87","","","","","","Mainly Clear"
"-81.15","43.03","LONDON A","6144473","2017-09-10 14:00","2017","09","10","14:00","19.1","","7.2","","46","","5","","13","","24.1","","99.80","","","","","","NA"
"-81.15","43.03","LONDON A","6144473","2017-09-10 15:00","2017","09","10","15:00","19.4","","8.6","","49","","6","","5","","24.1","","99.74","","","","","","NA"
"-81.15","43.03","LONDON A","6144473","2017-09-10 16:00","2017","09","10","16:00","19.4","","8.6","","49","","5","","12","","24.1","","99.71","","","","","","Clear"
"-81.15","43.03","LONDON A","6144473","2017-09-10 17:00","2017","09","10","17:00","18.8","","8.8","","52","","8","","7","","24.1","","99.69","","","","","","NA"
"-81.15","43.03","LONDON A","6144473","2017-09-10 18:00","2017","09","10","18:00","17.5","","9.3","","58","","8","","6","","24.1","","99.70","","","","","","NA"
"-81.15","43.03","LONDON A","6144473","2017-09-10 19:00","2017","09","10","19:00","12.9","","10.0","","82","","7","","5","","24.1","","99.70","","","","","","Clear"
"-81.15","43.03","LONDON A","6144473","2017-09-10 20:00","2017","09","10","20:00","11.5","","9.9","","89","","36","","3","","24.1","","99.73","","","","","","NA"
"-81.15","43.03","LONDON A","6144473","2017-09-10 21:00","2017","09","10","21:00","11.1","","9.8","","91","","11","","3","","24.1","","99.72","","","","","","NA"
"-81.15","43.03","LONDON A","6144473","2017-09-10 22:00","2017","09","10","22:00","9.2","","8.3","","95","","7","","3","","24.1","","99.73","","","","","","Clear"
"-81.15","43.03","LONDON A","6144473","2017-09-10 23:00","2017","09","10","23:00","9.3","","8.7","","96","","3","","5","","24.1","","99.71","","","","","","NA"
"-81.15","43.03","LONDON A","6144473","2017-09-11 00:00","2017","09","11","00:00","9.0","","8.5","","97","","36","","5","","24.1","","99.65","","","","","","NA"
"-81.15","43.03","LONDON A","6144473","2017-09-11 01:00","2017","09","11","01:00","8.1","","7.6","","97","","36","","2","","24.1","","99.63","","","","","","Clear"
"-81.15","43.03","LONDON A","6144473","2017-09-11 02:00","2017","09","11","02:00","7.8","","6.3","","90","","36","","1","","24.1","","99.56","","","","","","NA"
"-81.15","43.03","LONDON A","6144473","2017-09-11 03:00","2017","09","11","03:00","7.2","","6.2","","93","","4","","7","","24.1","","99.49","","","","","","NA"
"-81.15","43.03","LONDON A","6144473","2017-09-11 04:00","2017","09","11","04:00","6.9","","5.9","","94","","6","","3","","24.1","","99.48","","","","","","Clear"
"-81.15","43.03","LONDON A","6144473","2017-09-11 05:00","2017","09","11","05:00","5.3","","4.0","","91","","8","","8","","24.1","","99.49","","","","","","NA"
"-81.15","43.03","LONDON A","6144473","2017-09-11 06:00","2017","09","11","06:00","6.5","","5.1","","91","","36","","3","","24.1","","99.53","","","","","","NA"
"-81.15","43.03","LONDON A","6144473","2017-09-11 07:00","2017","09","11","07:00","7.5","","5.9","","89","","3","","7","","24.1","","99.56","","","","","","Clear"
"-81.15","43.03","LONDON A","6144473","2017-09-11 08:00","2017","09","11","08:00","12.1","","8.7","","80","","6","","12","","24.1","","99.52","","","","","","NA"
"-81.15","43.03","LONDON A","6144473","2017-09-11 09:00","2017","09","11","09:00","15.2","","10.9","","76","","8","","8","","24.1","","99.51","","","","","","NA"
"-81.15","43.03","LONDON A","6144473","2017-09-11 10:00","2017","09","11","10:00","17.0","","11.2","","68","","12","","4","","24.1","","99.47","","","","","","Mainly Clear"
"-81.15","43.03","LONDON A","6144473","2017-09-11 11:00","2017","09","11","11:00","18.8","","11.2","","61","","36","","1","","24.1","","99.40","","","","","","NA"
"-81.15","43.03","LONDON A","6144473","2017-09-11 12:00","2017","09","11","12:00","19.4","","10.8","","57","","35","","4","","24.1","","99.34","","","","","","NA"
"-81.15","43.03","LONDON A","6144473","2017-09-11 13:00","2017","09","11","13:00","20.6","","10.1","","51","","15","","3","","24.1","","99.28","","","","","","Mostly Cloudy"
"-81.15","43.03","LONDON A","6144473","2017-09-11 14:00","2017","09","11","14:00","21.4","","10.8","","50","","5","","10","","24.1","","99.19","","","","","","NA"
"-81.15","43.03","LONDON A","6144473","2017-09-11 15:00","2017","09","11","15:00","21.6","","8.9","","43","","9","","8","","24.1","","99.11","","","","","","NA"
"-81.15","43.03","LONDON A","6144473","2017-09-11 16:00","2017","09","11","16:00","21.6","","9.1","","44","","13","","7","","24.1","","99.02","","","","","","Mostly Cloudy"
"-81.15","43.03","LONDON A","6144473","2017-09-11 17:00","2017","09","11","17:00","21.2","","9.8","","48","","8","","11","","24.1","","98.98","","","","","","NA"
"-81.15","43.03","LONDON A","6144473","2017-09-11 18:00","2017","09","11","18:00","19.2","","11.8","","62","","9","","8","","24.1","","98.93","","","","","","NA"
"-81.15","43.03","LONDON A","6144473","2017-09-11 19:00","2017","09","11","19:00","16.4","","11.0","","70","","10","","10","","24.1","","98.86","","","","","","Mostly Cloudy"
"-81.15","43.03","LONDON A","6144473","2017-09-11 20:00","2017","09","11","20:00","14.8","","10.9","","77","","9","","6","","19.3","","98.88","","","","","","NA"
"-81.15","43.03","LONDON A","6144473","2017-09-11 21:00","2017","09","11","21:00","13.3","","10.9","","85","","7","","5","","24.1","","98.83","","","","","","NA"
"-81.15","43.03","LONDON A","6144473","2017-09-11 22:00","2017","09","11","22:00","12.8","","10.5","","86","","11","","5","","24.1","","98.83","","","","","","Mostly Cloudy"
"-81.15","43.03","LONDON A","6144473","2017-09-11 23:00","2017","09","11","23:00","11.2","","9.8","","91","","11","","5","","24.1","","98.78","","","","","","NA"
"-81.15","43.03","LONDON A","6144473","2017-09-12 00:00","2017","09","12","00:00","10.4","","9.4","","93","","2","","5","","24.1","","98.74","","","","","","NA"
"-81.15","43.03","LONDON A","6144473","2017-09-12 01:00","2017","09","12","01:00","10.4","","9.4","","94","","4","","3","","24.1","","98.70","","","","","","Mainly Clear"
"-81.15","43.03","LONDON A","6144473","2017-09-12 02:00","2017","09","12","02:00","8.6","","7.8","","95","","34","","3","","24.1","","98.65","","","","","","NA"
"-81.15","43.03","LONDON A","6144473","2017-09-12 03:00","2017","09","12","03:00","8.5","","8.0","","97","","36","","2","","24.1","","98.64","","","","","","NA"
"-81.15","43.03","LONDON A","6144473","2017-09-12 04:00","2017","09","12","04:00","7.8","","7.4","","97","","36","","3","","24.1","","98.59","","","","","","Mainly Clear"
"-81.15","43.03","LONDON A","6144473","2017-09-12 05:00","2017","09","12","05:00","6.7","","6.2","","97","","36","","1","","24.1","","98.56","","","","","","NA"
"-81.15","43.03","LONDON A","6144473","2017-09-12 06:00","2017","09","12","06:00","7.3","","7.0","","98","","1","","3","","24.1","","98.56","","","","","","NA"
"-81.15","43.03","LONDON A","6144473","2017-09-12 07:00","2017","09","12","07:00","8.3","","7.9","","97","","36","","2","","24.1","","98.56","","","","","","Mainly Clear"
"-81.15","43.03","LONDON A","6144473","2017-09-12 08:00","2017","09","12","08:00","13.2","","11.4","","89","","36","","5","","24.1","","98.55","","","","","","NA"
"-81.15","43.03","LONDON A","6144473","2017-09-12 09:00","2017","09","12","09:00","16.6","","13.0","","79","","7","","6","","24.1","","98.54","","","","","","NA"
"-81.15","43.03","LONDON A","6144473","2017-09-12 10:00","2017","09","12","10:00","19.1","","14.1","","72","","36","","2","","24.1","","98.49","","","","","","Mostly Cloudy"
"-81.15","43.03","LONDON A","6144473","2017-09-12 11:00","2017","09","12","11:00","21.1","","10.9","","52","","14","","5","","24.1","","98.46","","","","","","NA"
"-81.15","43.03","LONDON A","6144473","2017-09-12 12:00","2017","09","12","12:00","22.6","","10.3","","45","","17","","5","","24.1","","98.40","","","","","","NA"
"-81.15","43.03","LONDON A","6144473","2017-09-12 13:00","2017","09","12","13:00","23.5","","11.1","","45","","30","","3","","24.1","","98.33","","25","","","","Mainly Clear"
"-81.15","43.03","LONDON A","6144473","2017-09-12 14:00","2017","09","12","14:00","24.3","","10.7","","42","","9","","10","","24.1","","98.26","","26","","","","NA"
"-81.15","43.03","LONDON A","6144473","2017-09-12 15:00","2017","09","12","15:00","24.5","","10.5","","41","","1","","6","","24.1","","98.19","","26","","","","NA"
"-81.15","43.03","LONDON A","6144473","2017-09-12 16:00","2017","09","12","16:00","24.2","","11.7","","45","","7","","9","","24.1","","98.10","","26","","","","Mostly Cloudy"
"-81.15","43.03","LONDON A","6144473","2017-09-12 17:00","2017","09","12","17:00","23.6","","12.6","","49","","3","","8","","24.1","","98.06","","26","","","","NA"
"-81.15","43.03","LONDON A","6144473","2017-09-12 18:00","2017","09","12","18:00","21.5","","13.0","","58","","4","","8","","24.1","","98.05","","","","","","NA"
"-81.15","43.03","LONDON A","6144473","2017-09-12 19:00","2017","09","12","19:00","18.1","","12.4","","69","","10","","5","","24.1","","98.05","","","","","","Mostly Cloudy"
"-81.15","43.03","LONDON A","6144473","2017-09-12 20:00","2017","09","12","20:00","14.4","","11.7","","84","","4","","7","","24.1","","98.06","","","","","","NA"
"-81.15","43.03","LONDON A","6144473","2017-09-12 21:00","2017","09","12","21:00","13.6","","11.4","","87","","10","","4","","24.1","","98.03","","","","","","NA"
"-81.15","43.03","LONDON A","6144473","2017-09-12 22:00","2017","09","12","22:00","12.9","","11.9","","94","","4","","3","","24.1","","98.00","","","","","","Mainly Clear"
"-81.15","43.03","LONDON A","6144473","2017-09-12 23:00","2017","09","12","23:00","11.7","","11.1","","96","","36","","3","","24.1","","97.99","","","","","","NA"
"-81.15","43.03","LONDON A","6144473","2017-09-13 00:00","2017","09","13","00:00","10.9","","10.3","","97","","36","","3","","24.1","","97.95","","","","","","NA"
"-81.15","43.03","LONDON A","6144473","2017-09-13 01:00","2017","09","13","01:00","11.2","","9.1","","87","","8","","3","","24.1","","97.95","","","","","","Clear"
"-81.15","43.03","LONDON A","6144473","2017-09-13 02:00","2017","09","13","02:00","10.4","","9.1","","91","","7","","7","","24.1","","97.91","","","","","","NA"
"-81.15","43.03","LONDON A","6144473","2017-09-13 03:00","2017","09","13","03:00","12.3","","10.6","","89","","6","","10","","24.1","","97.85","","","","","","NA"
"-81.15","43.03","LONDON A","6144473","2017-09-13 04:00","2017","09","13","04:00","12.1","","10.8","","92","","7","","9","","24.1","","97.84","","","","","","Clear"
"-81.15","43.03","LONDON A","6144473","2017-09-13 05:00","2017","09","13","05:00","12.4","","11.3","","93","","7","","9","","24.1","","97.85","","","","","","NA"
"-81.15","43.03","LONDON A","6144473","2017-09-13 06:00","2017","09","13","06:00","12.7","","11.8","","94","","9","","10","","14.5","","97.87","","","","","","NA"
"-81.15","43.03","LONDON A","6144473","2017-09-13 07:00","2017","09","13","07:00","13.1","","12.2","","94","","10","","6","","12.9","","97.89","","","","","","Mostly Cloudy"
"-81.15","43.03","LONDON A","6144473","2017-09-13 08:00","2017","09","13","08:00","15.7","","13.9","","89","","12","","9","","19.3","","97.88","","","","","","NA"
"-81.15","43.03","LONDON A","6144473","2017-09-13 09:00","2017","09","13","09:00","18.2","","14.9","","81","","13","","11","","24.1","","97.85","","","","","","NA"
"-81.15","43.03","LONDON A","6144473","2017-09-13 10:00","2017","09","13","10:00","20.8","","15.0","","69","","14","","13","","24.1","","97.82","","25","","","","Mostly Cloudy"
"-81.15","43.03","LONDON A","6144473","2017-09-13 11:00","2017","09","13","11:00","22.7","","14.9","","61","","13","","10","","24.1","","97.76","","27","","","","NA"
"-81.15","43.03","LONDON A","6144473","2017-09-13 12:00","2017","09","13","12:00","24.7","","16.8","","61","","15","","13","","24.1","","97.74","","30","","","","NA"
"-81.15","43.03","LONDON A","6144473","2017-09-13 13:00","2017","09","13","13:00","25.3","","17.0","","60","","20","","13","","24.1","","97.67","","31","","","","Mainly Clear"
"-81.15","43.03","LONDON A","6144473","2017-09-13 14:00","2017","09","13","14:00","25.9","","17.4","","59","","20","","11","","24.1","","97.62","","31","","","","NA"
"-81.15","43.03","LONDON A","6144473","2017-09-13 15:00","2017","09","13","15:00","25.5","","16.9","","58","","17","","23","","24.1","","97.58","","31","","","","NA"
"-81.15","43.03","LONDON A","6144473","2017-09-13 16:00","2017","09","13","16:00","25.5","","17.6","","61","","19","","19","","24.1","","97.60","","31","","","","Mostly Cloudy"
"-81.15","43.03","LONDON A","6144473","2017-09-13 17:00","2017","09","13","17:00","23.4","","16.2","","64","","18","","22","","24.1","","97.60","","28","","","","NA"
"-81.15","43.03","LONDON A","6144473","2017-09-13 18:00","2017","09","13","18:00","22.1","","15.7","","67","","21","","18","","24.1","","97.61","","27","","","","NA"
"-81.15","43.03","LONDON A","6144473","2017-09-13 19:00","2017","09","13","19:00","20.5","","15.7","","74","","19","","8","","24.1","","97.64","","25","","","","Mostly Cloudy"
"-81.15","43.03","LONDON A","6144473","2017-09-13 20:00","2017","09","13","20:00","17.6","","15.4","","87","","36","","2","","24.1","","97.70","","","","","","NA"
"-81.15","43.03","LONDON A","6144473","2017-09-13 21:00","2017","09","13","21:00","17.7","","16.1","","90","","21","","5","","24.1","","97.72","","","","","","NA"
"-81.15","43.03","LONDON A","6144473","2017-09-13 22:00","2017","09","13","22:00","15.7","","15.2","","97","","36","","3","","24.1","","97.74","","","","","","Mostly Cloudy"
"-81.15","43.03","LONDON A","6144473","2017-09-13 23:00","2017","09","13","23:00","15.5","","15.2","","98","","26","","3","","24.1","","97.76","","","","","","NA"
"-81.15","43.03","LONDON A","6144473","2017-09-14 00:00","2017","09","14","00:00","15.7","","15.0","","95","","19","","6","","24.1","","97.74","","","","","","NA"
"-81.15","43.03","LONDON A","6144473","2017-09-14 01:00","2017","09","14","01:00","16.4","","15.7","","95","","26","","5","","24.1","","97.74","","","","","","Mostly Cloudy"
"-81.15","43.03","LONDON A","6144473","2017-09-14 02:00","2017","09","14","02:00","16.7","","15.6","","93","","31","","5","","24.1","","97.71","","","","","","NA"
"-81.15","43.03","LONDON A","6144473","2017-09-14 03:00","2017","09","14","03:00","17.0","","15.7","","92","","19","","7","","24.1","","97.76","","","","","","NA"
"-81.15","43.03","LONDON A","6144473","2017-09-14 04:00","2017","09","14","04:00","16.0","","15.1","","94","","36","","3","","24.1","","97.79","","","","","","Cloudy"
"-81.15","43.03","LONDON A","6144473","2017-09-14 05:00","2017","09","14","05:00","16.4","","15.4","","94","","19","","6","","24.1","","97.84","","","","","","NA"
"-81.15","43.03","LONDON A","6144473","2017-09-14 06:00","2017","09","14","06:00","15.8","","14.9","","94","","25","","4","","19.3","","97.87","","","","","","NA"
"-81.15","43.03","LONDON A","6144473","2017-09-14 07:00","2017","09","14","07:00","16.7","","15.5","","92","","27","","7","","19.3","","97.92","","","","","","Cloudy"
"-81.15","43.03","LONDON A","6144473","2017-09-14 08:00","2017","09","14","08:00","17.4","","16.1","","92","","25","","8","","24.1","","97.97","","","","","","NA"
"-81.15","43.03","LONDON A","6144473","2017-09-14 09:00","2017","09","14","09:00","19.8","","16.2","","80","","23","","10","","24.1","","98.01","","","","","","NA"
"-81.15","43.03","LONDON A","6144473","2017-09-14 10:00","2017","09","14","10:00","21.6","","16.5","","73","","27","","10","","24.1","","98.00","","27","","","","Mostly Cloudy"
"-81.15","43.03","LONDON A","6144473","2017-09-14 11:00","2017","09","14","11:00","22.9","","16.5","","67","","28","","10","","24.1","","97.99","","28","","","","NA"
"-81.15","43.03","LONDON A","6144473","2017-09-14 12:00","2017","09","14","12:00","24.1","","15.3","","57","","23","","14","","24.1","","97.98","","28","","","","NA"
"-81.15","43.03","LONDON A","6144473","2017-09-14 13:00","2017","09","14","13:00","23.2","","14.8","","59","","24","","12","","24.1","","97.99","","27","","","","Mostly Cloudy"
"-81.15","43.03","LONDON A","6144473","2017-09-14 14:00","2017","09","14","14:00","24.7","","15.3","","55","","29","","13","","24.1","","97.98","","29","","","","NA"
"-81.15","43.03","LONDON A","6144473","2017-09-14 15:00","2017","09","14","15:00","24.8","","15.4","","55","","21","","8","","24.1","","97.97","","29","","","","NA"
"-81.15","43.03","LONDON A","6144473","2017-09-14 16:00","2017","09","14","16:00","23.1","","15.8","","63","","21","","15","","24.1","","97.98","","28","","","","Mostly Cloudy"
"-81.15","43.03","LONDON A","6144473","2017-09-14 17:00","2017","09","14","17:00","23.4","","15.7","","62","","22","","16","","24.1","","98.03","","28","","","","NA"
"-81.15","43.03","LONDON A","6144473","2017-09-14 18:00","2017","09","14","18:00","21.9","","15.1","","65","","20","","15","","24.1","","98.10","","26","","","","NA"
"-81.15","43.03","LONDON A","6144473","2017-09-14 19:00","2017","09","14","19:00","19.5","","14.1","","71","","20","","9","","24.1","","98.17","","","","","","Mainly Clear"
"-81.15","43.03","LONDON A","6144473","2017-09-14 20:00","2017","09","14","20:00","18.3","","14.3","","77","","19","","9","","24.1","","98.23","","","","","","NA"
"-81.15","43.03","LONDON A","6144473","2017-09-14 21:00","2017","09","14","21:00","16.5","","13.9","","84","","21","","7","","24.1","","98.24","","","","","","NA"
"-81.15","43.03","LONDON A","6144473","2017-09-14 22:00","2017","09","14","22:00","16.2","","14.4","","89","","21","","3","","24.1","","98.30","","","","","","Clear"
"-81.15","43.03","LONDON A","6144473","2017-09-14 23:00","2017","09","14","23:00","14.2","","13.7","","97","","36","","3","","24.1","","98.33","","","","","","NA"
"-81.15","43.03","LONDON A","6144473","2017-09-15 00:00","2017","09","15","00:00","14.4","","14.0","","97","","0","","1","","24.1","","98.35","","","","","","NA"
"-81.15","43.03","LONDON A","6144473","2017-09-15 01:00","2017","09","15","01:00","13.5","","13.1","","98","","36","","1","","16.1","","98.38","","","","","","Clear"
"-81.15","43.03","LONDON A","6144473","2017-09-15 02:00","2017","09","15","02:00","12.8","","12.4","","97","","36","","2","","8.1","","98.39","","","","","","Fog"
"-81.15","43.03","LONDON A","6144473","2017-09-15 03:00","2017","09","15","03:00","11.5","","11.1","","97","","12","","3","","1.6","","98.41","","","","","","Fog"
"-81.15","43.03","LONDON A","6144473","2017-09-15 04:00","2017","09","15","04:00","12.2","","11.9","","98","","4","","4","","0.4","","98.45","","","","","","Fog"
"-81.15","43.03","LONDON A","6144473","2017-09-15 05:00","2017","09","15","05:00","11.2","","10.9","","98","","11","","4","","1.2","","98.49","","","","","","Fog"
"-81.15","43.03","LONDON A","6144473","2017-09-15 06:00","2017","09","15","06:00","11.4","","11.1","","98","","10","","4","","0.6","","98.58","","","","","","Fog"
"-81.15","43.03","LONDON A","6144473","2017-09-15 07:00","2017","09","15","07:00","11.7","","11.4","","98","","11","","3","","1.2","","98.64","","","","","","Fog"
"-81.15","43.03","LONDON A","6144473","2017-09-15 08:00","2017","09","15","08:00","14.8","","14.6","","98","","36","","1","","9.7","","98.71","","","","","","Fog"
"-81.15","43.03","LONDON A","6144473","2017-09-15 09:00","2017","09","15","09:00","19.4","","17.2","","87","","26","","5","","19.3","","98.75","","","","","","NA"
"-81.15","43.03","LONDON A","6144473","2017-09-15 10:00","2017","09","15","10:00","21.5","","16.3","","72","","17","","3","","24.1","","98.73","","26","","","","Mostly Cloudy"
"-81.15","43.03","LONDON A","6144473","2017-09-15 11:00","2017","09","15","11:00","23.3","","15.9","","63","","21","","7","","24.1","","98.68","","28","","","","NA"
"-81.15","43.03","LONDON A","6144473","2017-09-15 12:00","2017","09","15","12:00","24.2","","15.4","","57","","21","","12","","24.1","","98.69","","28","","","","NA"
"-81.15","43.03","LONDON A","6144473","2017-09-15 13:00","2017","09","15","13:00","25.0","","15.8","","56","","18","","10","","24.1","","98.66","","29","","","","Mostly Cloudy"
"-81.15","43.03","LONDON A","6144473","2017-09-15 14:00","2017","09","15","14:00","25.7","","15.9","","54","","17","","9","","24.1","","98.63","","30","","","","NA"
"-81.15","43.03","LONDON A","6144473","2017-09-15 15:00","2017","09","15","15:00","24.9","","15.2","","55","","17","","13","","24.1","","98.63","","29","","","","NA"
"-81.15","43.03","LONDON A","6144473","2017-09-15 16:00","2017","09","15","16:00","24.4","","15.3","","56","","17","","15","","24.1","","98.64","","29","","","","Cloudy"
"-81.15","43.03","LONDON A","6144473","2017-09-15 17:00","2017","09","15","17:00","23.3","","15.2","","60","","18","","14","","24.1","","98.68","","27","","","","NA"
"-81.15","43.03","LONDON A","6144473","2017-09-15 18:00","2017","09","15","18:00","21.5","","15.2","","67","","19","","12","","24.1","","98.73","","26","","","","NA"
"-81.15","43.03","LONDON A","6144473","2017-09-15 19:00","2017","09","15","19:00","19.7","","15.2","","75","","19","","10","","24.1","","98.74","","","","","","Cloudy"
"-81.15","43.03","LONDON A","6144473","2017-09-15 20:00","2017","09","15","20:00","17.9","","14.8","","82","","16","","4","","24.1","","98.77","","","","","","NA"
"-81.15","43.03","LONDON A","6144473","2017-09-15 21:00","2017","09","15","21:00","16.6","","14.3","","86","","13","","5","","24.1","","98.80","","","","","","NA"
"-81.15","43.03","LONDON A","6144473","2017-09-15 22:00","2017","09","15","22:00","15.8","","14.3","","91","","12","","4","","24.1","","98.82","","","","","","Cloudy"
"-81.15","43.03","LONDON A","6144473","2017-09-15 23:00","2017","09","15","23:00","13.7","","13.0","","96","","4","","5","","24.1","","98.84","","","","","","NA"
"-81.15","43.03","LONDON A","6144473","2017-09-16 00:00","2017","09","16","00:00","13.8","","13.4","","98","","6","","4","","24.1","","98.84","","","","","","NA"
"-81.15","43.03","LONDON A","6144473","2017-09-16 01:00","2017","09","16","01:00","13.2","","12.5","","96","","11","","5","","24.1","","98.85","","","","","","Mainly Clear"
"-81.15","43.03","LONDON A","6144473","2017-09-16 02:00","2017","09","16","02:00","13.4","","12.9","","97","","8","","7","","24.1","","98.87","","","","","","NA"
"-81.15","43.03","LONDON A","6144473","2017-09-16 03:00","2017","09","16","03:00","14.0","","13.7","","98","","4","","5","","0.4","","98.88","","","","","","Fog"
"-81.15","43.03","LONDON A","6144473","2017-09-16 04:00","2017","09","16","04:00","14.5","","14.2","","98","","7","","4","","0.2","","98.90","","","","","","Fog"
"-81.15","43.03","LONDON A","6144473","2017-09-16 05:00","2017","09","16","05:00","13.8","","13.6","","98","","4","","5","","0.2","","98.89","","","","","","Fog"
"-81.15","43.03","LONDON A","6144473","2017-09-16 06:00","2017","09","16","06:00","13.5","","13.2","","98","","6","","4","","0.2","","98.94","","","","","","Fog"
"-81.15","43.03","LONDON A","6144473","2017-09-16 07:00","2017","09","16","07:00","13.5","","13.3","","99","","36","","1","","2.8","","99.00","","","","","","Fog"
"-81.15","43.03","LONDON A","6144473","2017-09-16 08:00","2017","09","16","08:00","15.4","","15.2","","99","","12","","5","","12.9","","99.02","","","","","","NA"
"-81.15","43.03","LONDON A","6144473","2017-09-16 09:00","2017","09","16","09:00","19.2","","17.4","","89","","17","","7","","24.1","","99.03","","","","","","NA"
"-81.15","43.03","LONDON A","6144473","2017-09-16 10:00","2017","09","16","10:00","22.7","","17.8","","73","","18","","12","","24.1","","99.01","","29","","","","Cloudy"
"-81.15","43.03","LONDON A","6144473","2017-09-16 11:00","2017","09","16","11:00","24.3","","17.5","","66","","20","","11","","24.1","","98.98","","30","","","","NA"
"-81.15","43.03","LONDON A","6144473","2017-09-16 12:00","2017","09","16","12:00","25.2","","16.3","","57","","23","","7","","24.1","","98.98","","30","","","","NA"
"-81.15","43.03","LONDON A","6144473","2017-09-16 13:00","2017","09","16","13:00","25.9","","15.8","","53","","18","","12","","24.1","","98.95","","30","","","","Cloudy"
"-81.15","43.03","LONDON A","6144473","2017-09-16 14:00","2017","09","16","14:00","26.6","","16.0","","52","","17","","11","","24.1","","98.90","","31","","","","NA"
"-81.15","43.03","LONDON A","6144473","2017-09-16 15:00","2017","09","16","15:00","26.6","","15.6","","50","","19","","12","","24.1","","98.85","","31","","","","NA"
"-81.15","43.03","LONDON A","6144473","2017-09-16 16:00","2017","09","16","16:00","26.1","","15.2","","51","","21","","13","","24.1","","98.83","","30","","","","Mainly Clear"
"-81.15","43.03","LONDON A","6144473","2017-09-16 17:00","2017","09","16","17:00","25.3","","15.4","","54","","18","","14","","24.1","","98.81","","30","","","","NA"
"-81.15","43.03","LONDON A","6144473","2017-09-16 18:00","2017","09","16","18:00","23.4","","15.7","","61","","18","","12","","24.1","","98.80","","28","","","","NA"
"-81.15","43.03","LONDON A","6144473","2017-09-16 19:00","2017","09","16","19:00","21.3","","15.4","","69","","18","","8","","24.1","","98.79","","26","","","","Mainly Clear"
"-81.15","43.03","LONDON A","6144473","2017-09-16 20:00","2017","09","16","20:00","17.7","","15.6","","87","","36","","3","","24.1","","98.83","","","","","","NA"
"-81.15","43.03","LONDON A","6144473","2017-09-16 21:00","2017","09","16","21:00","16.5","","15.0","","91","","9","","5","","24.1","","98.83","","","","","","NA"
"-81.15","43.03","LONDON A","6144473","2017-09-16 22:00","2017","09","16","22:00","16.4","","15.0","","91","","8","","6","","24.1","","98.85","","","","","","Clear"
"-81.15","43.03","LONDON A","6144473","2017-09-16 23:00","2017","09","16","23:00","15.2","","14.7","","96","","9","","5","","24.1","","98.84","","","","","","NA"
"-81.15","43.03","LONDON A","6144473","2017-09-17 00:00","2017","09","17","00:00","15.1","","14.2","","94","","9","","10","","24.1","","98.77","","","","","","NA"
"-81.15","43.03","LONDON A","6144473","2017-09-17 01:00","2017","09","17","01:00","14.6","","14.0","","96","","32","","3","","24.1","","98.78","","","","","","Clear"
"-81.15","43.03","LONDON A","6144473","2017-09-17 02:00","2017","09","17","02:00","13.9","","13.3","","96","","7","","4","","12.9","","98.80","","","","","","NA"
"-81.15","43.03","LONDON A","6144473","2017-09-17 03:00","2017","09","17","03:00","13.1","","12.6","","97","","6","","5","","12.9","","98.78","","","","","","NA"
"-81.15","43.03","LONDON A","6144473","2017-09-17 04:00","2017","09","17","04:00","13.0","","12.3","","95","","9","","7","","12.9","","98.76","","","","","","Clear"
"-81.15","43.03","LONDON A","6144473","2017-09-17 05:00","2017","09","17","05:00","13.6","","13.2","","97","","4","","4","","19.3","","98.77","","","","","","NA"
"-81.15","43.03","LONDON A","6144473","2017-09-17 06:00","2017","09","17","06:00","13.5","","12.8","","96","","8","","5","","19.3","","98.80","","","","","","NA"
"-81.15","43.03","LONDON A","6144473","2017-09-17 07:00","2017","09","17","07:00","13.8","","12.8","","93","","36","","3","","16.1","","98.84","","","","","","Mainly Clear"
"-81.15","43.03","LONDON A","6144473","2017-09-17 08:00","2017","09","17","08:00","17.0","","15.6","","91","","10","","5","","16.1","","98.81","","","","","","NA"
"-81.15","43.03","LONDON A","6144473","2017-09-17 09:00","2017","09","17","09:00","20.6","","16.6","","77","","20","","5","","19.3","","98.84","","26","","","","NA"
"-81.15","43.03","LONDON A","6144473","2017-09-17 10:00","2017","09","17","10:00","23.5","","17.6","","69","","20","","6","","24.1","","98.82","","29","","","","Mainly Clear"
"-81.15","43.03","LONDON A","6144473","2017-09-17 11:00","2017","09","17","11:00","25.6","","17.5","","60","","20","","5","","24.1","","98.80","","31","","","","NA"
"-81.15","43.03","LONDON A","6144473","2017-09-17 12:00","2017","09","17","12:00","27.1","","17.2","","54","","20","","13","","24.1","","98.74","","33","","","","NA"
"-81.15","43.03","LONDON A","6144473","2017-09-17 13:00","2017","09","17","13:00","27.3","","17.2","","53","","18","","15","","24.1","","98.66","","33","","","","Mostly Cloudy"
"-81.15","43.03","LONDON A","6144473","2017-09-17 14:00","2017","09","17","14:00","27.9","","16.4","","49","","19","","18","","24.1","","98.60","","33","","","","NA"
"-81.15","43.03","LONDON A","6144473","2017-09-17 15:00","2017","09","17","15:00","27.6","","15.8","","48","","21","","19","","24.1","","98.58","","32","","","","NA"
"-81.15","43.03","LONDON A","6144473","2017-09-17 16:00","2017","09","17","16:00","27.0","","16.1","","51","","20","","20","","24.1","","98.56","","32","","","","Mainly Clear"
"-81.15","43.03","LONDON A","6144473","2017-09-17 17:00","2017","09","17","17:00","25.7","","16.4","","56","","20","","19","","24.1","","98.55","","31","","","","NA"
"-81.15","43.03","LONDON A","6144473","2017-09-17 18:00","2017","09","17","18:00","23.9","","16.8","","64","","18","","15","","24.1","","98.54","","29","","","","NA"
"-81.15","43.03","LONDON A","6144473","2017-09-17 19:00","2017","09","17","19:00","21.9","","16.8","","73","","19","","8","","24.1","","98.58","","27","","","","Mainly Clear"
"-81.15","43.03","LONDON A","6144473","2017-09-17 20:00","2017","09","17","20:00","20.0","","16.8","","82","","16","","12","","24.1","","98.58","","25","","","","NA"
"-81.15","43.03","LONDON A","6144473","2017-09-17 21:00","2017","09","17","21:00","17.8","","16.3","","91","","14","","4","","24.1","","98.61","","","","","","NA"
"-81.15","43.03","LONDON A","6144473","2017-09-17 22:00","2017","09","17","22:00","17.4","","16.0","","92","","10","","5","","24.1","","98.60","","","","","","Clear"
"-81.15","43.03","LONDON A","6144473","2017-09-17 23:00","2017","09","17","23:00","16.3","","15.6","","96","","12","","5","","24.1","","98.60","","","","","","NA"
"-81.15","43.03","LONDON A","6144473","2017-09-18 00:00","2017","09","18","00:00","16.7","","16.3","","97","","12","","5","","0.2","","98.58","","","","","","Fog"
"-81.15","43.03","LONDON A","6144473","2017-09-18 01:00","2017","09","18","01:00","17.0","","16.7","","98","","10","","7","","0.2","","98.55","","","","","","Fog"
"-81.15","43.03","LONDON A","6144473","2017-09-18 02:00","2017","09","18","02:00","16.5","","16.2","","98","","10","","4","","0.2","","98.53","","","","","","Fog"
"-81.15","43.03","LONDON A","6144473","2017-09-18 03:00","2017","09","18","03:00","16.1","","15.9","","99","","10","","5","","0.4","","98.51","","","","","","Fog"
"-81.15","43.03","LONDON A","6144473","2017-09-18 04:00","2017","09","18","04:00","15.5","","15.3","","99","","10","","6","","9.7","","98.49","","","","","","Fog"
"-81.15","43.03","LONDON A","6144473","2017-09-18 05:00","2017","09","18","05:00","15.9","","15.7","","99","","9","","7","","9.7","","98.50","","","","","","Fog"
"-81.15","43.03","LONDON A","6144473","2017-09-18 06:00","2017","09","18","06:00","16.6","","16.4","","99","","13","","5","","8.1","","98.53","","","","","","Fog"
"-81.15","43.03","LONDON A","6144473","2017-09-18 07:00","2017","09","18","07:00","17.4","","17.2","","98","","18","","3","","9.7","","98.55","","","","","","Fog"
"-81.15","43.03","LONDON A","6144473","2017-09-18 08:00","2017","09","18","08:00","19.8","","18.8","","94","","16","","6","","12.9","","98.55","","","","","","NA"
"-81.15","43.03","LONDON A","6144473","2017-09-18 09:00","2017","09","18","09:00","21.9","","19.4","","85","","24","","8","","24.1","","98.55","","29","","","","NA"
"-81.15","43.03","LONDON A","6144473","2017-09-18 10:00","2017","09","18","10:00","24.5","","17.4","","64","","21","","12","","24.1","","98.53","","30","","","","Mostly Cloudy"
"-81.15","43.03","LONDON A","6144473","2017-09-18 11:00","2017","09","18","11:00","26.1","","17.3","","58","","20","","21","","24.1","","98.55","","32","","","","NA"
"-81.15","43.03","LONDON A","6144473","2017-09-18 12:00","2017","09","18","12:00","26.1","","18.1","","61","","22","","20","","24.1","","98.55","","32","","","","NA"
"-81.15","43.03","LONDON A","6144473","2017-09-18 13:00","2017","09","18","13:00","26.2","","18.2","","61","","24","","17","","24.1","","98.50","","32","","","","Mostly Cloudy"
"-81.15","43.03","LONDON A","6144473","2017-09-18 14:00","2017","09","18","14:00","24.9","","19.6","","72","","30","","14","","19.3","","98.47","","32","","","","NA"
"-81.15","43.03","LONDON A","6144473","2017-09-18 15:00","2017","09","18","15:00","24.0","","19.6","","76","","29","","12","","19.3","","98.49","","31","","","","NA"
"-81.15","43.03","LONDON A","6144473","2017-09-18 16:00","2017","09","18","16:00","21.0","","18.4","","85","","31","","13","","19.3","","98.48","","27","","","","Cloudy"
"-81.15","43.03","LONDON A","6144473","2017-09-18 17:00","2017","09","18","17:00","20.6","","18.4","","87","","32","","13","","19.3","","98.46","","27","","","","NA"
"-81.15","43.03","LONDON A","6144473","2017-09-18 18:00","2017","09","18","18:00","20.1","","18.6","","91","","30","","5","","19.3","","98.49","","27","","","","NA"
"-81.15","43.03","LONDON A","6144473","2017-09-18 19:00","2017","09","18","19:00","19.9","","18.7","","92","","34","","13","","9.7","","98.50","","","","","","Fog"
"-81.15","43.03","LONDON A","6144473","2017-09-18 20:00","2017","09","18","20:00","19.6","","18.4","","93","","1","","14","","9.7","","98.50","","","","","","Fog"
"-81.15","43.03","LONDON A","6144473","2017-09-18 21:00","2017","09","18","21:00","19.3","","18.2","","94","","5","","9","","12.9","","98.48","","","","","","NA"
"-81.15","43.03","LONDON A","6144473","2017-09-18 22:00","2017","09","18","22:00","19.1","","18.0","","93","","8","","5","","12.9","","98.48","","","","","","Cloudy"
"-81.15","43.03","LONDON A","6144473","2017-09-18 23:00","2017","09","18","23:00","18.9","","17.9","","94","","10","","7","","16.1","","98.47","","","","","","NA"
"-81.15","43.03","LONDON A","6144473","2017-09-19 00:00","2017","09","19","00:00","18.5","","17.7","","95","","33","","4","","24.1","","98.45","","","","","","NA"
"-81.15","43.03","LONDON A","6144473","2017-09-19 01:00","2017","09","19","01:00","18.0","","17.4","","96","","35","","5","","24.1","","98.43","","","","","","Cloudy"
"-81.15","43.03","LONDON A","6144473","2017-09-19 02:00","2017","09","19","02:00","18.1","","17.6","","96","","36","","2","","24.1","","98.38","","","","","","NA"
"-81.15","43.03","LONDON A","6144473","2017-09-19 03:00","2017","09","19","03:00","18.3","","17.8","","96","","33","","5","","9.7","","98.39","","","","","","Fog"
"-81.15","43.03","LONDON A","6144473","2017-09-19 04:00","2017","09","19","04:00","18.3","","17.8","","97","","35","","5","","9.7","","98.38","","","","","","Rain Showers,Fog"
"-81.15","43.03","LONDON A","6144473","2017-09-19 05:00","2017","09","19","05:00","18.4","","17.9","","97","","3","","5","","9.7","","98.35","","","","","","Fog"
"-81.15","43.03","LONDON A","6144473","2017-09-19 06:00","2017","09","19","06:00","18.5","","17.9","","97","","7","","6","","4.0","","98.36","","","","","","Fog"
"-81.15","43.03","LONDON A","6144473","2017-09-19 07:00","2017","09","19","07:00","18.5","","18.0","","97","","7","","10","","3.2","","98.38","","","","","","Fog"
"-81.15","43.03","LONDON A","6144473","2017-09-19 08:00","2017","09","19","08:00","19.4","","18.6","","95","","8","","13","","4.8","","98.37","","","","","","Fog"
"-81.15","43.03","LONDON A","6144473","2017-09-19 09:00","2017","09","19","09:00","22.6","","18.5","","77","","11","","18","","12.9","","98.38","","29","","","","NA"
"-81.15","43.03","LONDON A","6144473","2017-09-19 10:00","2017","09","19","10:00","22.6","","18.8","","79","","13","","14","","24.1","","98.41","","29","","","","Cloudy"
"-81.15","43.03","LONDON A","6144473","2017-09-19 11:00","2017","09","19","11:00","24.1","","19.6","","76","","11","","9","","24.1","","98.38","","31","","","","NA"
"-81.15","43.03","LONDON A","6144473","2017-09-19 12:00","2017","09","19","12:00","25.3","","18.9","","67","","0","","1","","24.1","","98.36","","32","","","","NA"
"-81.15","43.03","LONDON A","6144473","2017-09-19 13:00","2017","09","19","13:00","25.0","","19.1","","69","","22","","15","","24.1","","98.31","","32","","","","Mostly Cloudy"
"-81.15","43.03","LONDON A","6144473","2017-09-19 14:00","2017","09","19","14:00","23.9","","19.8","","77","","28","","16","","19.3","","98.28","","31","","","","NA"
"-81.15","43.03","LONDON A","6144473","2017-09-19 15:00","2017","09","19","15:00","23.7","","18.8","","74","","30","","12","","24.1","","98.26","","30","","","","NA"
"-81.15","43.03","LONDON A","6144473","2017-09-19 16:00","2017","09","19","16:00","23.2","","18.8","","76","","32","","7","","24.1","","98.25","","30","","","","Cloudy"
"-81.15","43.03","LONDON A","6144473","2017-09-19 17:00","2017","09","19","17:00","22.2","","19.8","","86","","2","","8","","19.3","","98.26","","30","","","","Rain Showers"
"-81.15","43.03","LONDON A","6144473","2017-09-19 18:00","2017","09","19","18:00","21.4","","19.4","","88","","5","","10","","24.1","","98.26","","28","","","","NA"
"-81.15","43.03","LONDON A","6144473","2017-09-19 19:00","2017","09","19","19:00","20.6","","18.9","","89","","5","","14","","16.1","","98.25","","27","","","","Cloudy"
"-81.15","43.03","LONDON A","6144473","2017-09-19 20:00","2017","09","19","20:00","20.3","","18.5","","89","","6","","10","","16.1","","98.28","","27","","","","NA"
"-81.15","43.03","LONDON A","6144473","2017-09-19 21:00","2017","09","19","21:00","20.2","","18.5","","90","","8","","6","","24.1","","98.29","","27","","","","NA"
"-81.15","43.03","LONDON A","6144473","2017-09-19 22:00","2017","09","19","22:00","20.0","","18.7","","92","","6","","8","","9.7","","98.29","","27","","","","Fog"
"-81.15","43.03","LONDON A","6144473","2017-09-19 23:00","2017","09","19","23:00","19.3","","18.5","","95","","8","","10","","9.7","","98.28","","","","","","Fog"
"-81.15","43.03","LONDON A","6144473","2017-09-20 00:00","2017","09","20","00:00","18.7","","18.0","","95","","7","","10","","8.1","","98.29","","","","","","Fog"
"-81.15","43.03","LONDON A","6144473","2017-09-20 01:00","2017","09","20","01:00","18.3","","17.6","","96","","8","","9","","8.1","","98.30","","","","","","Fog"
"-81.15","43.03","LONDON A","6144473","2017-09-20 02:00","2017","09","20","02:00","17.8","","17.3","","96","","7","","9","","4.8","","98.27","","","","","","Fog"
"-81.15","43.03","LONDON A","6144473","2017-09-20 03:00","2017","09","20","03:00","17.7","","17.1","","96","","7","","10","","6.4","","98.26","","","","","","Fog"
"-81.15","43.03","LONDON A","6144473","2017-09-20 04:00","2017","09","20","04:00","17.4","","16.9","","96","","9","","11","","4.8","","98.26","","","","","","Fog"
"-81.15","43.03","LONDON A","6144473","2017-09-20 05:00","2017","09","20","05:00","17.3","","16.9","","98","","7","","12","","1.6","","98.31","","","","","","Fog"
"-81.15","43.03","LONDON A","6144473","2017-09-20 06:00","2017","09","20","06:00","17.5","","17.2","","98","","8","","10","","1.6","","98.32","","","","","","Fog"
"-81.15","43.03","LONDON A","6144473","2017-09-20 07:00","2017","09","20","07:00","17.8","","17.4","","98","","9","","8","","2.4","","98.42","","","","","","Fog"
"-81.15","43.03","LONDON A","6144473","2017-09-20 08:00","2017","09","20","08:00","18.9","","18.0","","94","","36","","3","","4.0","","98.47","","","","","","Fog"
"-81.15","43.03","LONDON A","6144473","2017-09-20 09:00","2017","09","20","09:00","20.3","","18.5","","90","","10","","7","","4.8","","98.48","","27","","","","Fog"
"-81.15","43.03","LONDON A","6144473","2017-09-20 10:00","2017","09","20","10:00","22.9","","18.1","","74","","15","","9","","9.7","","98.46","","29","","","","Fog"
"-81.15","43.03","LONDON A","6144473","2017-09-20 11:00","2017","09","20","11:00","25.1","","18.3","","65","","17","","7","","16.1","","98.42","","31","","","","NA"
"-81.15","43.03","LONDON A","6144473","2017-09-20 12:00","2017","09","20","12:00","27.4","","18.2","","57","","14","","14","","19.3","","98.37","","34","","","","NA"
"-81.15","43.03","LONDON A","6144473","2017-09-20 13:00","2017","09","20","13:00","28.7","","18.7","","54","","12","","8","","24.1","","98.32","","35","","","","Mainly Clear"
"-81.15","43.03","LONDON A","6144473","2017-09-20 14:00","2017","09","20","14:00","27.3","","17.6","","55","","15","","16","","24.1","","98.28","","33","","","","NA"
"-81.15","43.03","LONDON A","6144473","2017-09-20 15:00","2017","09","20","15:00","24.7","","19.2","","71","","7","","4","","19.3","","98.33","","32","","","","Rain Showers"
"-81.15","43.03","LONDON A","6144473","2017-09-20 16:00","2017","09","20","16:00","26.9","","18.6","","60","","19","","13","","24.1","","98.31","","33","","","","Mostly Cloudy"
"-81.15","43.03","LONDON A","6144473","2017-09-20 17:00","2017","09","20","17:00","26.2","","17.7","","59","","18","","15","","24.1","","98.33","","32","","","","NA"
"-81.15","43.03","LONDON A","6144473","2017-09-20 18:00","2017","09","20","18:00","24.3","","18.3","","69","","13","","18","","24.1","","98.36","","31","","","","NA"
"-81.15","43.03","LONDON A","6144473","2017-09-20 19:00","2017","09","20","19:00","22.3","","17.3","","73","","14","","9","","24.1","","98.39","","28","","","","Mainly Clear"
"-81.15","43.03","LONDON A","6144473","2017-09-20 20:00","2017","09","20","20:00","20.2","","16.9","","81","","10","","6","","24.1","","98.43","","25","","","","NA"
"-81.15","43.03","LONDON A","6144473","2017-09-20 21:00","2017","09","20","21:00","18.6","","16.6","","88","","7","","7","","24.1","","98.44","","","","","","NA"
"-81.15","43.03","LONDON A","6144473","2017-09-20 22:00","2017","09","20","22:00","18.9","","17.6","","92","","8","","7","","24.1","","98.42","","","","","","Clear"
"-81.15","43.03","LONDON A","6144473","2017-09-20 23:00","2017","09","20","23:00","17.8","","16.8","","94","","10","","7","","24.1","","98.45","","","","","","NA"
"-81.15","43.03","LONDON A","6144473","2017-09-21 00:00","2017","09","21","00:00","17.3","","16.0","","92","","8","","10","","24.1","","98.48","","","","","","NA"
"-81.15","43.03","LONDON A","6144473","2017-09-21 01:00","2017","09","21","01:00","16.8","","15.9","","95","","4","","4","","24.1","","98.59","","","","","","Clear"
"-81.15","43.03","LONDON A","6144473","2017-09-21 02:00","2017","09","21","02:00","16.2","","15.8","","97","","4","","3","","24.1","","98.60","","","","","","NA"
"-81.15","43.03","LONDON A","6144473","2017-09-21 03:00","2017","09","21","03:00","15.9","","15.6","","98","","6","","4","","16.1","","98.60","","","","","","NA"
"-81.15","43.03","LONDON A","6144473","2017-09-21 04:00","2017","09","21","04:00","15.2","","14.9","","98","","8","","6","","8.1","","98.59","","","","","","Fog"
"-81.15","43.03","LONDON A","6144473","2017-09-21 05:00","2017","09","21","05:00","15.8","","15.4","","98","","8","","8","","9.7","","98.60","","","","","","Fog"
"-81.15","43.03","LONDON A","6144473","2017-09-21 06:00","2017","09","21","06:00","15.8","","15.4","","97","","6","","5","","4.8","","98.66","","","","","","Fog"
"-81.15","43.03","LONDON A","6144473","2017-09-21 07:00","2017","09","21","07:00","15.8","","15.4","","97","","10","","4","","4.8","","98.65","","","","","","Fog"
"-81.15","43.03","LONDON A","6144473","2017-09-21 08:00","2017","09","21","08:00","19.1","","17.5","","90","","11","","8","","9.7","","98.69","","","","","","Fog"
"-81.15","43.03","LONDON A","6144473","2017-09-21 09:00","2017","09","21","09:00","21.9","","18.1","","79","","11","","14","","16.1","","98.71","","28","","","","NA"
"-81.15","43.03","LONDON A","6144473","2017-09-21 10:00","2017","09","21","10:00","24.6","","18.8","","69","","13","","8","","24.1","","98.70","","31","","","","Mainly Clear"
"-81.15","43.03","LONDON A","6144473","2017-09-21 11:00","2017","09","21","11:00","26.5","","18.4","","61","","18","","9","","24.1","","98.69","","33","","","","NA"
"-81.15","43.03","LONDON A","6144473","2017-09-21 12:00","2017","09","21","12:00","27.8","","17.7","","54","","18","","9","","24.1","","98.68","","34","","","","NA"
"-81.15","43.03","LONDON A","6144473","2017-09-21 13:00","2017","09","21","13:00","28.6","","17.3","","50","","14","","9","","24.1","","98.65","","34","","","","Mainly Clear"
"-81.15","43.03","LONDON A","6144473","2017-09-21 14:00","2017","09","21","14:00","29.3","","17.6","","49","","19","","10","","24.1","","98.61","","35","","","","NA"
"-81.15","43.03","LONDON A","6144473","2017-09-21 15:00","2017","09","21","15:00","29.1","","17.0","","47","","21","","15","","24.1","","98.60","","34","","","","NA"
"-81.15","43.03","LONDON A","6144473","2017-09-21 16:00","2017","09","21","16:00","28.9","","17.2","","48","","21","","3","","24.1","","98.58","","34","","","","Mainly Clear"
"-81.15","43.03","LONDON A","6144473","2017-09-21 17:00","2017","09","21","17:00","28.1","","16.1","","48","","15","","9","","24.1","","98.56","","33","","","","NA"
"-81.15","43.03","LONDON A","6144473","2017-09-21 18:00","2017","09","21","18:00","26.4","","16.9","","56","","16","","9","","24.1","","98.58","","32","","","","NA"
"-81.15","43.03","LONDON A","6144473","2017-09-21 19:00","2017","09","21","19:00","24.2","","17.0","","64","","16","","9","","24.1","","98.62","","29","","","","Mainly Clear"
"-81.15","43.03","LONDON A","6144473","2017-09-21 20:00","2017","09","21","20:00","21.5","","17.0","","75","","11","","5","","24.1","","98.67","","27","","","","NA"
"-81.15","43.03","LONDON A","6144473","2017-09-21 21:00","2017","09","21","21:00","19.2","","17.1","","87","","9","","8","","24.1","","98.69","","","","","","NA"
"-81.15","43.03","LONDON A","6144473","2017-09-21 22:00","2017","09","21","22:00","19.0","","16.4","","85","","8","","7","","24.1","","98.73","","","","","","Mainly Clear"
"-81.15","43.03","LONDON A","6144473","2017-09-21 23:00","2017","09","21","23:00","18.2","","16.6","","90","","8","","11","","24.1","","98.72","","","","","","NA"
"-81.15","43.03","LONDON A","6144473","2017-09-22 00:00","2017","09","22","00:00","18.2","","16.6","","90","","5","","7","","24.1","","98.71","","","","","","NA"
"-81.15","43.03","LONDON A","6144473","2017-09-22 01:00","2017","09","22","01:00","17.8","","16.6","","93","","8","","9","","24.1","","98.69","","","","","","Mostly Cloudy"
"-81.15","43.03","LONDON A","6144473","2017-09-22 02:00","2017","09","22","02:00","17.7","","16.4","","92","","10","","9","","24.1","","98.70","","","","","","NA"
"-81.15","43.03","LONDON A","6144473","2017-09-22 03:00","2017","09","22","03:00","17.3","","16.3","","94","","36","","2","","24.1","","98.72","","","","","","NA"
"-81.15","43.03","LONDON A","6144473","2017-09-22 04:00","2017","09","22","04:00","17.3","","16.2","","94","","6","","4","","24.1","","98.76","","","","","","Mostly Cloudy"
"-81.15","43.03","LONDON A","6144473","2017-09-22 05:00","2017","09","22","05:00","16.5","","15.3","","93","","6","","6","","24.1","","98.78","","","","","","NA"
"-81.15","43.03","LONDON A","6144473","2017-09-22 06:00","2017","09","22","06:00","16.7","","15.8","","94","","5","","7","","8.1","","98.81","","","","","","Fog"
"-81.15","43.03","LONDON A","6144473","2017-09-22 07:00","2017","09","22","07:00","16.4","","15.6","","95","","36","","3","","9.7","","98.83","","","","","","Fog"
"-81.15","43.03","LONDON A","6144473","2017-09-22 08:00","2017","09","22","08:00","20.0","","17.4","","85","","9","","9","","12.9","","98.81","","26","","","","NA"
"-81.15","43.03","LONDON A","6144473","2017-09-22 09:00","2017","09","22","09:00","23.0","","18.1","","74","","11","","8","","19.3","","98.81","","29","","","","NA"
"-81.15","43.03","LONDON A","6144473","2017-09-22 10:00","2017","09","22","10:00","25.5","","17.2","","60","","13","","9","","24.1","","98.81","","31","","","","Clear"
"-81.15","43.03","LONDON A","6144473","2017-09-22 11:00","2017","09","22","11:00","27.3","","16.6","","51","","14","","9","","24.1","","98.79","","32","","","","NA"
"-81.15","43.03","LONDON A","6144473","2017-09-22 12:00","2017","09","22","12:00","28.6","","14.8","","42","","13","","5","","24.1","","98.77","","32","","","","NA"
"-81.15","43.03","LONDON A","6144473","2017-09-22 13:00","2017","09","22","13:00","29.7","","15.1","","40","","9","","7","","24.1","","98.72","","34","","","","Mainly Clear"
"-81.15","43.03","LONDON A","6144473","2017-09-22 14:00","2017","09","22","14:00","30.2","","14.4","","38","","9","","10","","24.1","","98.68","","34","","","","NA"
"-81.15","43.03","LONDON A","6144473","2017-09-22 15:00","2017","09","22","15:00","30.7","","13.4","","34","","11","","10","","24.1","","98.63","","34","","","","NA"
"-81.15","43.03","LONDON A","6144473","2017-09-22 16:00","2017","09","22","16:00","30.6","","14.3","","36","","9","","12","","24.1","","98.61","","34","","","","Mainly Clear"
"-81.15","43.03","LONDON A","6144473","2017-09-22 17:00","2017","09","22","17:00","28.2","","17.0","","50","","19","","16","","24.1","","98.62","","33","","","","NA"
"-81.15","43.03","LONDON A","6144473","2017-09-22 18:00","2017","09","22","18:00","26.6","","16.6","","54","","19","","12","","24.1","","98.66","","32","","","","NA"
"-81.15","43.03","LONDON A","6144473","2017-09-22 19:00","2017","09","22","19:00","23.6","","17.4","","68","","16","","12","","24.1","","98.63","","29","","","","Mainly Clear"
"-81.15","43.03","LONDON A","6144473","2017-09-22 20:00","2017","09","22","20:00","22.0","","14.9","","64","","17","","8","","24.1","","98.63","","26","","","","NA"
"-81.15","43.03","LONDON A","6144473","2017-09-22 21:00","2017","09","22","21:00","19.4","","15.4","","77","","36","","1","","24.1","","98.65","","","","","","NA"
"-81.15","43.03","LONDON A","6144473","2017-09-22 22:00","2017","09","22","22:00","17.6","","14.9","","84","","7","","5","","24.1","","98.70","","","","","","Mainly Clear"
"-81.15","43.03","LONDON A","6144473","2017-09-22 23:00","2017","09","22","23:00","16.2","","14.4","","89","","9","","3","","24.1","","98.65","","","","","","NA"
"-81.15","43.03","LONDON A","6144473","2017-09-23 00:00","2017","09","23","00:00","16.2","","14.4","","89","","9","","4","","24.1","","98.66","","","","","","NA"
"-81.15","43.03","LONDON A","6144473","2017-09-23 01:00","2017","09","23","01:00","15.6","","14.6","","94","","7","","3","","24.1","","98.67","","","","","","Clear"
"-81.15","43.03","LONDON A","6144473","2017-09-23 02:00","2017","09","23","02:00","14.9","","13.2","","90","","2","","3","","24.1","","98.60","","","","","","NA"
"-81.15","43.03","LONDON A","6144473","2017-09-23 03:00","2017","09","23","03:00","14.1","","13.1","","94","","35","","5","","24.1","","98.59","","","","","","NA"
"-81.15","43.03","LONDON A","6144473","2017-09-23 04:00","2017","09","23","04:00","14.5","","13.4","","93","","34","","5","","24.1","","98.62","","","","","","Mainly Clear"
"-81.15","43.03","LONDON A","6144473","2017-09-23 05:00","2017","09","23","05:00","15.1","","13.7","","91","","0","","1","","24.1","","98.67","","","","","","NA"
"-81.15","43.03","LONDON A","6144473","2017-09-23 06:00","2017","09","23","06:00","14.1","","13.1","","93","","35","","3","","24.1","","98.74","","","","","","NA"
"-81.15","43.03","LONDON A","6144473","2017-09-23 07:00","2017","09","23","07:00","15.3","","14.0","","92","","36","","3","","24.1","","98.81","","","","","","Mainly Clear"
"-81.15","43.03","LONDON A","6144473","2017-09-23 08:00","2017","09","23","08:00","19.3","","15.1","","76","","11","","4","","24.1","","98.83","","","","","","NA"
"-81.15","43.03","LONDON A","6144473","2017-09-23 09:00","2017","09","23","09:00","24.3","","14.7","","55","","21","","5","","24.1","","98.86","","28","","","","NA"
"-81.15","43.03","LONDON A","6144473","2017-09-23 10:00","2017","09","23","10:00","27.2","","14.2","","44","","28","","8","","24.1","","98.86","","31","","","","Mainly Clear"
"-81.15","43.03","LONDON A","6144473","2017-09-23 11:00","2017","09","23","11:00","28.4","","12.7","","37","","27","","8","","24.1","","98.87","","31","","","","NA"
"-81.15","43.03","LONDON A","6144473","2017-09-23 12:00","2017","09","23","12:00","29.4","","16.2","","44","","24","","5","","24.1","","98.86","","34","","","","NA"
"-81.15","43.03","LONDON A","6144473","2017-09-23 13:00","2017","09","23","13:00","31.0","","17.2","","43","","28","","13","","24.1","","98.80","","36","","","","Mainly Clear"
"-81.15","43.03","LONDON A","6144473","2017-09-23 14:00","2017","09","23","14:00","31.5","","18.1","","44","","33","","7","","24.1","","98.76","","38","","","","NA"
"-81.15","43.03","LONDON A","6144473","2017-09-23 15:00","2017","09","23","15:00","31.8","","19.0","","46","","34","","12","","24.1","","98.72","","39","","","","NA"
"-81.15","43.03","LONDON A","6144473","2017-09-23 16:00","2017","09","23","16:00","31.4","","18.9","","47","","32","","6","","24.1","","98.67","","38","","","","Clear"
"-81.15","43.03","LONDON A","6144473","2017-09-23 17:00","2017","09","23","17:00","30.4","","18.3","","48","","33","","7","","24.1","","98.67","","37","","","","NA"
"-81.15","43.03","LONDON A","6144473","2017-09-23 18:00","2017","09","23","18:00","26.5","","20.7","","70","","34","","4","","24.1","","98.67","","35","","","","NA"
"-81.15","43.03","LONDON A","6144473","2017-09-23 19:00","2017","09","23","19:00","24.0","","18.7","","72","","14","","3","","24.1","","98.71","","31","","","","Clear"
"-81.15","43.03","LONDON A","6144473","2017-09-23 20:00","2017","09","23","20:00","22.6","","17.4","","72","","36","","3","","24.1","","98.74","","28","","","","NA"
"-81.15","43.03","LONDON A","6144473","2017-09-23 21:00","2017","09","23","21:00","20.5","","16.7","","78","","36","","1","","24.1","","98.74","","26","","","","NA"
"-81.15","43.03","LONDON A","6144473","2017-09-23 22:00","2017","09","23","22:00","19.3","","16.7","","85","","36","","3","","24.1","","98.74","","","","","","Clear"
"-81.15","43.03","LONDON A","6144473","2017-09-23 23:00","2017","09","23","23:00","18.2","","16.4","","89","","0","","1","","24.1","","98.76","","","","","","NA"
"-81.15","43.03","LONDON A","6144473","2017-09-24 00:00","2017","09","24","00:00","18.1","","17.0","","93","","36","","1","","24.1","","98.78","","","","","","NA"
"-81.15","43.03","LONDON A","6144473","2017-09-24 01:00","2017","09","24","01:00","16.4","","15.2","","93","","36","","3","","24.1","","98.79","","","","","","Clear"
"-81.15","43.03","LONDON A","6144473","2017-09-24 02:00","2017","09","24","02:00","16.6","","16.1","","96","","34","","6","","24.1","","98.79","","","","","","NA"
"-81.15","43.03","LONDON A","6144473","2017-09-24 03:00","2017","09","24","03:00","16.4","","15.9","","96","","5","","3","","24.1","","98.81","","","","","","NA"
"-81.15","43.03","LONDON A","6144473","2017-09-24 04:00","2017","09","24","04:00","16.1","","15.7","","98","","36","","2","","24.1","","98.82","","","","","","Clear"
"-81.15","43.03","LONDON A","6144473","2017-09-24 05:00","2017","09","24","05:00","15.5","","14.7","","95","","36","","3","","24.1","","98.84","","","","","","NA"
"-81.15","43.03","LONDON A","6144473","2017-09-24 06:00","2017","09","24","06:00","15.3","","14.8","","97","","36","","2","","24.1","","98.88","","","","","","NA"
"-81.15","43.03","LONDON A","6144473","2017-09-24 07:00","2017","09","24","07:00","15.7","","14.7","","94","","36","","2","","24.1","","98.92","","","","","","Clear"
"-81.15","43.03","LONDON A","6144473","2017-09-24 08:00","2017","09","24","08:00","20.9","","17.1","","79","","36","","2","","24.1","","98.94","","26","","","","NA"
"-81.15","43.03","LONDON A","6144473","2017-09-24 09:00","2017","09","24","09:00","25.7","","18.5","","64","","32","","4","","24.1","","98.95","","32","","","","NA"
"-81.15","43.03","LONDON A","6144473","2017-09-24 10:00","2017","09","24","10:00","28.6","","19.4","","57","","3","","4","","24.1","","98.93","","36","","","","Clear"
"-81.15","43.03","LONDON A","6144473","2017-09-24 11:00","2017","09","24","11:00","29.9","","19.2","","52","","26","","3","","24.1","","98.91","","37","","","","NA"
"-81.15","43.03","LONDON A","6144473","2017-09-24 12:00","2017","09","24","12:00","30.9","","19.2","","49","","10","","7","","24.1","","98.87","","38","","","","NA"
"-81.15","43.03","LONDON A","6144473","2017-09-24 13:00","2017","09","24","13:00","31.5","","19.3","","48","","14","","10","","24.1","","98.81","","39","","","","Mainly Clear"
"-81.15","43.03","LONDON A","6144473","2017-09-24 14:00","2017","09","24","14:00","31.5","","19.1","","47","","8","","5","","24.1","","98.75","","38","","","","NA"
"-81.15","43.03","LONDON A","6144473","2017-09-24 15:00","2017","09","24","15:00","31.5","","18.8","","46","","9","","11","","24.1","","98.70","","38","","","","NA"
"-81.15","43.03","LONDON A","6144473","2017-09-24 16:00","2017","09","24","16:00","30.8","","18.6","","48","","12","","8","","24.1","","98.65","","37","","","","Mainly Clear"
"-81.15","43.03","LONDON A","6144473","2017-09-24 17:00","2017","09","24","17:00","28.2","","19.5","","58","","7","","6","","24.1","","98.64","","35","","","","NA"
"-81.15","43.03","LONDON A","6144473","2017-09-24 18:00","2017","09","24","18:00","28.7","","18.0","","52","","19","","12","","24.1","","98.65","","35","","","","NA"
"-81.15","43.03","LONDON A","6144473","2017-09-24 19:00","2017","09","24","19:00","24.7","","17.0","","62","","20","","3","","24.1","","98.66","","30","","","","Clear"
"-81.15","43.03","LONDON A","6144473","2017-09-24 20:00","2017","09","24","20:00","21.4","","17.5","","78","","7","","4","","24.1","","98.69","","27","","","","NA"
"-81.15","43.03","LONDON A","6144473","2017-09-24 21:00","2017","09","24","21:00","20.5","","17.6","","83","","5","","4","","24.1","","98.70","","26","","","","NA"
"-81.15","43.03","LONDON A","6144473","2017-09-24 22:00","2017","09","24","22:00","19.4","","17.6","","89","","36","","2","","24.1","","98.69","","","","","","Clear"
"-81.15","43.03","LONDON A","6144473","2017-09-24 23:00","2017","09","24","23:00","18.5","","17.6","","94","","5","","5","","24.1","","98.68","","","","","","NA"
"-81.15","43.03","LONDON A","6144473","2017-09-25 00:00","2017","09","25","00:00"
"-81.15","43.03","LONDON A","6144473","2017-09-25 01:00","2017","09","25","01:00","18.1","","17.1","","94","","5","","4","","24.1","","98.63","","","","","","Clear"
"-81.15","43.03","LONDON A","6144473","2017-09-25 02:00","2017","09","25","02:00","17.6","","17.2","","97","","36","","2","","24.1","","98.63","","","","","","NA"
"-81.15","43.03","LONDON A","6144473","2017-09-25 03:00","2017","09","25","03:00","17.0","","16.5","","97","","36","","2","","24.1","","98.59","","","","","","NA"
"-81.15","43.03","LONDON A","6144473","2017-09-25 04:00","2017","09","25","04:00","15.9","","15.5","","98","","4","","6","","19.3","","98.60","","","","","","Clear"
"-81.15","43.03","LONDON A","6144473","2017-09-25 05:00","2017","09","25","05:00","16.6","","15.4","","92","","7","","6","","24.1","","98.60","","","","","","NA"
"-81.15","43.03","LONDON A","6144473","2017-09-25 06:00","2017","09","25","06:00","17.2","","15.7","","91","","9","","9","","19.3","","98.61","","","","","","NA"
"-81.15","43.03","LONDON A","6144473","2017-09-25 07:00","2017","09","25","07:00","18.5","","16.7","","89","","8","","8","","24.1","","98.64","","","","","","Mostly Cloudy"
"-81.15","43.03","LONDON A","6144473","2017-09-25 08:00","2017","09","25","08:00","20.8","","18.4","","86","","10","","8","","24.1","","98.64","","27","","","","NA"
"-81.15","43.03","LONDON A","6144473","2017-09-25 09:00","2017","09","25","09:00","24.9","","19.3","","71","","13","","14","","24.1","","98.66","","32","","","","NA"
"-81.15","43.03","LONDON A","6144473","2017-09-25 10:00","2017","09","25","10:00","27.9","","20.0","","62","","13","","14","","24.1","","98.63","","35","","","","Mainly Clear"
"-81.15","43.03","LONDON A","6144473","2017-09-25 11:00","2017","09","25","11:00","29.8","","19.5","","53","","13","","14","","24.1","","98.60","","37","","","","NA"
"-81.15","43.03","LONDON A","6144473","2017-09-25 12:00","2017","09","25","12:00","30.6","","17.9","","46","","16","","13","","24.1","","98.58","","37","","","","NA"
"-81.15","43.03","LONDON A","6144473","2017-09-25 13:00","2017","09","25","13:00","30.9","","17.2","","43","","17","","14","","24.1","","98.51","","36","","","","Mostly Cloudy"
"-81.15","43.03","LONDON A","6144473","2017-09-25 14:00","2017","09","25","14:00","30.6","","16.9","","43","","15","","11","","24.1","","98.45","","36","","","","NA"
"-81.15","43.03","LONDON A","6144473","2017-09-25 15:00","2017","09","25","15:00","31.0","","16.2","","40","","11","","12","","24.1","","98.40","","36","","","","NA"
"-81.15","43.03","LONDON A","6144473","2017-09-25 16:00","2017","09","25","16:00","30.7","","14.8","","37","","13","","7","","24.1","","98.38","","35","","","","Mostly Cloudy"
"-81.15","43.03","LONDON A","6144473","2017-09-25 17:00","2017","09","25","17:00","29.2","","15.8","","43","","18","","14","","24.1","","98.35","","34","","","","NA"
"-81.15","43.03","LONDON A","6144473","2017-09-25 18:00","2017","09","25","18:00","26.9","","16.2","","51","","17","","11","","24.1","","98.35","","32","","","","NA"
"-81.15","43.03","LONDON A","6144473","2017-09-25 19:00","2017","09","25","19:00","25.0","","16.5","","59","","16","","6","","24.1","","98.34","","30","","","","Mostly Cloudy"
"-81.15","43.03","LONDON A","6144473","2017-09-25 20:00","2017","09","25","20:00","21.2","","16.3","","73","","10","","5","","24.1","","98.35","","26","","","","NA"
"-81.15","43.03","LONDON A","6144473","2017-09-25 21:00","2017","09","25","21:00","20.7","","16.7","","77","","10","","7","","24.1","","98.35","","26","","","","NA"
"-81.15","43.03","LONDON A","6144473","2017-09-25 22:00","2017","09","25","22:00","20.3","","16.8","","80","","7","","3","","24.1","","98.36","","25","","","","Clear"
"-81.15","43.03","LONDON A","6144473","2017-09-25 23:00","2017","09","25","23:00","19.1","","17.0","","88","","4","","6","","24.1","","98.37","","","","","","NA"
"-81.15","43.03","LONDON A","6144473","2017-09-26 00:00","2017","09","26","00:00","19.2","","16.8","","85","","7","","5","","24.1","","98.36","","","","","","NA"
"-81.15","43.03","LONDON A","6144473","2017-09-26 01:00","2017","09","26","01:00","18.8","","17.1","","90","","7","","4","","24.1","","98.37","","","","","","Mainly Clear"
"-81.15","43.03","LONDON A","6144473","2017-09-26 02:00","2017","09","26","02:00","19.3","","17.2","","88","","6","","3","","24.1","","98.34","","","","","","NA"
"-81.15","43.03","LONDON A","6144473","2017-09-26 03:00","2017","09","26","03:00","19.2","","17.2","","88","","10","","7","","24.1","","98.33","","","","","","NA"
"-81.15","43.03","LONDON A","6144473","2017-09-26 04:00","2017","09","26","04:00","18.4","","16.8","","90","","11","","7","","24.1","","98.31","","","","","","Mainly Clear"
"-81.15","43.03","LONDON A","6144473","2017-09-26 05:00","2017","09","26","05:00","18.7","","17.0","","89","","10","","5","","24.1","","98.31","","","","","","NA"
"-81.15","43.03","LONDON A","6144473","2017-09-26 06:00","2017","09","26","06:00","18.4","","16.8","","90","","9","","5","","12.9","","98.33","","","","","","NA"
"-81.15","43.03","LONDON A","6144473","2017-09-26 07:00","2017","09","26","07:00","18.6","","17.2","","92","","7","","7","","9.7","","98.37","","","","","","Fog"
"-81.15","43.03","LONDON A","6144473","2017-09-26 08:00","2017","09","26","08:00","21.8","","19.2","","85","","14","","7","","16.1","","98.37","","29","","","","NA"
"-81.15","43.03","LONDON A","6144473","2017-09-26 09:00","2017","09","26","09:00","25.4","","19.7","","71","","18","","5","","16.1","","98.36","","33","","","","NA"
"-81.15","43.03","LONDON A","6144473","2017-09-26 10:00","2017","09","26","10:00","28.4","","19.2","","57","","19","","8","","24.1","","98.34","","35","","","","Mainly Clear"
"-81.15","43.03","LONDON A","6144473","2017-09-26 11:00","2017","09","26","11:00","29.9","","18.7","","50","","19","","11","","24.1","","98.32","","36","","","","NA"
"-81.15","43.03","LONDON A","6144473","2017-09-26 12:00","2017","09","26","12:00","30.9","","18.1","","46","","17","","16","","24.1","","98.30","","37","","","","NA"
"-81.15","43.03","LONDON A","6144473","2017-09-26 13:00","2017","09","26","13:00","31.0","","17.3","","43","","19","","17","","24.1","","98.23","","36","","","","Mainly Clear"
"-81.15","43.03","LONDON A","6144473","2017-09-26 14:00","2017","09","26","14:00","31.2","","16.8","","41","","20","","13","","24.1","","98.19","","36","","","","NA"
"-81.15","43.03","LONDON A","6144473","2017-09-26 15:00","2017","09","26","15:00","31.0","","17.1","","43","","19","","22","","24.1","","98.15","","36","","","","NA"
"-81.15","43.03","LONDON A","6144473","2017-09-26 16:00","2017","09","26","16:00","30.1","","17.3","","46","","18","","24","","24.1","","98.12","","36","","","","Mainly Clear"
"-81.15","43.03","LONDON A","6144473","2017-09-26 17:00","2017","09","26","17:00","29.0","","16.6","","46","","18","","24","","24.1","","98.13","","34","","","","NA"
"-81.15","43.03","LONDON A","6144473","2017-09-26 18:00","2017","09","26","18:00","26.7","","16.9","","54","","20","","16","","24.1","","98.12","","32","","","","NA"
"-81.15","43.03","LONDON A","6144473","2017-09-26 19:00","2017","09","26","19:00","24.8","","17.1","","62","","19","","13","","24.1","","98.12","","30","","","","Mainly Clear"
"-81.15","43.03","LONDON A","6144473","2017-09-26 20:00","2017","09","26","20:00","22.2","","16.9","","72","","19","","8","","24.1","","98.13","","27","","","","NA"
"-81.15","43.03","LONDON A","6144473","2017-09-26 21:00","2017","09","26","21:00","21.1","","17.0","","77","","14","","4","","24.1","","98.14","","26","","","","NA"
"-81.15","43.03","LONDON A","6144473","2017-09-26 22:00","2017","09","26","22:00","19.4","","17.0","","86","","36","","2","","24.1","","98.14","","","","","","Clear"
"-81.15","43.03","LONDON A","6144473","2017-09-26 23:00","2017","09","26","23:00","19.3","","16.5","","84","","13","","7","","24.1","","98.12","","","","","","NA"
"-81.15","43.03","LONDON A","6144473","2017-09-27 00:00","2017","09","27","00:00","18.9","","16.9","","88","","13","","6","","24.1","","98.10","","","","","","NA"
"-81.15","43.03","LONDON A","6144473","2017-09-27 01:00","2017","09","27","01:00","18.8","","17.6","","92","","11","","5","","24.1","","98.08","","","","","","Clear"
"-81.15","43.03","LONDON A","6144473","2017-09-27 02:00","2017","09","27","02:00","18.3","","17.6","","95","","14","","4","","24.1","","98.04","","","","","","NA"
"-81.15","43.03","LONDON A","6144473","2017-09-27 03:00","2017","09","27","03:00","18.3","","17.7","","96","","36","","1","","24.1","","98.04","","","","","","NA"
"-81.15","43.03","LONDON A","6144473","2017-09-27 04:00","2017","09","27","04:00","19.4","","16.4","","83","","21","","6","","24.1","","98.02","","","","","","Clear"
"-81.15","43.03","LONDON A","6144473","2017-09-27 05:00","2017","09","27","05:00","20.0","","17.0","","83","","22","","7","","24.1","","98.02","","25","","","","NA"
"-81.15","43.03","LONDON A","6144473","2017-09-27 06:00","2017","09","27","06:00","18.6","","16.7","","88","","19","","4","","24.1","","98.02","","","","","","NA"
"-81.15","43.03","LONDON A","6144473","2017-09-27 07:00","2017","09","27","07:00","20.5","","17.6","","83","","25","","10","","24.1","","98.01","","26","","","","Mainly Clear"
"-81.15","43.03","LONDON A","6144473","2017-09-27 08:00","2017","09","27","08:00","22.2","","18.0","","77","","27","","16","","24.1","","98.02","","28","","","","NA"
"-81.15","43.03","LONDON A","6144473","2017-09-27 09:00","2017","09","27","09:00","23.1","","18.7","","76","","29","","17","","24.1","","98.03","","30","","","","NA"
"-81.15","43.03","LONDON A","6144473","2017-09-27 10:00","2017","09","27","10:00","24.5","","19.1","","71","","31","","18","","24.1","","98.06","","31","","","","Mostly Cloudy"
"-81.15","43.03","LONDON A","6144473","2017-09-27 11:00","2017","09","27","11:00","24.4","","18.7","","70","","29","","18","","16.1","","98.06","","31","","","","NA"
"-81.15","43.03","LONDON A","6144473","2017-09-27 12:00","2017","09","27","12:00","22.4","","18.7","","79","","30","","18","","16.1","","98.07","","29","","","","NA"
"-81.15","43.03","LONDON A","6144473","2017-09-27 13:00","2017","09","27","13:00","21.6","","18.3","","81","","30","","13","","16.1","","98.03","","28","","","","Cloudy"
"-81.15","43.03","LONDON A","6144473","2017-09-27 14:00","2017","09","27","14:00","21.6","","17.3","","76","","33","","17","","24.1","","98.07","","27","","","","NA"
"-81.15","43.03","LONDON A","6144473","2017-09-27 15:00","2017","09","27","15:00","21.9","","14.3","","62","","31","","20","","24.1","","98.07","","25","","","","NA"
"-81.15","43.03","LONDON A","6144473","2017-09-27 16:00","2017","09","27","16:00","20.0","","13.5","","66","","31","","16","","24.1","","98.13","","","","","","Mostly Cloudy"
"-81.15","43.03","LONDON A","6144473","2017-09-27 17:00","2017","09","27","17:00","19.0","","13.0","","68","","32","","19","","24.1","","98.18","","","","","","NA"
"-81.15","43.03","LONDON A","6144473","2017-09-27 18:00","2017","09","27","18:00","18.1","","12.7","","70","","34","","20","","24.1","","98.21","","","","","","NA"
"-81.15","43.03","LONDON A","6144473","2017-09-27 19:00","2017","09","27","19:00","16.6","","11.9","","74","","34","","16","","24.1","","98.21","","","","","","Mostly Cloudy"
"-81.15","43.03","LONDON A","6144473","2017-09-27 20:00","2017","09","27","20:00","15.7","","11.4","","75","","33","","13","","24.1","","98.29","","","","","","NA"
"-81.15","43.03","LONDON A","6144473","2017-09-27 21:00","2017","09","27","21:00","15.0","","11.4","","79","","35","","14","","24.1","","98.32","","","","","","NA"
"-81.15","43.03","LONDON A","6144473","2017-09-27 22:00","2017","09","27","22:00","14.6","","10.8","","78","","35","","11","","24.1","","98.34","","","","","","Mostly Cloudy"
"-81.15","43.03","LONDON A","6144473","2017-09-27 23:00","2017","09","27","23:00","14.0","","10.2","","78","","35","","11","","24.1","","98.35","","","","","","NA"
"-81.15","43.03","LONDON A","6144473","2017-09-28 00:00","2017","09","28","00:00","13.8","","9.8","","77","","33","","14","","24.1","","98.39","","","","","","NA"
"-81.15","43.03","LONDON A","6144473","2017-09-28 01:00","2017","09","28","01:00","13.3","","8.9","","74","","34","","14","","24.1","","98.43","","","","","","Mostly Cloudy"
"-81.15","43.03","LONDON A","6144473","2017-09-28 02:00","2017","09","28","02:00","12.3","","8.8","","79","","34","","11","","24.1","","98.42","","","","","","NA"
"-81.15","43.03","LONDON A","6144473","2017-09-28 03:00","2017","09","28","03:00","11.7","","7.7","","77","","35","","15","","24.1","","98.43","","","","","","NA"
"-81.15","43.03","LONDON A","6144473","2017-09-28 04:00","2017","09","28","04:00","11.6","","7.9","","78","","35","","16","","24.1","","98.47","","","","","","Mainly Clear"
"-81.15","43.03","LONDON A","6144473","2017-09-28 05:00","2017","09","28","05:00","12.6","","8.0","","74","","33","","17","","24.1","","98.48","","","","","","NA"
"-81.15","43.03","LONDON A","6144473","2017-09-28 06:00","2017","09","28","06:00","11.4","","7.6","","77","","35","","12","","24.1","","98.51","","","","","","NA"
"-81.15","43.03","LONDON A","6144473","2017-09-28 07:00","2017","09","28","07:00","11.8","","8.2","","78","","35","","11","","24.1","","98.54","","","","","","Mostly Cloudy"
"-81.15","43.03","LONDON A","6144473","2017-09-28 08:00","2017","09","28","08:00","13.0","","7.7","","70","","36","","14","","24.1","","98.56","","","","","","NA"
"-81.15","43.03","LONDON A","6144473","2017-09-28 09:00","2017","09","28","09:00","13.6","","7.1","","65","","34","","17","","24.1","","98.64","","","","","","NA"
"-81.15","43.03","LONDON A","6144473","2017-09-28 10:00","2017","09","28","10:00","15.0","","6.1","","55","","34","","20","","24.1","","98.63","","","","","","Mostly Cloudy"
"-81.15","43.03","LONDON A","6144473","2017-09-28 11:00","2017","09","28","11:00","15.6","","5.5","","51","","32","","20","","24.1","","98.62","","","","","","NA"
"-81.15","43.03","LONDON A","6144473","2017-09-28 12:00","2017","09","28","12:00","16.5","","6.3","","51","","35","","13","","24.1","","98.60","","","","","","NA"
"-81.15","43.03","LONDON A","6144473","2017-09-28 13:00","2017","09","28","13:00","16.2","","6.1","","51","","35","","19","","24.1","","98.57","","","","","","Mostly Cloudy"
"-81.15","43.03","LONDON A","6144473","2017-09-28 14:00","2017","09","28","14:00","16.5","","6.2","","50","","31","","16","","24.1","","98.57","","","","","","NA"
"-81.15","43.03","LONDON A","6144473","2017-09-28 15:00","2017","09","28","15:00","15.9","","6.6","","53","","30","","14","","24.1","","98.56","","","","","","NA"
"-81.15","43.03","LONDON A","6144473","2017-09-28 16:00","2017","09","28","16:00","15.3","","6.9","","57","","30","","17","","24.1","","98.60","","","","","","Mostly Cloudy"
"-81.15","43.03","LONDON A","6144473","2017-09-28 17:00","2017","09","28","17:00","15.1","","6.7","","57","","32","","13","","24.1","","98.60","","","","","","NA"
"-81.15","43.03","LONDON A","6144473","2017-09-28 18:00","2017","09","28","18:00","13.4","","6.8","","64","","31","","9","","24.1","","98.59","","","","","","NA"
"-81.15","43.03","LONDON A","6144473","2017-09-28 19:00","2017","09","28","19:00","12.4","","7.1","","70","","32","","8","","24.1","","98.58","","","","","","Clear"
"-81.15","43.03","LONDON A","6144473","2017-09-28 20:00","2017","09","28","20:00","9.3","","6.8","","85","","36","","1","","24.1","","98.60","","","","","","NA"
"-81.15","43.03","LONDON A","6144473","2017-09-28 21:00","2017","09","28","21:00","9.3","","6.5","","82","","11","","4","","24.1","","98.60","","","","","","NA"
"-81.15","43.03","LONDON A","6144473","2017-09-28 22:00","2017","09","28","22:00","7.3","","6.4","","94","","7","","4","","24.1","","98.62","","","","","","Clear"
"-81.15","43.03","LONDON A","6144473","2017-09-28 23:00","2017","09","28","23:00","7.0","","6.0","","93","","10","","4","","24.1","","98.61","","","","","","NA"
"-81.15","43.03","LONDON A","6144473","2017-09-29 00:00","2017","09","29","00:00","8.0","","6.4","","90","","8","","6","","24.1","","98.58","","","","","","NA"
"-81.15","43.03","LONDON A","6144473","2017-09-29 01:00","2017","09","29","01:00","8.2","","6.7","","90","","8","","7","","24.1","","98.57","","","","","","Mainly Clear"
"-81.15","43.03","LONDON A","6144473","2017-09-29 02:00","2017","09","29","02:00","8.7","","7.0","","89","","12","","7","","24.1","","98.53","","","","","","NA"
"-81.15","43.03","LONDON A","6144473","2017-09-29 03:00","2017","09","29","03:00","8.6","","7.0","","90","","11","","8","","24.1","","98.49","","","","","","NA"
"-81.15","43.03","LONDON A","6144473","2017-09-29 04:00","2017","09","29","04:00","9.4","","7.3","","86","","13","","10","","24.1","","98.43","","","","","","Mostly Cloudy"
"-81.15","43.03","LONDON A","6144473","2017-09-29 05:00","2017","09","29","05:00","9.4","","7.1","","85","","11","","5","","24.1","","98.41","","","","","","NA"
"-81.15","43.03","LONDON A","6144473","2017-09-29 06:00","2017","09","29","06:00","11.1","","7.3","","77","","17","","7","","24.1","","98.36","","","","","","NA"
"-81.15","43.03","LONDON A","6144473","2017-09-29 07:00","2017","09","29","07:00","11.7","","9.4","","86","","21","","10","","12.9","","98.42","","","","","","Rain Showers"
"-81.15","43.03","LONDON A","6144473","2017-09-29 08:00","2017","09","29","08:00","11.8","","10.5","","92","","20","","14","","8.1","","98.35","","","","","","Rain Showers,Fog"
"-81.15","43.03","LONDON A","6144473","2017-09-29 09:00","2017","09","29","09:00","12.9","","11.2","","89","","24","","20","","24.1","","98.31","","","","","","NA"
"-81.15","43.03","LONDON A","6144473","2017-09-29 10:00","2017","09","29","10:00","15.2","","11.8","","80","","25","","23","","24.1","","98.28","","","","","","Cloudy"
"-81.15","43.03","LONDON A","6144473","2017-09-29 11:00","2017","09","29","11:00","16.6","","11.6","","72","","26","","27","","24.1","","98.27","","","","","","NA"
"-81.15","43.03","LONDON A","6144473","2017-09-29 12:00","2017","09","29","12:00","17.8","","10.3","","61","","29","","23","","24.1","","98.21","","","","","","NA"
"-81.15","43.03","LONDON A","6144473","2017-09-29 13:00","2017","09","29","13:00","16.2","","10.1","","67","","29","","25","","24.1","","98.24","","","","","","Mostly Cloudy"
"-81.15","43.03","LONDON A","6144473","2017-09-29 14:00","2017","09","29","14:00","15.6","","8.3","","62","","29","","29","","24.1","","98.26","","","","","","NA"
"-81.15","43.03","LONDON A","6144473","2017-09-29 15:00","2017","09","29","15:00","12.6","","9.8","","83","","31","","23","","12.9","","98.40","","","","","","Rain Showers"
"-81.15","43.03","LONDON A","6144473","2017-09-29 16:00","2017","09","29","16:00","14.0","","8.6","","70","","32","","30","","24.1","","98.43","","","","","","Mostly Cloudy"
"-81.15","43.03","LONDON A","6144473","2017-09-29 17:00","2017","09","29","17:00","13.1","","7.2","","67","","34","","33","","24.1","","98.54","","","","","","NA"
"-81.15","43.03","LONDON A","6144473","2017-09-29 18:00","2017","09","29","18:00","11.8","","6.4","","70","","33","","23","","24.1","","98.63","","","","","","NA"
"-81.15","43.03","LONDON A","6144473","2017-09-29 19:00","2017","09","29","19:00","11.0","","6.5","","74","","33","","19","","24.1","","98.72","","","","","","Mainly Clear"
"-81.15","43.03","LONDON A","6144473","2017-09-29 20:00","2017","09","29","20:00","10.0","","5.5","","73","","35","","22","","24.1","","98.83","","","","","","NA"
"-81.15","43.03","LONDON A","6144473","2017-09-29 21:00","2017","09","29","21:00","9.5","","5.3","","75","","35","","22","","24.1","","98.89","","","","","","NA"
"-81.15","43.03","LONDON A","6144473","2017-09-29 22:00","2017","09","29","22:00","8.6","","5.6","","81","","35","","16","","24.1","","98.97","","","","","","Mainly Clear"
"-81.15","43.03","LONDON A","6144473","2017-09-29 23:00","2017","09","29","23:00","8.0","","5.4","","84","","34","","13","","24.1","","99.04","","","","","","NA"
"-81.15","43.03","LONDON A","6144473","2017-09-30 00:00","2017","09","30","00:00","7.2","","5.1","","87","","36","","11","","24.1","","99.09","","","","","","NA"
"-81.15","43.03","LONDON A","6144473","2017-09-30 01:00","2017","09","30","01:00","6.8","","5.2","","90","","35","","9","","24.1","","99.14","","","","","","Clear"
"-81.15","43.03","LONDON A","6144473","2017-09-30 02:00","2017","09","30","02:00","6.7","","5.5","","92","","36","","8","","24.1","","99.19","","","","","","NA"
"-81.15","43.03","LONDON A","6144473","2017-09-30 03:00","2017","09","30","03:00","8.3","","6.8","","90","","35","","10","","24.1","","99.27","","","","","","NA"
"-81.15","43.03","LONDON A","6144473","2017-09-30 04:00","2017","09","30","04:00","8.5","","6.1","","85","","36","","16","","24.1","","99.31","","","","","","Mostly Cloudy"
"-81.15","43.03","LONDON A","6144473","2017-09-30 05:00","2017","09","30","05:00","8.3","","5.8","","84","","36","","13","","24.1","","99.39","","","","","","NA"
"-81.15","43.03","LONDON A","6144473","2017-09-30 06:00","2017","09","30","06:00","7.2","","5.1","","87","","35","","15","","24.1","","99.46","","","","","","NA"
"-81.15","43.03","LONDON A","6144473","2017-09-30 07:00","2017","09","30","07:00","6.8","","4.5","","85","","36","","14","","24.1","","99.54","","","","","","Clear"
"-81.15","43.03","LONDON A","6144473","2017-09-30 08:00","2017","09","30","08:00","8.5","","3.7","","72","","1","","13","","24.1","","99.57","","","","","","NA"
"-81.15","43.03","LONDON A","6144473","2017-09-30 09:00","2017","09","30","09:00","10.0","","2.4","","59","","2","","18","","24.1","","99.64","","","","","","NA"
"-81.15","43.03","LONDON A","6144473","2017-09-30 10:00","2017","09","30","10:00","11.3","","3.1","","57","","1","","22","","24.1","","99.68","","","","","","Mainly Clear"
"-81.15","43.03","LONDON A","6144473","2017-09-30 11:00","2017","09","30","11:00","12.6","","3.1","","52","","2","","21","","24.1","","99.71","","","","","","NA"
"-81.15","43.03","LONDON A","6144473","2017-09-30 12:00","2017","09","30","12:00","12.7","","2.6","","50","","36","","14","","24.1","","99.72","","","","","","NA"
"-81.15","43.03","LONDON A","6144473","2017-09-30 13:00","2017","09","30","13:00","13.8","","2.7","","47","","36","","19","","24.1","","99.67","","","","","","Mainly Clear"
"-81.15","43.03","LONDON A","6144473","2017-09-30 14:00","2017","09","30","14:00","14.2","","2.5","","45","","1","","8","","24.1","","99.59","","","","","","NA"
"-81.15","43.03","LONDON A","6144473","2017-09-30 15:00","2017","09","30","15:00","14.8","","3.2","","45","","6","","6","","24.1","","99.54","","","","","","NA"
"-81.15","43.03","LONDON A","6144473","2017-09-30 16:00","2017","09","30","16:00","15.0","","1.7","","40","","1","","8","","24.1","","99.54","","","","","","Mainly Clear"
"-81.15","43.03","LONDON A","6144473","2017-09-30 17:00","2017","09","30","17:00","14.5","","1.9","","42","","1","","7","","24.1","","99.54","","","","","","NA"
"-81.15","43.03","LONDON A","6144473","2017-09-30 18:00","2017","09","30","18:00","12.5","","3.1","","52","","2","","7","","24.1","","99.54","","","","","","NA"
"-81.15","43.03","LONDON A","6144473","2017-09-30 19:00","2017","09","30","19:00","10.6","","5.5","","71","","32","","13","","24.1","","99.59","","","","","","Clear"
"-81.15","43.03","LONDON A","6144473","2017-09-30 20:00","2017","09","30","20:00","8.8","","5.5","","80","","34","","10","","24.1","","99.62","","","","","","NA"
"-81.15","43.03","LONDON A","6144473","2017-09-30 21:00","2017","09","30","21:00","7.5","","5.3","","86","","35","","10","","24.1","","99.63","","","","","","NA"
"-81.15","43.03","LONDON A","6144473","2017-09-30 22:00","2017","09","30","22:00","6.5","","4.7","","88","","9","","5","","24.1","","99.63","","","","","","Clear"
"-81.15","43.03","LONDON A","6144473","2017-09-30 23:00","2017","09","30","23:00","4.4","","3.5","","94","","3","","4","","24.1","","99.61","","","","","","NA"
